{
"type": "FeatureCollection",
"name": "bridges",
"crs": { "type": "name", "properties": { "name": "urn:ogc:def:crs:OGC:1.3:CRS84" } },
"features": [
{ "type": "Feature", "properties": { "Route": "Route_Opt_2", "Lat": 38.58577005, "Lon": -8.82635025, "Angle": 0, "Max_Height": "Unknown", "Google_Map": "https://www.google.com/maps?q=38.58577005,-8.82635025", "Type": "Bridge" }, "geometry": { "type": "Point", "coordinates": [ -8.82635025, 38.58577005 ] } },
{ "type": "Feature", "properties": { "Route": "Route_Opt_2", "Lat": 38.5852129, "Lon": -8.8241411, "Angle": 0, "Max_Height": "Unknown", "Google_Map": "https://www.google.com/maps?q=38.5852129,-8.824141099999999", "Type": "Bridge" }, "geometry": { "type": "Point", "coordinates": [ -8.8241411, 38.5852129 ] } },
{ "type": "Feature", "properties": { "Route": "Route_Opt_2", "Lat": 38.5844776, "Lon": -8.81784635, "Angle": 0, "Max_Height": "Unknown", "Google_Map": "https://www.google.com/maps?q=38.5844776,-8.81784635", "Type": "Bridge" }, "geometry": { "type": "Point", "coordinates": [ -8.81784635, 38.5844776 ] } },
{ "type": "Feature", "properties": { "Route": "Route_Opt_2", "Lat": 38.602810377614333, "Lon": -8.6478229754542983, "Angle": 0, "Max_Height": "Unknown", "Google_Map": "https://www.google.com/maps?q=38.60281037761434,-8.647822975454298", "Type": "Bridge" }, "geometry": { "type": "Point", "coordinates": [ -8.647822975454298, 38.60281037761434 ] } },
{ "type": "Feature", "properties": { "Route": "Route_Opt_2", "Lat": 39.0540708, "Lon": -8.17653995, "Angle": 0, "Max_Height": "Unknown", "Google_Map": "https://www.google.com/maps?q=39.0540708,-8.17653995", "Type": "Bridge" }, "geometry": { "type": "Point", "coordinates": [ -8.17653995, 39.0540708 ] } },
{ "type": "Feature", "properties": { "Route": "Route_Opt_2", "Lat": 38.64275445, "Lon": -8.4551189, "Angle": 0, "Max_Height": "Unknown", "Google_Map": "https://www.google.com/maps?q=38.64275445,-8.455118899999999", "Type": "Bridge" }, "geometry": { "type": "Point", "coordinates": [ -8.4551189, 38.64275445 ] } },
{ "type": "Feature", "properties": { "Route": "Route_Opt_2", "Lat": 38.601108249999989, "Lon": -8.6739977, "Angle": 0, "Max_Height": "Unknown", "Google_Map": "https://www.google.com/maps?q=38.601108249999996,-8.673997700000001", "Type": "Bridge" }, "geometry": { "type": "Point", "coordinates": [ -8.6739977, 38.60110825 ] } },
{ "type": "Feature", "properties": { "Route": "Route_Opt_2", "Lat": 38.60765035, "Lon": -8.6375604, "Angle": 0, "Max_Height": "Unknown", "Google_Map": "https://www.google.com/maps?q=38.60765035,-8.637560399999998", "Type": "Bridge" }, "geometry": { "type": "Point", "coordinates": [ -8.6375604, 38.60765035 ] } },
{ "type": "Feature", "properties": { "Route": "Route_Opt_2", "Lat": 38.6046505, "Lon": -8.6446995, "Angle": 2, "Max_Height": "Unknown", "Google_Map": "https://www.google.com/maps?q=38.604650500000005,-8.644699500000002", "Type": "Bridge" }, "geometry": { "type": "Point", "coordinates": [ -8.6446995, 38.6046505 ] } },
{ "type": "Feature", "properties": { "Route": "Route_Opt_2", "Lat": 38.6705248, "Lon": -8.2051718, "Angle": 0, "Max_Height": "Unknown", "Google_Map": "https://www.google.com/maps?q=38.670524799999995,-8.2051718", "Type": "Bridge" }, "geometry": { "type": "Point", "coordinates": [ -8.2051718, 38.6705248 ] } },
{ "type": "Feature", "properties": { "Route": "Route_Opt_2", "Lat": 38.96403905, "Lon": -8.1313778, "Angle": 0, "Max_Height": "Unknown", "Google_Map": "https://www.google.com/maps?q=38.96403905,-8.1313778", "Type": "Bridge" }, "geometry": { "type": "Point", "coordinates": [ -8.1313778, 38.96403905 ] } },
{ "type": "Feature", "properties": { "Route": "Route_Opt_2", "Lat": 38.6021169, "Lon": -8.6582082, "Angle": 0, "Max_Height": "Unknown", "Google_Map": "https://www.google.com/maps?q=38.6021169,-8.6582082", "Type": "Bridge" }, "geometry": { "type": "Point", "coordinates": [ -8.6582082, 38.6021169 ] } },
{ "type": "Feature", "properties": { "Route": "Route_Opt_2", "Lat": 38.65771076196701, "Lon": -8.2440259243153449, "Angle": 0, "Max_Height": "Unknown", "Google_Map": "https://www.google.com/maps?q=38.65771076196701,-8.244025924315343", "Type": "Bridge" }, "geometry": { "type": "Point", "coordinates": [ -8.244025924315343, 38.65771076196701 ] } },
{ "type": "Feature", "properties": { "Route": "Route_Opt_2", "Lat": 38.64357275, "Lon": -8.2687596, "Angle": 0, "Max_Height": "Unknown", "Google_Map": "https://www.google.com/maps?q=38.64357275,-8.2687596", "Type": "Bridge" }, "geometry": { "type": "Point", "coordinates": [ -8.2687596, 38.64357275 ] } },
{ "type": "Feature", "properties": { "Route": "Route_Opt_2", "Lat": 38.601417009754115, "Lon": -8.7340381344278875, "Angle": 0, "Max_Height": "Unknown", "Google_Map": "https://www.google.com/maps?q=38.60141700975411,-8.734038134427887", "Type": "Bridge" }, "geometry": { "type": "Point", "coordinates": [ -8.734038134427887, 38.601417009754108 ] } },
{ "type": "Feature", "properties": { "Route": "Route_Opt_2", "Lat": 38.8068426, "Lon": -8.23043705, "Angle": 1, "Max_Height": "Unknown", "Google_Map": "https://www.google.com/maps?q=38.8068426,-8.230437049999999", "Type": "Bridge" }, "geometry": { "type": "Point", "coordinates": [ -8.23043705, 38.8068426 ] } },
{ "type": "Feature", "properties": { "Route": "Route_Opt_2", "Lat": 38.514155798930695, "Lon": -8.8639830634676695, "Angle": 0, "Max_Height": "Unknown", "Google_Map": "https://www.google.com/maps?q=38.514155798930695,-8.86398306346767", "Type": "Bridge" }, "geometry": { "type": "Point", "coordinates": [ -8.86398306346767, 38.514155798930695 ] } },
{ "type": "Feature", "properties": { "Route": "Route_Opt_2", "Lat": 38.83324955000001, "Lon": -8.1820855, "Angle": 0, "Max_Height": "Unknown", "Google_Map": "https://www.google.com/maps?q=38.833249550000005,-8.1820855", "Type": "Bridge" }, "geometry": { "type": "Point", "coordinates": [ -8.1820855, 38.83324955 ] } },
{ "type": "Feature", "properties": { "Route": "Route_Opt_2", "Lat": 38.88222555, "Lon": -8.1729742, "Angle": 0, "Max_Height": "Unknown", "Google_Map": "https://www.google.com/maps?q=38.88222555,-8.1729742", "Type": "Bridge" }, "geometry": { "type": "Point", "coordinates": [ -8.1729742, 38.88222555 ] } },
{ "type": "Feature", "properties": { "Route": "Route_Opt_2", "Lat": 39.132804050000011, "Lon": -8.2412488, "Angle": 0, "Max_Height": "Unknown", "Google_Map": "https://www.google.com/maps?q=39.132804050000004,-8.241248800000001", "Type": "Bridge" }, "geometry": { "type": "Point", "coordinates": [ -8.2412488, 39.13280405 ] } },
{ "type": "Feature", "properties": { "Route": "Route_Opt_2", "Lat": 38.645467, "Lon": -8.3903612, "Angle": 0, "Max_Height": "Unknown", "Google_Map": "https://www.google.com/maps?q=38.645467,-8.390361200000001", "Type": "Bridge" }, "geometry": { "type": "Point", "coordinates": [ -8.3903612, 38.645467 ] } },
{ "type": "Feature", "properties": { "Route": "Route_Opt_2", "Lat": 38.632888761364505, "Lon": -8.5391007486847919, "Angle": 0, "Max_Height": "Unknown", "Google_Map": "https://www.google.com/maps?q=38.632888761364505,-8.539100748684792", "Type": "Bridge" }, "geometry": { "type": "Point", "coordinates": [ -8.539100748684792, 38.632888761364505 ] } },
{ "type": "Feature", "properties": { "Route": "Route_Opt_2", "Lat": 38.623101597079632, "Lon": -8.5719734836961603, "Angle": 0, "Max_Height": "Unknown", "Google_Map": "https://www.google.com/maps?q=38.62310159707963,-8.57197348369616", "Type": "Bridge" }, "geometry": { "type": "Point", "coordinates": [ -8.57197348369616, 38.623101597079632 ] } },
{ "type": "Feature", "properties": { "Route": "Route_Opt_2", "Lat": 38.639069291507653, "Lon": -8.4965014291835157, "Angle": 0, "Max_Height": "Unknown", "Google_Map": "https://www.google.com/maps?q=38.63906929150765,-8.496501429183516", "Type": "Bridge" }, "geometry": { "type": "Point", "coordinates": [ -8.496501429183516, 38.639069291507653 ] } },
{ "type": "Feature", "properties": { "Route": "Route_Opt_2", "Lat": 38.752153, "Lon": -8.19764755, "Angle": 4, "Max_Height": "Unknown", "Google_Map": "https://www.google.com/maps?q=38.752153,-8.19764755", "Type": "Bridge" }, "geometry": { "type": "Point", "coordinates": [ -8.19764755, 38.752153 ] } },
{ "type": "Feature", "properties": { "Route": "Route_Opt_2", "Lat": 38.59659785, "Lon": -8.7131587, "Angle": 0, "Max_Height": "Unknown", "Google_Map": "https://www.google.com/maps?q=38.59659785,-8.713158700000001", "Type": "Bridge" }, "geometry": { "type": "Point", "coordinates": [ -8.7131587, 38.59659785 ] } },
{ "type": "Feature", "properties": { "Route": "Route_Opt_2", "Lat": 38.64115715, "Lon": -8.46761215, "Angle": 0, "Max_Height": "Unknown", "Google_Map": "https://www.google.com/maps?q=38.64115715,-8.46761215", "Type": "Bridge" }, "geometry": { "type": "Point", "coordinates": [ -8.46761215, 38.64115715 ] } },
{ "type": "Feature", "properties": { "Route": "Route_Opt_2", "Lat": 38.8708581, "Lon": -8.15157145, "Angle": 17, "Max_Height": "Unknown", "Google_Map": "https://www.google.com/maps?q=38.8708581,-8.15157145", "Type": "Bridge" }, "geometry": { "type": "Point", "coordinates": [ -8.15157145, 38.8708581 ] } },
{ "type": "Feature", "properties": { "Route": "Route_Opt_1", "Lat": 38.58577005, "Lon": -8.82635025, "Angle": 0, "Max_Height": "Unknown", "Google_Map": "https://www.google.com/maps?q=38.58577005,-8.82635025", "Type": "Bridge" }, "geometry": { "type": "Point", "coordinates": [ -8.82635025, 38.58577005 ] } },
{ "type": "Feature", "properties": { "Route": "Route_Opt_1", "Lat": 38.5852129, "Lon": -8.8241411, "Angle": 0, "Max_Height": "Unknown", "Google_Map": "https://www.google.com/maps?q=38.5852129,-8.824141099999999", "Type": "Bridge" }, "geometry": { "type": "Point", "coordinates": [ -8.8241411, 38.5852129 ] } },
{ "type": "Feature", "properties": { "Route": "Route_Opt_1", "Lat": 38.5844776, "Lon": -8.81784635, "Angle": 0, "Max_Height": "Unknown", "Google_Map": "https://www.google.com/maps?q=38.5844776,-8.81784635", "Type": "Bridge" }, "geometry": { "type": "Point", "coordinates": [ -8.81784635, 38.5844776 ] } },
{ "type": "Feature", "properties": { "Route": "Route_Opt_1", "Lat": 38.602810377614333, "Lon": -8.6478229754542983, "Angle": 0, "Max_Height": "Unknown", "Google_Map": "https://www.google.com/maps?q=38.60281037761434,-8.647822975454298", "Type": "Bridge" }, "geometry": { "type": "Point", "coordinates": [ -8.647822975454298, 38.60281037761434 ] } },
{ "type": "Feature", "properties": { "Route": "Route_Opt_1", "Lat": 38.8405405, "Lon": -8.7318258, "Angle": 0, "Max_Height": "Unknown", "Google_Map": "https://www.google.com/maps?q=38.8405405,-8.7318258", "Type": "Bridge" }, "geometry": { "type": "Point", "coordinates": [ -8.7318258, 38.8405405 ] } },
{ "type": "Feature", "properties": { "Route": "Route_Opt_1", "Lat": 38.601108249999989, "Lon": -8.6739977, "Angle": 0, "Max_Height": "Unknown", "Google_Map": "https://www.google.com/maps?q=38.601108249999996,-8.673997700000001", "Type": "Bridge" }, "geometry": { "type": "Point", "coordinates": [ -8.6739977, 38.60110825 ] } },
{ "type": "Feature", "properties": { "Route": "Route_Opt_1", "Lat": 38.7671686, "Lon": -8.683009, "Angle": 0, "Max_Height": "Unknown", "Google_Map": "https://www.google.com/maps?q=38.7671686,-8.683009", "Type": "Bridge" }, "geometry": { "type": "Point", "coordinates": [ -8.683009, 38.7671686 ] } },
{ "type": "Feature", "properties": { "Route": "Route_Opt_1", "Lat": 38.60499635, "Lon": -8.6450538, "Angle": 10, "Max_Height": "Unknown", "Google_Map": "https://www.google.com/maps?q=38.60499635,-8.6450538", "Type": "Bridge" }, "geometry": { "type": "Point", "coordinates": [ -8.6450538, 38.60499635 ] } },
{ "type": "Feature", "properties": { "Route": "Route_Opt_1", "Lat": 38.83740395, "Lon": -8.7266568, "Angle": 0, "Max_Height": "Unknown", "Google_Map": "https://www.google.com/maps?q=38.83740395,-8.7266568", "Type": "Bridge" }, "geometry": { "type": "Point", "coordinates": [ -8.7266568, 38.83740395 ] } },
{ "type": "Feature", "properties": { "Route": "Route_Opt_1", "Lat": 38.9145278, "Lon": -8.76775155, "Angle": 0, "Max_Height": "Unknown", "Google_Map": "https://www.google.com/maps?q=38.9145278,-8.76775155", "Type": "Bridge" }, "geometry": { "type": "Point", "coordinates": [ -8.76775155, 38.9145278 ] } },
{ "type": "Feature", "properties": { "Route": "Route_Opt_1", "Lat": 38.963424456955067, "Lon": -8.7350617642808714, "Angle": 0, "Max_Height": "Unknown", "Google_Map": "https://www.google.com/maps?q=38.96342445695507,-8.735061764280871", "Type": "Bridge" }, "geometry": { "type": "Point", "coordinates": [ -8.735061764280871, 38.963424456955067 ] } },
{ "type": "Feature", "properties": { "Route": "Route_Opt_1", "Lat": 39.0462665, "Lon": -8.6724116, "Angle": 0, "Max_Height": "Unknown", "Google_Map": "https://www.google.com/maps?q=39.0462665,-8.6724116", "Type": "Bridge" }, "geometry": { "type": "Point", "coordinates": [ -8.6724116, 39.0462665 ] } },
{ "type": "Feature", "properties": { "Route": "Route_Opt_1", "Lat": 39.0355142, "Lon": -8.67794355, "Angle": 0, "Max_Height": "Unknown", "Google_Map": "https://www.google.com/maps?q=39.0355142,-8.67794355", "Type": "Bridge" }, "geometry": { "type": "Point", "coordinates": [ -8.67794355, 39.0355142 ] } },
{ "type": "Feature", "properties": { "Route": "Route_Opt_1", "Lat": 38.6463672, "Lon": -8.6660727, "Angle": 0, "Max_Height": "Unknown", "Google_Map": "https://www.google.com/maps?q=38.6463672,-8.6660727", "Type": "Bridge" }, "geometry": { "type": "Point", "coordinates": [ -8.6660727, 38.6463672 ] } },
{ "type": "Feature", "properties": { "Route": "Route_Opt_1", "Lat": 39.323815462421869, "Lon": -8.4759198521711578, "Angle": 0, "Max_Height": "Unknown", "Google_Map": "https://www.google.com/maps?q=39.32381546242187,-8.475919852171158", "Type": "Bridge" }, "geometry": { "type": "Point", "coordinates": [ -8.475919852171158, 39.323815462421869 ] } },
{ "type": "Feature", "properties": { "Route": "Route_Opt_1", "Lat": 38.6021169, "Lon": -8.6582082, "Angle": 0, "Max_Height": "Unknown", "Google_Map": "https://www.google.com/maps?q=38.6021169,-8.6582082", "Type": "Bridge" }, "geometry": { "type": "Point", "coordinates": [ -8.6582082, 38.6021169 ] } },
{ "type": "Feature", "properties": { "Route": "Route_Opt_1", "Lat": 38.601417009754115, "Lon": -8.7340381344278875, "Angle": 0, "Max_Height": "Unknown", "Google_Map": "https://www.google.com/maps?q=38.60141700975411,-8.734038134427887", "Type": "Bridge" }, "geometry": { "type": "Point", "coordinates": [ -8.734038134427887, 38.601417009754108 ] } },
{ "type": "Feature", "properties": { "Route": "Route_Opt_1", "Lat": 39.00745965, "Lon": -8.7048612, "Angle": 0, "Max_Height": "Unknown", "Google_Map": "https://www.google.com/maps?q=39.00745965,-8.7048612", "Type": "Bridge" }, "geometry": { "type": "Point", "coordinates": [ -8.7048612, 39.00745965 ] } },
{ "type": "Feature", "properties": { "Route": "Route_Opt_1", "Lat": 39.10473205, "Lon": -8.6498531, "Angle": 0, "Max_Height": "Unknown", "Google_Map": "https://www.google.com/maps?q=39.10473205,-8.6498531", "Type": "Bridge" }, "geometry": { "type": "Point", "coordinates": [ -8.6498531, 39.10473205 ] } },
{ "type": "Feature", "properties": { "Route": "Route_Opt_1", "Lat": 38.8962625, "Lon": -8.7878592, "Angle": 0, "Max_Height": "Unknown", "Google_Map": "https://www.google.com/maps?q=38.8962625,-8.7878592", "Type": "Bridge" }, "geometry": { "type": "Point", "coordinates": [ -8.7878592, 38.8962625 ] } },
{ "type": "Feature", "properties": { "Route": "Route_Opt_1", "Lat": 38.91092125, "Lon": -8.77324895, "Angle": 0, "Max_Height": "Unknown", "Google_Map": "https://www.google.com/maps?q=38.91092125,-8.77324895", "Type": "Bridge" }, "geometry": { "type": "Point", "coordinates": [ -8.77324895, 38.91092125 ] } },
{ "type": "Feature", "properties": { "Route": "Route_Opt_1", "Lat": 38.9094566, "Lon": -8.7752305, "Angle": 0, "Max_Height": "Unknown", "Google_Map": "https://www.google.com/maps?q=38.9094566,-8.7752305", "Type": "Bridge" }, "geometry": { "type": "Point", "coordinates": [ -8.7752305, 38.9094566 ] } },
{ "type": "Feature", "properties": { "Route": "Route_Opt_1", "Lat": 38.936433715313605, "Lon": -8.7430149238539308, "Angle": 0, "Max_Height": "Unknown", "Google_Map": "https://www.google.com/maps?q=38.93643371531361,-8.743014923853929", "Type": "Bridge" }, "geometry": { "type": "Point", "coordinates": [ -8.743014923853929, 38.936433715313612 ] } },
{ "type": "Feature", "properties": { "Route": "Route_Opt_1", "Lat": 38.891432181433551, "Lon": -8.7913604578928357, "Angle": 2, "Max_Height": "Unknown", "Google_Map": "https://www.google.com/maps?q=38.89143218143355,-8.791360457892836", "Type": "Bridge" }, "geometry": { "type": "Point", "coordinates": [ -8.791360457892836, 38.891432181433551 ] } },
{ "type": "Feature", "properties": { "Route": "Route_Opt_1", "Lat": 39.31750965000001, "Lon": -8.4302096, "Angle": 5, "Max_Height": "Unknown", "Google_Map": "https://www.google.com/maps?q=39.317509650000005,-8.4302096", "Type": "Bridge" }, "geometry": { "type": "Point", "coordinates": [ -8.4302096, 39.31750965 ] } },
{ "type": "Feature", "properties": { "Route": "Route_Opt_1", "Lat": 38.514155798930695, "Lon": -8.8639830634676695, "Angle": 0, "Max_Height": "Unknown", "Google_Map": "https://www.google.com/maps?q=38.514155798930695,-8.86398306346767", "Type": "Bridge" }, "geometry": { "type": "Point", "coordinates": [ -8.86398306346767, 38.514155798930695 ] } },
{ "type": "Feature", "properties": { "Route": "Route_Opt_1", "Lat": 39.22563025, "Lon": -8.26024775, "Angle": 0, "Max_Height": "Unknown", "Google_Map": "https://www.google.com/maps?q=39.225630249999995,-8.26024775", "Type": "Bridge" }, "geometry": { "type": "Point", "coordinates": [ -8.26024775, 39.22563025 ] } },
{ "type": "Feature", "properties": { "Route": "Route_Opt_1", "Lat": 39.06066115, "Lon": -8.66627865, "Angle": 1, "Max_Height": "Unknown", "Google_Map": "https://www.google.com/maps?q=39.06066115,-8.666278649999999", "Type": "Bridge" }, "geometry": { "type": "Point", "coordinates": [ -8.66627865, 39.06066115 ] } },
{ "type": "Feature", "properties": { "Route": "Route_Opt_1", "Lat": 38.6125641, "Lon": -8.6501158, "Angle": 0, "Max_Height": "Unknown", "Google_Map": "https://www.google.com/maps?q=38.6125641,-8.6501158", "Type": "Bridge" }, "geometry": { "type": "Point", "coordinates": [ -8.6501158, 38.6125641 ] } },
{ "type": "Feature", "properties": { "Route": "Route_Opt_1", "Lat": 39.0144368, "Lon": -8.698495, "Angle": 0, "Max_Height": "Unknown", "Google_Map": "https://www.google.com/maps?q=39.0144368,-8.698495000000001", "Type": "Bridge" }, "geometry": { "type": "Point", "coordinates": [ -8.698495, 39.0144368 ] } },
{ "type": "Feature", "properties": { "Route": "Route_Opt_1", "Lat": 38.59659785, "Lon": -8.7131587, "Angle": 0, "Max_Height": "Unknown", "Google_Map": "https://www.google.com/maps?q=38.59659785,-8.713158700000001", "Type": "Bridge" }, "geometry": { "type": "Point", "coordinates": [ -8.7131587, 38.59659785 ] } },
{ "type": "Feature", "properties": { "Route": "Route_Opt_1", "Lat": 39.27050405, "Lon": -8.35064515, "Angle": 14, "Max_Height": "Unknown", "Google_Map": "https://www.google.com/maps?q=39.27050405,-8.35064515", "Type": "Bridge" }, "geometry": { "type": "Point", "coordinates": [ -8.35064515, 39.27050405 ] } },
{ "type": "Feature", "properties": { "Route": "Route_Opt_1", "Lat": 39.3136334, "Lon": -8.42330105, "Angle": 9, "Max_Height": "Unknown", "Google_Map": "https://www.google.com/maps?q=39.3136334,-8.42330105", "Type": "Bridge" }, "geometry": { "type": "Point", "coordinates": [ -8.42330105, 39.3136334 ] } }
]
}
