{
"type": "FeatureCollection",
"name": "overpass",
"crs": { "type": "name", "properties": { "name": "urn:ogc:def:crs:OGC:1.3:CRS84" } },
"features": [
{ "type": "Feature", "properties": { "Route": "Route_Opt_2", "Lat": 38.5406733, "Lon": -8.8723548, "Angle": 83, "Max_Height": "Unknown", "Google_Map": "https://www.google.com/maps?q=38.540673299999995,-8.8723548", "Type": "Overpass" }, "geometry": { "type": "Point", "coordinates": [ -8.8723548, 38.5406733 ] } },
{ "type": "Feature", "properties": { "Route": "Route_Opt_2", "Lat": 38.5818907, "Lon": -8.8596048, "Angle": 80, "Max_Height": "Unknown", "Google_Map": "https://www.google.com/maps?q=38.5818907,-8.8596048", "Type": "Overpass" }, "geometry": { "type": "Point", "coordinates": [ -8.8596048, 38.5818907 ] } },
{ "type": "Feature", "properties": { "Route": "Route_Opt_2", "Lat": 38.6005516, "Lon": -8.73795315, "Angle": 88, "Max_Height": "Unknown", "Google_Map": "https://www.google.com/maps?q=38.6005516,-8.73795315", "Type": "Overpass" }, "geometry": { "type": "Point", "coordinates": [ -8.73795315, 38.6005516 ] } },
{ "type": "Feature", "properties": { "Route": "Route_Opt_2", "Lat": 38.642193950237619, "Lon": -8.4591923677357244, "Angle": 87, "Max_Height": "Unknown", "Google_Map": "https://www.google.com/maps?q=38.64219395023762,-8.459192367735724", "Type": "Overpass" }, "geometry": { "type": "Point", "coordinates": [ -8.459192367735724, 38.642193950237619 ] } },
{ "type": "Feature", "properties": { "Route": "Route_Opt_2", "Lat": 38.636261180310711, "Lon": -8.3281821816866408, "Angle": 86, "Max_Height": "Unknown", "Google_Map": "https://www.google.com/maps?q=38.63626118031071,-8.328182181686639", "Type": "Overpass" }, "geometry": { "type": "Point", "coordinates": [ -8.328182181686639, 38.636261180310711 ] } },
{ "type": "Feature", "properties": { "Route": "Route_Opt_2", "Lat": 38.63960745, "Lon": -8.3467931, "Angle": 88, "Max_Height": "Unknown", "Google_Map": "https://www.google.com/maps?q=38.63960745,-8.3467931", "Type": "Overpass" }, "geometry": { "type": "Point", "coordinates": [ -8.3467931, 38.63960745 ] } },
{ "type": "Feature", "properties": { "Route": "Route_Opt_2", "Lat": 38.63878635, "Lon": -8.3422336, "Angle": 87, "Max_Height": "Unknown", "Google_Map": "https://www.google.com/maps?q=38.638786350000004,-8.3422336", "Type": "Overpass" }, "geometry": { "type": "Point", "coordinates": [ -8.3422336, 38.63878635 ] } },
{ "type": "Feature", "properties": { "Route": "Route_Opt_2", "Lat": 38.64377855, "Lon": -8.36767275, "Angle": 81, "Max_Height": "Unknown", "Google_Map": "https://www.google.com/maps?q=38.64377855,-8.36767275", "Type": "Overpass" }, "geometry": { "type": "Point", "coordinates": [ -8.36767275, 38.64377855 ] } },
{ "type": "Feature", "properties": { "Route": "Route_Opt_2", "Lat": 38.6354145, "Lon": -8.3093741, "Angle": 52, "Max_Height": "Unknown", "Google_Map": "https://www.google.com/maps?q=38.635414499999996,-8.3093741", "Type": "Overpass" }, "geometry": { "type": "Point", "coordinates": [ -8.3093741, 38.6354145 ] } },
{ "type": "Feature", "properties": { "Route": "Route_Opt_2", "Lat": 38.661512104325709, "Lon": -8.2397699712396584, "Angle": 76, "Max_Height": "Unknown", "Google_Map": "https://www.google.com/maps?q=38.66151210432571,-8.239769971239657", "Type": "Overpass" }, "geometry": { "type": "Point", "coordinates": [ -8.239769971239657, 38.661512104325709 ] } },
{ "type": "Feature", "properties": { "Route": "Route_Opt_2", "Lat": 38.6201027, "Lon": -8.5848414, "Angle": 81, "Max_Height": "Unknown", "Google_Map": "https://www.google.com/maps?q=38.620102700000004,-8.5848414", "Type": "Overpass" }, "geometry": { "type": "Point", "coordinates": [ -8.5848414, 38.6201027 ] } },
{ "type": "Feature", "properties": { "Route": "Route_Opt_2", "Lat": 38.6337776, "Lon": -8.53004565, "Angle": 88, "Max_Height": "Unknown", "Google_Map": "https://www.google.com/maps?q=38.6337776,-8.530045650000002", "Type": "Overpass" }, "geometry": { "type": "Point", "coordinates": [ -8.53004565, 38.6337776 ] } },
{ "type": "Feature", "properties": { "Route": "Route_Opt_2", "Lat": 38.609795170396467, "Lon": -8.6310325358204061, "Angle": 80, "Max_Height": "Unknown", "Google_Map": "https://www.google.com/maps?q=38.60979517039647,-8.631032535820406", "Type": "Overpass" }, "geometry": { "type": "Point", "coordinates": [ -8.631032535820406, 38.609795170396467 ] } },
{ "type": "Feature", "properties": { "Route": "Route_Opt_2", "Lat": 38.631996925562909, "Lon": -8.5435930495987424, "Angle": 81, "Max_Height": "Unknown", "Google_Map": "https://www.google.com/maps?q=38.63199692556291,-8.54359304959874", "Type": "Overpass" }, "geometry": { "type": "Point", "coordinates": [ -8.543593049598741, 38.631996925562909 ] } },
{ "type": "Feature", "properties": { "Route": "Route_Opt_2", "Lat": 38.606136804017211, "Lon": -8.6417298649413183, "Angle": 77, "Max_Height": "Unknown", "Google_Map": "https://www.google.com/maps?q=38.606136804017204,-8.641729864941317", "Type": "Overpass" }, "geometry": { "type": "Point", "coordinates": [ -8.641729864941317, 38.606136804017204 ] } },
{ "type": "Feature", "properties": { "Route": "Route_Opt_2", "Lat": 38.645081156484586, "Lon": -8.3840344005644631, "Angle": 89, "Max_Height": "Unknown", "Google_Map": "https://www.google.com/maps?q=38.645081156484586,-8.384034400564463", "Type": "Overpass" }, "geometry": { "type": "Point", "coordinates": [ -8.384034400564463, 38.645081156484586 ] } },
{ "type": "Feature", "properties": { "Route": "Route_Opt_2", "Lat": 38.635945015370623, "Lon": -8.3213298442508883, "Angle": 86, "Max_Height": "Unknown", "Google_Map": "https://www.google.com/maps?q=38.63594501537062,-8.321329844250888", "Type": "Overpass" }, "geometry": { "type": "Point", "coordinates": [ -8.321329844250888, 38.635945015370623 ] } },
{ "type": "Feature", "properties": { "Route": "Route_Opt_2", "Lat": 38.600383766975739, "Lon": -8.7263303689718796, "Angle": 77, "Max_Height": "Unknown", "Google_Map": "https://www.google.com/maps?q=38.60038376697574,-8.72633036897188", "Type": "Overpass" }, "geometry": { "type": "Point", "coordinates": [ -8.72633036897188, 38.600383766975739 ] } },
{ "type": "Feature", "properties": { "Route": "Route_Opt_2", "Lat": 38.601345295786729, "Lon": -8.6708996952145334, "Angle": 82, "Max_Height": "Unknown", "Google_Map": "https://www.google.com/maps?q=38.60134529578673,-8.670899695214533", "Type": "Overpass" }, "geometry": { "type": "Point", "coordinates": [ -8.670899695214533, 38.601345295786729 ] } },
{ "type": "Feature", "properties": { "Route": "Route_Opt_2", "Lat": 39.074715859548995, "Lon": -8.1657515893388641, "Angle": 45, "Max_Height": "Unknown", "Google_Map": "https://www.google.com/maps?q=39.074715859548995,-8.165751589338864", "Type": "Overpass" }, "geometry": { "type": "Point", "coordinates": [ -8.165751589338864, 39.074715859548995 ] } },
{ "type": "Feature", "properties": { "Route": "Route_Opt_2", "Lat": 38.6418301, "Lon": -8.3610155, "Angle": 80, "Max_Height": "Unknown", "Google_Map": "https://www.google.com/maps?q=38.64183010000001,-8.3610155", "Type": "Overpass" }, "geometry": { "type": "Point", "coordinates": [ -8.3610155, 38.6418301 ] } },
{ "type": "Feature", "properties": { "Route": "Route_Opt_2", "Lat": 38.6448353, "Lon": -8.43897095, "Angle": 88, "Max_Height": "Unknown", "Google_Map": "https://www.google.com/maps?q=38.6448353,-8.43897095", "Type": "Overpass" }, "geometry": { "type": "Point", "coordinates": [ -8.43897095, 38.6448353 ] } },
{ "type": "Feature", "properties": { "Route": "Route_Opt_2", "Lat": 38.65585915810496, "Lon": -8.24618850686225, "Angle": 76, "Max_Height": "Unknown", "Google_Map": "https://www.google.com/maps?q=38.65585915810496,-8.24618850686225", "Type": "Overpass" }, "geometry": { "type": "Point", "coordinates": [ -8.24618850686225, 38.65585915810496 ] } },
{ "type": "Feature", "properties": { "Route": "Route_Opt_2", "Lat": 38.635789, "Lon": -8.2915469, "Angle": 87, "Max_Height": "Unknown", "Google_Map": "https://www.google.com/maps?q=38.635789,-8.2915469", "Type": "Overpass" }, "geometry": { "type": "Point", "coordinates": [ -8.2915469, 38.635789 ] } },
{ "type": "Feature", "properties": { "Route": "Route_Opt_2", "Lat": 38.646959532822102, "Lon": -8.4260917516020868, "Angle": 85, "Max_Height": "Unknown", "Google_Map": "https://www.google.com/maps?q=38.6469595328221,-8.426091751602085", "Type": "Overpass" }, "geometry": { "type": "Point", "coordinates": [ -8.426091751602085, 38.646959532822102 ] } },
{ "type": "Feature", "properties": { "Route": "Route_Opt_2", "Lat": 38.648984, "Lon": -8.21575695, "Angle": 56, "Max_Height": "Unknown", "Google_Map": "https://www.google.com/maps?q=38.648984,-8.21575695", "Type": "Overpass" }, "geometry": { "type": "Point", "coordinates": [ -8.21575695, 38.648984 ] } },
{ "type": "Feature", "properties": { "Route": "Route_Opt_1", "Lat": 39.0725677, "Lon": -8.66927545, "Angle": 42, "Max_Height": "Unknown", "Google_Map": "https://www.google.com/maps?q=39.0725677,-8.66927545", "Type": "Overpass" }, "geometry": { "type": "Point", "coordinates": [ -8.66927545, 39.0725677 ] } },
{ "type": "Feature", "properties": { "Route": "Route_Opt_1", "Lat": 38.5406733, "Lon": -8.8723548, "Angle": 83, "Max_Height": "Unknown", "Google_Map": "https://www.google.com/maps?q=38.540673299999995,-8.8723548", "Type": "Overpass" }, "geometry": { "type": "Point", "coordinates": [ -8.8723548, 38.5406733 ] } },
{ "type": "Feature", "properties": { "Route": "Route_Opt_1", "Lat": 38.5818907, "Lon": -8.8596048, "Angle": 80, "Max_Height": "Unknown", "Google_Map": "https://www.google.com/maps?q=38.5818907,-8.8596048", "Type": "Overpass" }, "geometry": { "type": "Point", "coordinates": [ -8.8596048, 38.5818907 ] } },
{ "type": "Feature", "properties": { "Route": "Route_Opt_1", "Lat": 38.6005516, "Lon": -8.73795315, "Angle": 88, "Max_Height": "Unknown", "Google_Map": "https://www.google.com/maps?q=38.6005516,-8.73795315", "Type": "Overpass" }, "geometry": { "type": "Point", "coordinates": [ -8.73795315, 38.6005516 ] } },
{ "type": "Feature", "properties": { "Route": "Route_Opt_1", "Lat": 39.2905272, "Lon": -8.52224835, "Angle": 65, "Max_Height": "Unknown", "Google_Map": "https://www.google.com/maps?q=39.2905272,-8.52224835", "Type": "Overpass" }, "geometry": { "type": "Point", "coordinates": [ -8.52224835, 39.2905272 ] } },
{ "type": "Feature", "properties": { "Route": "Route_Opt_1", "Lat": 39.187318250000011, "Lon": -8.64291545, "Angle": 58, "Max_Height": "Unknown", "Google_Map": "https://www.google.com/maps?q=39.187318250000004,-8.64291545", "Type": "Overpass" }, "geometry": { "type": "Point", "coordinates": [ -8.64291545, 39.18731825 ] } },
{ "type": "Feature", "properties": { "Route": "Route_Opt_1", "Lat": 39.150116298068625, "Lon": -8.6238626988486065, "Angle": 65, "Max_Height": "Unknown", "Google_Map": "https://www.google.com/maps?q=39.150116298068625,-8.623862698848605", "Type": "Overpass" }, "geometry": { "type": "Point", "coordinates": [ -8.623862698848605, 39.150116298068625 ] } },
{ "type": "Feature", "properties": { "Route": "Route_Opt_1", "Lat": 38.978095122206611, "Lon": -8.7268609006575364, "Angle": 54, "Max_Height": "Unknown", "Google_Map": "https://www.google.com/maps?q=38.97809512220661,-8.726860900657535", "Type": "Overpass" }, "geometry": { "type": "Point", "coordinates": [ -8.726860900657535, 38.978095122206611 ] } },
{ "type": "Feature", "properties": { "Route": "Route_Opt_1", "Lat": 38.6945163, "Lon": -8.6389286, "Angle": 87, "Max_Height": "Unknown", "Google_Map": "https://www.google.com/maps?q=38.694516300000004,-8.6389286", "Type": "Overpass" }, "geometry": { "type": "Point", "coordinates": [ -8.6389286, 38.6945163 ] } },
{ "type": "Feature", "properties": { "Route": "Route_Opt_1", "Lat": 38.600383766975739, "Lon": -8.7263303689718796, "Angle": 77, "Max_Height": "Unknown", "Google_Map": "https://www.google.com/maps?q=38.60038376697574,-8.72633036897188", "Type": "Overpass" }, "geometry": { "type": "Point", "coordinates": [ -8.72633036897188, 38.600383766975739 ] } },
{ "type": "Feature", "properties": { "Route": "Route_Opt_1", "Lat": 38.601345295786729, "Lon": -8.6708996952145334, "Angle": 82, "Max_Height": "Unknown", "Google_Map": "https://www.google.com/maps?q=38.60134529578673,-8.670899695214533", "Type": "Overpass" }, "geometry": { "type": "Point", "coordinates": [ -8.670899695214533, 38.601345295786729 ] } },
{ "type": "Feature", "properties": { "Route": "Route_Opt_1", "Lat": 39.051576813082704, "Lon": -8.669798676564092, "Angle": 79, "Max_Height": "Unknown", "Google_Map": "https://www.google.com/maps?q=39.051576813082704,-8.669798676564092", "Type": "Overpass" }, "geometry": { "type": "Point", "coordinates": [ -8.669798676564092, 39.051576813082704 ] } },
{ "type": "Feature", "properties": { "Route": "Route_Opt_1", "Lat": 39.076135635260897, "Lon": -8.6718776954015109, "Angle": 64, "Max_Height": "Unknown", "Google_Map": "https://www.google.com/maps?q=39.0761356352609,-8.671877695401509", "Type": "Overpass" }, "geometry": { "type": "Point", "coordinates": [ -8.671877695401509, 39.076135635260897 ] } },
{ "type": "Feature", "properties": { "Route": "Route_Opt_1", "Lat": 39.1090186, "Lon": -8.6411415, "Angle": 79, "Max_Height": "Unknown", "Google_Map": "https://www.google.com/maps?q=39.1090186,-8.6411415", "Type": "Overpass" }, "geometry": { "type": "Point", "coordinates": [ -8.6411415, 39.1090186 ] } },
{ "type": "Feature", "properties": { "Route": "Route_Opt_1", "Lat": 38.655563451725385, "Lon": -8.6634430981231638, "Angle": 27, "Max_Height": "Unknown", "Google_Map": "https://www.google.com/maps?q=38.655563451725385,-8.663443098123164", "Type": "Overpass" }, "geometry": { "type": "Point", "coordinates": [ -8.663443098123164, 38.655563451725385 ] } },
{ "type": "Feature", "properties": { "Route": "Route_Opt_1", "Lat": 38.649949204291097, "Lon": -8.6655472386198795, "Angle": 83, "Max_Height": "Unknown", "Google_Map": "https://www.google.com/maps?q=38.6499492042911,-8.66554723861988", "Type": "Overpass" }, "geometry": { "type": "Point", "coordinates": [ -8.66554723861988, 38.649949204291097 ] } },
{ "type": "Feature", "properties": { "Route": "Route_Opt_1", "Lat": 38.86280185, "Lon": -8.77918125, "Angle": 78, "Max_Height": "Unknown", "Google_Map": "https://www.google.com/maps?q=38.86280185,-8.77918125", "Type": "Overpass" }, "geometry": { "type": "Point", "coordinates": [ -8.77918125, 38.86280185 ] } },
{ "type": "Feature", "properties": { "Route": "Route_Opt_1", "Lat": 38.8564614, "Lon": -8.7688185, "Angle": 76, "Max_Height": "Unknown", "Google_Map": "https://www.google.com/maps?q=38.8564614,-8.7688185", "Type": "Overpass" }, "geometry": { "type": "Point", "coordinates": [ -8.7688185, 38.8564614 ] } },
{ "type": "Feature", "properties": { "Route": "Route_Opt_1", "Lat": 38.84686585, "Lon": -8.7500565, "Angle": 42, "Max_Height": "Unknown", "Google_Map": "https://www.google.com/maps?q=38.84686585,-8.7500565", "Type": "Overpass" }, "geometry": { "type": "Point", "coordinates": [ -8.7500565, 38.84686585 ] } },
{ "type": "Feature", "properties": { "Route": "Route_Opt_1", "Lat": 38.75556105, "Lon": -8.6841586, "Angle": 87, "Max_Height": "Unknown", "Google_Map": "https://www.google.com/maps?q=38.75556105,-8.6841586", "Type": "Overpass" }, "geometry": { "type": "Point", "coordinates": [ -8.6841586, 38.75556105 ] } },
{ "type": "Feature", "properties": { "Route": "Route_Opt_1", "Lat": 38.9774428, "Lon": -8.727365, "Angle": 77, "Max_Height": "Unknown", "Google_Map": "https://www.google.com/maps?q=38.9774428,-8.727364999999999", "Type": "Overpass" }, "geometry": { "type": "Point", "coordinates": [ -8.727365, 38.9774428 ] } },
{ "type": "Feature", "properties": { "Route": "Route_Opt_1", "Lat": 39.159677217297926, "Lon": -8.6256674368608568, "Angle": 88, "Max_Height": "Unknown", "Google_Map": "https://www.google.com/maps?q=39.159677217297926,-8.625667436860855", "Type": "Overpass" }, "geometry": { "type": "Point", "coordinates": [ -8.625667436860855, 39.159677217297926 ] } },
{ "type": "Feature", "properties": { "Route": "Route_Opt_1", "Lat": 39.14386275, "Lon": -8.62264405, "Angle": 36, "Max_Height": "Unknown", "Google_Map": "https://www.google.com/maps?q=39.14386275,-8.62264405", "Type": "Overpass" }, "geometry": { "type": "Point", "coordinates": [ -8.62264405, 39.14386275 ] } },
{ "type": "Feature", "properties": { "Route": "Route_Opt_1", "Lat": 39.13218555, "Lon": -8.6204991, "Angle": 88, "Max_Height": "Unknown", "Google_Map": "https://www.google.com/maps?q=39.13218555,-8.6204991", "Type": "Overpass" }, "geometry": { "type": "Point", "coordinates": [ -8.6204991, 39.13218555 ] } },
{ "type": "Feature", "properties": { "Route": "Route_Opt_1", "Lat": 38.6118821, "Lon": -8.64981655, "Angle": 69, "Max_Height": "Unknown", "Google_Map": "https://www.google.com/maps?q=38.6118821,-8.64981655", "Type": "Overpass" }, "geometry": { "type": "Point", "coordinates": [ -8.64981655, 38.6118821 ] } },
{ "type": "Feature", "properties": { "Route": "Route_Opt_1", "Lat": 38.60538465, "Lon": -8.64161185, "Angle": 73, "Max_Height": "Unknown", "Google_Map": "https://www.google.com/maps?q=38.605384650000005,-8.64161185", "Type": "Overpass" }, "geometry": { "type": "Point", "coordinates": [ -8.64161185, 38.60538465 ] } }
]
}
