{
"type": "FeatureCollection",
"name": "routelines",
"crs": { "type": "name", "properties": { "name": "urn:ogc:def:crs:OGC:1.3:CRS84" } },
"features": [
{ "type": "Feature", "properties": { "Name": "Route_1", "Total_KM": 191.48 }, "geometry": { "type": "MultiLineString", "coordinates": [ [ [ -8.86455, 38.514376 ], [ -8.864521, 38.514427 ], [ -8.86532, 38.514704 ], [ -8.865859, 38.514875 ], [ -8.86599, 38.514895 ], [ -8.865897, 38.514846 ], [ -8.864565, 38.514348 ], [ -8.862467, 38.513617 ], [ -8.861954, 38.513479 ], [ -8.861386, 38.513301 ], [ -8.860779, 38.513146 ], [ -8.859369, 38.512926 ], [ -8.859159, 38.512878 ], [ -8.859143, 38.512973 ], [ -8.859189, 38.513022 ], [ -8.859945, 38.513199 ], [ -8.864432, 38.514635 ], [ -8.864518, 38.514662 ], [ -8.866744, 38.515456 ], [ -8.867488, 38.51575 ], [ -8.868233, 38.516085 ], [ -8.869879, 38.516786 ], [ -8.871074, 38.517234 ], [ -8.872707, 38.517766 ], [ -8.873635, 38.518115 ], [ -8.875857, 38.51903 ], [ -8.876519, 38.519322 ], [ -8.877182, 38.519594 ], [ -8.877221, 38.519698 ], [ -8.877211, 38.519752 ], [ -8.877176, 38.519799 ], [ -8.876905, 38.519899 ], [ -8.876638, 38.51993 ], [ -8.876222, 38.519992 ], [ -8.875788, 38.520121 ], [ -8.875459, 38.520205 ], [ -8.87527, 38.520278 ], [ -8.875139, 38.52036 ], [ -8.875042, 38.520451 ], [ -8.87499, 38.520568 ], [ -8.874963, 38.520691 ], [ -8.87496, 38.521071 ], [ -8.874995, 38.521286 ], [ -8.874993, 38.521615 ], [ -8.874982, 38.522635 ], [ -8.874984, 38.523289 ], [ -8.874965, 38.524355 ], [ -8.874964, 38.524942 ], [ -8.874933, 38.525026 ], [ -8.87483, 38.525138 ], [ -8.874771, 38.525213 ], [ -8.874756, 38.525274 ], [ -8.874765, 38.525335 ], [ -8.874796, 38.525392 ], [ -8.874849, 38.525441 ], [ -8.874918, 38.525475 ], [ -8.875052, 38.525618 ], [ -8.875139, 38.526188 ], [ -8.875157, 38.526381 ], [ -8.875204, 38.52688 ], [ -8.875233, 38.527559 ], [ -8.875235, 38.52759 ], [ -8.875289, 38.528628 ], [ -8.875294, 38.528717 ], [ -8.875331, 38.529429 ], [ -8.87534, 38.529802 ], [ -8.875216, 38.529822 ], [ -8.875108, 38.529874 ], [ -8.875029, 38.529952 ], [ -8.874986, 38.530096 ], [ -8.875041, 38.530239 ], [ -8.875181, 38.53034 ], [ -8.875282, 38.53039 ], [ -8.875372, 38.530538 ], [ -8.875411, 38.531644 ], [ -8.875328, 38.531804 ], [ -8.875257, 38.531879 ], [ -8.8752, 38.531915 ], [ -8.875145, 38.531979 ], [ -8.875131, 38.53209 ], [ -8.875195, 38.53219 ], [ -8.875235, 38.532218 ], [ -8.875346, 38.532329 ], [ -8.875382, 38.532441 ], [ -8.875401, 38.533463 ], [ -8.875356, 38.533966 ], [ -8.875229, 38.53455 ], [ -8.875106, 38.534927 ], [ -8.874851, 38.535476 ], [ -8.874736, 38.535592 ], [ -8.874547, 38.535673 ], [ -8.874515, 38.535683 ], [ -8.874411, 38.535739 ], [ -8.874317, 38.535844 ], [ -8.874286, 38.535971 ], [ -8.874309, 38.536069 ], [ -8.874326, 38.5361 ], [ -8.874367, 38.53631 ], [ -8.874346, 38.536411 ], [ -8.873881, 38.53729 ], [ -8.872929, 38.539093 ], [ -8.872708, 38.539562 ], [ -8.872483, 38.540052 ], [ -8.872152, 38.541036 ], [ -8.871946, 38.541996 ], [ -8.871868, 38.542956 ], [ -8.871833, 38.54557 ], [ -8.87175, 38.546807 ], [ -8.871643, 38.547946 ], [ -8.871438, 38.549398 ], [ -8.871249, 38.550465 ], [ -8.870913, 38.55207 ], [ -8.870533, 38.553523 ], [ -8.870038, 38.555139 ], [ -8.869293, 38.55714 ], [ -8.868622, 38.558747 ], [ -8.868179, 38.5599 ], [ -8.867953, 38.56056 ], [ -8.867624, 38.561569 ], [ -8.867276, 38.562824 ], [ -8.86689, 38.56465 ], [ -8.866522, 38.566401 ], [ -8.866437, 38.566698 ], [ -8.866341, 38.567398 ], [ -8.866369, 38.567751 ], [ -8.86631, 38.569575 ], [ -8.8662, 38.569901 ], [ -8.86622, 38.57048 ], [ -8.86626, 38.570923 ], [ -8.866347, 38.571529 ], [ -8.866635, 38.573176 ], [ -8.866705, 38.573707 ], [ -8.866718, 38.574223 ], [ -8.866592, 38.57493 ], [ -8.866419, 38.575467 ], [ -8.866259, 38.57576 ], [ -8.866028, 38.575958 ], [ -8.865795, 38.576269 ], [ -8.865547, 38.576549 ], [ -8.863977, 38.577775 ], [ -8.863764, 38.577884 ], [ -8.863169, 38.578346 ], [ -8.862687, 38.578781 ], [ -8.861671, 38.580006 ], [ -8.86139, 38.580404 ], [ -8.861067, 38.580975 ], [ -8.860828, 38.581251 ], [ -8.860532, 38.581469 ], [ -8.859907, 38.581762 ], [ -8.857919, 38.582374 ], [ -8.855977, 38.582976 ], [ -8.855, 38.583243 ], [ -8.853029, 38.583713 ], [ -8.85128, 38.58407 ], [ -8.848382, 38.584536 ], [ -8.847242, 38.584746 ], [ -8.845919, 38.585023 ], [ -8.844234, 38.585417 ], [ -8.841802, 38.586098 ], [ -8.84057, 38.58642 ], [ -8.839856, 38.586575 ], [ -8.839121, 38.586715 ], [ -8.838199, 38.586863 ], [ -8.837596, 38.586932 ], [ -8.837151, 38.586986 ], [ -8.835919, 38.587073 ], [ -8.83421, 38.5871 ], [ -8.832519, 38.587011 ], [ -8.830924, 38.58683 ], [ -8.829986, 38.586672 ], [ -8.829045, 38.586486 ], [ -8.826635, 38.585848 ], [ -8.826065, 38.585693 ], [ -8.824391, 38.585269 ], [ -8.823891, 38.585157 ], [ -8.822696, 38.584931 ], [ -8.820871, 38.584676 ], [ -8.819521, 38.584548 ], [ -8.818041, 38.584478 ], [ -8.817652, 38.584478 ], [ -8.81471, 38.584504 ], [ -8.811513, 38.584495 ], [ -8.808868, 38.584344 ], [ -8.806797, 38.584102 ], [ -8.804029, 38.5837 ], [ -8.800601, 38.583044 ], [ -8.798568, 38.58282 ], [ -8.796595, 38.582774 ], [ -8.794763, 38.582944 ], [ -8.793859, 38.583105 ], [ -8.792125, 38.583525 ], [ -8.790094, 38.584252 ], [ -8.788136, 38.585025 ], [ -8.787264, 38.585319 ], [ -8.786569, 38.585519 ], [ -8.784425, 38.586038 ], [ -8.783271, 38.586167 ], [ -8.781763, 38.586315 ], [ -8.779965, 38.586353 ], [ -8.776862, 38.586312 ], [ -8.775052, 38.586349 ], [ -8.774164, 38.586412 ], [ -8.772805, 38.586606 ], [ -8.771369, 38.586912 ], [ -8.770693, 38.587097 ], [ -8.769459, 38.587512 ], [ -8.768815, 38.587764 ], [ -8.768138, 38.588056 ], [ -8.766696, 38.58873 ], [ -8.765508, 38.589225 ], [ -8.764292, 38.589716 ], [ -8.762915, 38.590214 ], [ -8.760142, 38.591056 ], [ -8.758033, 38.591642 ], [ -8.755787, 38.592199 ], [ -8.754012, 38.592705 ], [ -8.75268, 38.59312 ], [ -8.75047, 38.593903 ], [ -8.74812, 38.594964 ], [ -8.7463, 38.595934 ], [ -8.740592, 38.599402 ], [ -8.738623, 38.600243 ], [ -8.737379, 38.60067 ], [ -8.736086, 38.600956 ], [ -8.735175, 38.601112 ], [ -8.734345, 38.601225 ], [ -8.733554, 38.601287 ], [ -8.732566, 38.601326 ], [ -8.730912, 38.601303 ], [ -8.729207, 38.601084 ], [ -8.728011, 38.600828 ], [ -8.726741, 38.600459 ], [ -8.725565, 38.600035 ], [ -8.723168, 38.599119 ], [ -8.720502, 38.598124 ], [ -8.718695, 38.597591 ], [ -8.715934, 38.596932 ], [ -8.71385, 38.59655 ], [ -8.712524, 38.596364 ], [ -8.711252, 38.59624 ], [ -8.708686, 38.596114 ], [ -8.706944, 38.596069 ], [ -8.70389, 38.596202 ], [ -8.701739, 38.596427 ], [ -8.6991, 38.596845 ], [ -8.696659, 38.597382 ], [ -8.694857, 38.597875 ], [ -8.69189, 38.598759 ], [ -8.690695, 38.599095 ], [ -8.689793, 38.599339 ], [ -8.688571, 38.599628 ], [ -8.687653, 38.599826 ], [ -8.685812, 38.600155 ], [ -8.68392, 38.600409 ], [ -8.681609, 38.60061 ], [ -8.680188, 38.600705 ], [ -8.67829, 38.600833 ], [ -8.677576, 38.600876 ], [ -8.676319, 38.60095 ], [ -8.674214, 38.601094 ], [ -8.673781, 38.601122 ], [ -8.671035, 38.601288 ], [ -8.659678, 38.602021 ], [ -8.656738, 38.602213 ], [ -8.655498, 38.602294 ], [ -8.653087, 38.602473 ], [ -8.651197, 38.602331 ], [ -8.650477, 38.602306 ], [ -8.64979, 38.602324 ], [ -8.649171, 38.602401 ], [ -8.648633, 38.602509 ], [ -8.648128, 38.602675 ], [ -8.647684, 38.602841 ], [ -8.647036, 38.603169 ], [ -8.645625, 38.604082 ], [ -8.645016, 38.604462 ], [ -8.644361, 38.604889 ], [ -8.643908, 38.605155 ], [ -8.643278, 38.605469 ], [ -8.642634, 38.605735 ], [ -8.637864, 38.607366 ], [ -8.6374, 38.607524 ], [ -8.634844, 38.608402 ], [ -8.634113, 38.608654 ], [ -8.631798, 38.609446 ], [ -8.63087, 38.609754 ], [ -8.629389, 38.610204 ], [ -8.624289, 38.611472 ], [ -8.606114, 38.615227 ], [ -8.597767, 38.616922 ], [ -8.593231, 38.617883 ], [ -8.589485, 38.61881 ], [ -8.58384, 38.620276 ], [ -8.582648, 38.62059 ], [ -8.581932, 38.620763 ], [ -8.57913, 38.621507 ], [ -8.578246, 38.621728 ], [ -8.576051, 38.62223 ], [ -8.574089, 38.622648 ], [ -8.573591, 38.622758 ], [ -8.570353, 38.623432 ], [ -8.564337, 38.624713 ], [ -8.562961, 38.625059 ], [ -8.56148, 38.625476 ], [ -8.559697, 38.626047 ], [ -8.557955, 38.626683 ], [ -8.547166, 38.630802 ], [ -8.545002, 38.631512 ], [ -8.543127, 38.632039 ], [ -8.541627, 38.632394 ], [ -8.54016, 38.632698 ], [ -8.538962, 38.632919 ], [ -8.53804, 38.633069 ], [ -8.53606, 38.633332 ], [ -8.534489, 38.633487 ], [ -8.532431, 38.633616 ], [ -8.526208, 38.63378 ], [ -8.523863, 38.633863 ], [ -8.522778, 38.633925 ], [ -8.521249, 38.634067 ], [ -8.519244, 38.634298 ], [ -8.51742, 38.634585 ], [ -8.515863, 38.634882 ], [ -8.514346, 38.635223 ], [ -8.502517, 38.638122 ], [ -8.499587, 38.638689 ], [ -8.498281, 38.638874 ], [ -8.496879, 38.639039 ], [ -8.49535, 38.639178 ], [ -8.49466, 38.639223 ], [ -8.493921, 38.639262 ], [ -8.490071, 38.639302 ], [ -8.484169, 38.639154 ], [ -8.482905, 38.639162 ], [ -8.481326, 38.639214 ], [ -8.479442, 38.639339 ], [ -8.478651, 38.639412 ], [ -8.477253, 38.639572 ], [ -8.47601, 38.639744 ], [ -8.472164, 38.640331 ], [ -8.468992, 38.64077 ], [ -8.466149, 38.641214 ], [ -8.461339, 38.641877 ], [ -8.4553, 38.642565 ], [ -8.454815, 38.642616 ], [ -8.449309, 38.643226 ], [ -8.444345, 38.643894 ], [ -8.437244, 38.645065 ], [ -8.435689, 38.645321 ], [ -8.432114, 38.645897 ], [ -8.427831, 38.646598 ], [ -8.426474, 38.64684 ], [ -8.424969, 38.647079 ], [ -8.424057, 38.647204 ], [ -8.416636, 38.648005 ], [ -8.413125, 38.648326 ], [ -8.409885, 38.648426 ], [ -8.406553, 38.648326 ], [ -8.404166, 38.648104 ], [ -8.401777, 38.647777 ], [ -8.39979, 38.647421 ], [ -8.397826, 38.646989 ], [ -8.394684, 38.646212 ], [ -8.393168, 38.645906 ], [ -8.391455, 38.645606 ], [ -8.389267, 38.645328 ], [ -8.3876, 38.645175 ], [ -8.384929, 38.64501 ], [ -8.383309, 38.645001 ], [ -8.380165, 38.645053 ], [ -8.378102, 38.645044 ], [ -8.37553, 38.644903 ], [ -8.372923, 38.644642 ], [ -8.370488, 38.644259 ], [ -8.368156, 38.643795 ], [ -8.366625, 38.643415 ], [ -8.365574, 38.643122 ], [ -8.360478, 38.641602 ], [ -8.357412, 38.640874 ], [ -8.356428, 38.640678 ], [ -8.355575, 38.640525 ], [ -8.354157, 38.640307 ], [ -8.351786, 38.640006 ], [ -8.350232, 38.63986 ], [ -8.349083, 38.639778 ], [ -8.347787, 38.639651 ], [ -8.346585, 38.639488 ], [ -8.344846, 38.639195 ], [ -8.342653, 38.638782 ], [ -8.341338, 38.638493 ], [ -8.339653, 38.638036 ], [ -8.337246, 38.637458 ], [ -8.335619, 38.637108 ], [ -8.334374, 38.636878 ], [ -8.333281, 38.636693 ], [ -8.331873, 38.63651 ], [ -8.330136, 38.636317 ], [ -8.328474, 38.636169 ], [ -8.322937, 38.635891 ], [ -8.309548, 38.635346 ], [ -8.305514, 38.63514 ], [ -8.302421, 38.635024 ], [ -8.300813, 38.634992 ], [ -8.299266, 38.634996 ], [ -8.29721, 38.635054 ], [ -8.2945, 38.635296 ], [ -8.292596, 38.635526 ], [ -8.289387, 38.63614 ], [ -8.287833, 38.63647 ], [ -8.28475, 38.637362 ], [ -8.283112, 38.637886 ], [ -8.278261, 38.639863 ], [ -8.272018, 38.642478 ], [ -8.270381, 38.643072 ], [ -8.267148, 38.644086 ], [ -8.265236, 38.644629 ], [ -8.262865, 38.645401 ], [ -8.260681, 38.646229 ], [ -8.258906, 38.647003 ], [ -8.256201, 38.648365 ], [ -8.254935, 38.64909 ], [ -8.252796, 38.650433 ], [ -8.251659, 38.651246 ], [ -8.249362, 38.653068 ], [ -8.246598, 38.655464 ], [ -8.245822, 38.656141 ], [ -8.244791, 38.65704 ], [ -8.243256, 38.658375 ], [ -8.237676, 38.66319 ], [ -8.236997, 38.663758 ], [ -8.236258, 38.664339 ], [ -8.235115, 38.665183 ], [ -8.234365, 38.665542 ], [ -8.23417, 38.665611 ], [ -8.233815, 38.66569 ], [ -8.233534, 38.665715 ], [ -8.233354, 38.665715 ], [ -8.232988, 38.665673 ], [ -8.232737, 38.66561 ], [ -8.232531, 38.665535 ], [ -8.232205, 38.665368 ], [ -8.231796, 38.665074 ], [ -8.231553, 38.664825 ], [ -8.231148, 38.664435 ], [ -8.230649, 38.663836 ], [ -8.230523, 38.663715 ], [ -8.230408, 38.663631 ], [ -8.230191, 38.663523 ], [ -8.229947, 38.663453 ], [ -8.229699, 38.663424 ], [ -8.229068, 38.663329 ], [ -8.228904, 38.663282 ], [ -8.228696, 38.663195 ], [ -8.228569, 38.663125 ], [ -8.228367, 38.66298 ], [ -8.227895, 38.662587 ], [ -8.22762, 38.662388 ], [ -8.226517, 38.661313 ], [ -8.224697, 38.659587 ], [ -8.224482, 38.65942 ], [ -8.223119, 38.658458 ], [ -8.22295, 38.658249 ], [ -8.222893, 38.658144 ], [ -8.222818, 38.657871 ], [ -8.222786, 38.657521 ], [ -8.222649, 38.657181 ], [ -8.222547, 38.65688 ], [ -8.222533, 38.656769 ], [ -8.222552, 38.656561 ], [ -8.222593, 38.656412 ], [ -8.222684, 38.656209 ], [ -8.222809, 38.655823 ], [ -8.222809, 38.655625 ], [ -8.222752, 38.655421 ], [ -8.222665, 38.655267 ], [ -8.221956, 38.654249 ], [ -8.221673, 38.653836 ], [ -8.221642, 38.653791 ], [ -8.221483, 38.653492 ], [ -8.221196, 38.652772 ], [ -8.221165, 38.652703 ], [ -8.220875, 38.652125 ], [ -8.219977, 38.650578 ], [ -8.219942, 38.650438 ], [ -8.219889, 38.650201 ], [ -8.219925, 38.650162 ], [ -8.219951, 38.650095 ], [ -8.219945, 38.650038 ], [ -8.219911, 38.64998 ], [ -8.219855, 38.649937 ], [ -8.219799, 38.649915 ], [ -8.219715, 38.649907 ], [ -8.219584, 38.649948 ], [ -8.219198, 38.649964 ], [ -8.21874, 38.649895 ], [ -8.21864, 38.649871 ], [ -8.218301, 38.649789 ], [ -8.218051, 38.649726 ], [ -8.216847, 38.649433 ], [ -8.216317, 38.649279 ], [ -8.215652, 38.649115 ], [ -8.215643, 38.649113 ], [ -8.215227, 38.649012 ], [ -8.215194, 38.649004 ], [ -8.214821, 38.648913 ], [ -8.214688, 38.648904 ], [ -8.214241, 38.648799 ], [ -8.214171, 38.6488 ], [ -8.214106, 38.648838 ], [ -8.214023, 38.649145 ], [ -8.213989, 38.649245 ], [ -8.213802, 38.649654 ], [ -8.21306, 38.650883 ], [ -8.213042, 38.650912 ], [ -8.212962, 38.651005 ], [ -8.212598, 38.651289 ], [ -8.212044, 38.651673 ], [ -8.211172, 38.65228 ], [ -8.208961, 38.653803 ], [ -8.208826, 38.653929 ], [ -8.208774, 38.654038 ], [ -8.208761, 38.654171 ], [ -8.208841, 38.654602 ], [ -8.208967, 38.655094 ], [ -8.208995, 38.655282 ], [ -8.209004, 38.655456 ], [ -8.208972, 38.655769 ], [ -8.208893, 38.656048 ], [ -8.208764, 38.656301 ], [ -8.208283, 38.657057 ], [ -8.208234, 38.65716 ], [ -8.208162, 38.657421 ], [ -8.207918, 38.658951 ], [ -8.207786, 38.659574 ], [ -8.207739, 38.659717 ], [ -8.206942, 38.660552 ], [ -8.205738, 38.661631 ], [ -8.205626, 38.66177 ], [ -8.205551, 38.661919 ], [ -8.2055, 38.66219 ], [ -8.205417, 38.663858 ], [ -8.205364, 38.66426 ], [ -8.205217, 38.664539 ], [ -8.204562, 38.66548 ], [ -8.204479, 38.665647 ], [ -8.204459, 38.665806 ], [ -8.204816, 38.667651 ], [ -8.205149, 38.669716 ], [ -8.205174, 38.670247 ], [ -8.205169, 38.670803 ], [ -8.205161, 38.671246 ], [ -8.205114, 38.671734 ], [ -8.204873, 38.673029 ], [ -8.20216, 38.686371 ], [ -8.201373, 38.689871 ], [ -8.201182, 38.6911 ], [ -8.200491, 38.694237 ], [ -8.200481, 38.694332 ], [ -8.200396, 38.695133 ], [ -8.200403, 38.695804 ], [ -8.200419, 38.697207 ], [ -8.200444, 38.69952 ], [ -8.200527, 38.707597 ], [ -8.200554, 38.707978 ], [ -8.202998, 38.718224 ], [ -8.207486, 38.737299 ], [ -8.207849, 38.738907 ], [ -8.20794, 38.739662 ], [ -8.207934, 38.739935 ], [ -8.207897, 38.740086 ], [ -8.20781, 38.740247 ], [ -8.207701, 38.740393 ], [ -8.204561, 38.743916 ], [ -8.203242, 38.745017 ], [ -8.202969, 38.745223 ], [ -8.202767, 38.745326 ], [ -8.20223, 38.745547 ], [ -8.20194, 38.745749 ], [ -8.201765, 38.745896 ], [ -8.201449, 38.746201 ], [ -8.200436, 38.747346 ], [ -8.199002, 38.748515 ], [ -8.198867, 38.748642 ], [ -8.198773, 38.748769 ], [ -8.198687, 38.748989 ], [ -8.198179, 38.751169 ], [ -8.198088, 38.75137 ], [ -8.197732, 38.752012 ], [ -8.197563, 38.752294 ], [ -8.197462, 38.752504 ], [ -8.197449, 38.752649 ], [ -8.197518, 38.752937 ], [ -8.197634, 38.753271 ], [ -8.197712, 38.753421 ], [ -8.198417, 38.754298 ], [ -8.199087, 38.754847 ], [ -8.199162, 38.754944 ], [ -8.199336, 38.755301 ], [ -8.199386, 38.755436 ], [ -8.199415, 38.755589 ], [ -8.199393, 38.755691 ], [ -8.199188, 38.75614 ], [ -8.199061, 38.756336 ], [ -8.196996, 38.758358 ], [ -8.196124, 38.758989 ], [ -8.19591, 38.759104 ], [ -8.195783, 38.759122 ], [ -8.195644, 38.759121 ], [ -8.195099, 38.759037 ], [ -8.194934, 38.759028 ], [ -8.194759, 38.759074 ], [ -8.194605, 38.759155 ], [ -8.194268, 38.759393 ], [ -8.194157, 38.759486 ], [ -8.194088, 38.759574 ], [ -8.19404, 38.759668 ], [ -8.194018, 38.759773 ], [ -8.194005, 38.760047 ], [ -8.194017, 38.761598 ], [ -8.19402, 38.761651 ], [ -8.194028, 38.76184 ], [ -8.194036, 38.762005 ], [ -8.194021, 38.762596 ], [ -8.193964, 38.762713 ], [ -8.193798, 38.763022 ], [ -8.193505, 38.763471 ], [ -8.193175, 38.764001 ], [ -8.19309, 38.764156 ], [ -8.193039, 38.764327 ], [ -8.19303, 38.764427 ], [ -8.193111, 38.765137 ], [ -8.193163, 38.765314 ], [ -8.193259, 38.765485 ], [ -8.194033, 38.766458 ], [ -8.194904, 38.767945 ], [ -8.195028, 38.768117 ], [ -8.195493, 38.768585 ], [ -8.196406, 38.769454 ], [ -8.196699, 38.769695 ], [ -8.196892, 38.769824 ], [ -8.19907, 38.771082 ], [ -8.204809, 38.774262 ], [ -8.205059, 38.774427 ], [ -8.205305, 38.774674 ], [ -8.206865, 38.776539 ], [ -8.20699, 38.776661 ], [ -8.207153, 38.776755 ], [ -8.210299, 38.777842 ], [ -8.211042, 38.778055 ], [ -8.212463, 38.778282 ], [ -8.212639, 38.778352 ], [ -8.212981, 38.778552 ], [ -8.21486, 38.779901 ], [ -8.217799, 38.781859 ], [ -8.218101, 38.782089 ], [ -8.218371, 38.782348 ], [ -8.219213, 38.783367 ], [ -8.220748, 38.785177 ], [ -8.22102, 38.785442 ], [ -8.221406, 38.785717 ], [ -8.22181, 38.785947 ], [ -8.222105, 38.786064 ], [ -8.225307, 38.787029 ], [ -8.225508, 38.787102 ], [ -8.225801, 38.787272 ], [ -8.22643, 38.787718 ], [ -8.226664, 38.787932 ], [ -8.22674, 38.788105 ], [ -8.226754, 38.788216 ], [ -8.226695, 38.788908 ], [ -8.226566, 38.790394 ], [ -8.226583, 38.790607 ], [ -8.226684, 38.790796 ], [ -8.227708, 38.791748 ], [ -8.227814, 38.791869 ], [ -8.227875, 38.791971 ], [ -8.227914, 38.792082 ], [ -8.228132, 38.793234 ], [ -8.228296, 38.794152 ], [ -8.228377, 38.794938 ], [ -8.228413, 38.795253 ], [ -8.22843, 38.795563 ], [ -8.228471, 38.796205 ], [ -8.228529, 38.796829 ], [ -8.228565, 38.797169 ], [ -8.228641, 38.798248 ], [ -8.228637, 38.798339 ], [ -8.228585, 38.798508 ], [ -8.228336, 38.799154 ], [ -8.228238, 38.799436 ], [ -8.228154, 38.799698 ], [ -8.228134, 38.799843 ], [ -8.228118, 38.800359 ], [ -8.228119, 38.801302 ], [ -8.228116, 38.801435 ], [ -8.228116, 38.801547 ], [ -8.228134, 38.801875 ], [ -8.22822, 38.802154 ], [ -8.22841, 38.802631 ], [ -8.228575, 38.803012 ], [ -8.228738, 38.803373 ], [ -8.228831, 38.803498 ], [ -8.228961, 38.803625 ], [ -8.22942, 38.804007 ], [ -8.22953, 38.804096 ], [ -8.229685, 38.80424 ], [ -8.229801, 38.804375 ], [ -8.2299, 38.80454 ], [ -8.230398, 38.806674 ], [ -8.230476, 38.807011 ], [ -8.230549, 38.807426 ], [ -8.230499, 38.807665 ], [ -8.23041, 38.807829 ], [ -8.230246, 38.80802 ], [ -8.229743, 38.808345 ], [ -8.226492, 38.810301 ], [ -8.226225, 38.810429 ], [ -8.225868, 38.810538 ], [ -8.22446, 38.810802 ], [ -8.212665, 38.812968 ], [ -8.212035, 38.813208 ], [ -8.211338, 38.813616 ], [ -8.210062, 38.814422 ], [ -8.1849, 38.830479 ], [ -8.18336, 38.831861 ], [ -8.182231, 38.833091 ], [ -8.181939, 38.833409 ], [ -8.181261, 38.834149 ], [ -8.17884, 38.836418 ], [ -8.17745, 38.838269 ], [ -8.17566, 38.840913 ], [ -8.174169, 38.842351 ], [ -8.17145, 38.844652 ], [ -8.166265, 38.848296 ], [ -8.163238, 38.851466 ], [ -8.162971, 38.851922 ], [ -8.16205, 38.855369 ], [ -8.161929, 38.855558 ], [ -8.161718, 38.855737 ], [ -8.161469, 38.855884 ], [ -8.16132, 38.85593 ], [ -8.161173, 38.855937 ], [ -8.160773, 38.855914 ], [ -8.159061, 38.855989 ], [ -8.158783, 38.856049 ], [ -8.158592, 38.856146 ], [ -8.158452, 38.856252 ], [ -8.158333, 38.856379 ], [ -8.158121, 38.856755 ], [ -8.158007, 38.857009 ], [ -8.157975, 38.857157 ], [ -8.157965, 38.857598 ], [ -8.157932, 38.857885 ], [ -8.157794, 38.858285 ], [ -8.157303, 38.859226 ], [ -8.156621, 38.860912 ], [ -8.156513, 38.861125 ], [ -8.156445, 38.861215 ], [ -8.156281, 38.861361 ], [ -8.15522, 38.862176 ], [ -8.152632, 38.864076 ], [ -8.152384, 38.864285 ], [ -8.152252, 38.864425 ], [ -8.151896, 38.864909 ], [ -8.151411, 38.865648 ], [ -8.151217, 38.866047 ], [ -8.15103, 38.866513 ], [ -8.150884, 38.867005 ], [ -8.150533, 38.868473 ], [ -8.150536, 38.868673 ], [ -8.150569, 38.868748 ], [ -8.151485, 38.870443 ], [ -8.151559, 38.870663 ], [ -8.151615, 38.871065 ], [ -8.151687, 38.871167 ], [ -8.151829, 38.871242 ], [ -8.152192, 38.871322 ], [ -8.152987, 38.871446 ], [ -8.153235, 38.871536 ], [ -8.153434, 38.871613 ], [ -8.153452, 38.87162 ], [ -8.154024, 38.87178 ], [ -8.154166, 38.871806 ], [ -8.15434, 38.871815 ], [ -8.154501, 38.871797 ], [ -8.155055, 38.87166 ], [ -8.156314, 38.871317 ], [ -8.156839, 38.871188 ], [ -8.157012, 38.871175 ], [ -8.1572, 38.871185 ], [ -8.157423, 38.871228 ], [ -8.157691, 38.87131 ], [ -8.159392, 38.872174 ], [ -8.160123, 38.872784 ], [ -8.160329, 38.87291 ], [ -8.160626, 38.873039 ], [ -8.162315, 38.873677 ], [ -8.170678, 38.876771 ], [ -8.171258, 38.876991 ], [ -8.171439, 38.877089 ], [ -8.171759, 38.877327 ], [ -8.17269, 38.878103 ], [ -8.172919, 38.878346 ], [ -8.173487, 38.87901 ], [ -8.17373, 38.879311 ], [ -8.17379, 38.879443 ], [ -8.173805, 38.879558 ], [ -8.173785, 38.87967 ], [ -8.173725, 38.879812 ], [ -8.173166, 38.880907 ], [ -8.173071, 38.881194 ], [ -8.173027, 38.881632 ], [ -8.172922, 38.882819 ], [ -8.172963, 38.882944 ], [ -8.173052, 38.883058 ], [ -8.174278, 38.884348 ], [ -8.174427, 38.884568 ], [ -8.174485, 38.884749 ], [ -8.17481, 38.886251 ], [ -8.174841, 38.886516 ], [ -8.174838, 38.886763 ], [ -8.17465, 38.888901 ], [ -8.17439, 38.890813 ], [ -8.174382, 38.891099 ], [ -8.17442, 38.891301 ], [ -8.174517, 38.891572 ], [ -8.17468, 38.891932 ], [ -8.17482, 38.8924 ], [ -8.174931, 38.89297 ], [ -8.175121, 38.894302 ], [ -8.17519, 38.894533 ], [ -8.17629, 38.897591 ], [ -8.17736, 38.900182 ], [ -8.17868, 38.902821 ], [ -8.17939, 38.905892 ], [ -8.17947, 38.907231 ], [ -8.17776, 38.913601 ], [ -8.177466, 38.914211 ], [ -8.17699, 38.914921 ], [ -8.176898, 38.915107 ], [ -8.17629, 38.917359 ], [ -8.17575, 38.919011 ], [ -8.17485, 38.920301 ], [ -8.17336, 38.92172 ], [ -8.17021, 38.927321 ], [ -8.17001, 38.927862 ], [ -8.169998, 38.928611 ], [ -8.169993, 38.928893 ], [ -8.169886, 38.929242 ], [ -8.169348, 38.930323 ], [ -8.169096, 38.931095 ], [ -8.168963, 38.931748 ], [ -8.168917, 38.933128 ], [ -8.168833, 38.93354 ], [ -8.168725, 38.933682 ], [ -8.168639, 38.933735 ], [ -8.168586, 38.93381 ], [ -8.168575, 38.933895 ], [ -8.168606, 38.933977 ], [ -8.168565, 38.934172 ], [ -8.168383, 38.93446 ], [ -8.167418, 38.935501 ], [ -8.166705, 38.936301 ], [ -8.166562, 38.936536 ], [ -8.166398, 38.936897 ], [ -8.165902, 38.938266 ], [ -8.165727, 38.938556 ], [ -8.165671, 38.93859 ], [ -8.165634, 38.938644 ], [ -8.165631, 38.938705 ], [ -8.165647, 38.938743 ], [ -8.165616, 38.938994 ], [ -8.165415, 38.939545 ], [ -8.165243, 38.939915 ], [ -8.165102, 38.940157 ], [ -8.164835, 38.940514 ], [ -8.164556, 38.940818 ], [ -8.164288, 38.941075 ], [ -8.164003, 38.9413 ], [ -8.163114, 38.941912 ], [ -8.162721, 38.94214 ], [ -8.162472, 38.942201 ], [ -8.1624, 38.942177 ], [ -8.162342, 38.942178 ], [ -8.162248, 38.942227 ], [ -8.16222, 38.942285 ], [ -8.162232, 38.942346 ], [ -8.162135, 38.942533 ], [ -8.161911, 38.942733 ], [ -8.161679, 38.9429 ], [ -8.16135, 38.94311 ], [ -8.160983, 38.943289 ], [ -8.160544, 38.94345 ], [ -8.160146, 38.943555 ], [ -8.15965, 38.943634 ], [ -8.159167, 38.943658 ], [ -8.158712, 38.943635 ], [ -8.157723, 38.943534 ], [ -8.157243, 38.943515 ], [ -8.157128, 38.943511 ], [ -8.157001, 38.943479 ], [ -8.156943, 38.943436 ], [ -8.156868, 38.943413 ], [ -8.156786, 38.943414 ], [ -8.156712, 38.943439 ], [ -8.156656, 38.943485 ], [ -8.156553, 38.943536 ], [ -8.156444, 38.943563 ], [ -8.156138, 38.943586 ], [ -8.155655, 38.943666 ], [ -8.155511, 38.943704 ], [ -8.155134, 38.943805 ], [ -8.154598, 38.943991 ], [ -8.153872, 38.944244 ], [ -8.153312, 38.944446 ], [ -8.152317, 38.944753 ], [ -8.15147, 38.944994 ], [ -8.149225, 38.945516 ], [ -8.148012, 38.945776 ], [ -8.147624, 38.945831 ], [ -8.147415, 38.945789 ], [ -8.147351, 38.945742 ], [ -8.14727, 38.945717 ], [ -8.147181, 38.945718 ], [ -8.147101, 38.945746 ], [ -8.147039, 38.945795 ], [ -8.146894, 38.945858 ], [ -8.14671, 38.945899 ], [ -8.144773, 38.945958 ], [ -8.143727, 38.945959 ], [ -8.143496, 38.945925 ], [ -8.14333, 38.945842 ], [ -8.143263, 38.945779 ], [ -8.14317, 38.945741 ], [ -8.143065, 38.945734 ], [ -8.142965, 38.945758 ], [ -8.142884, 38.94581 ], [ -8.142835, 38.945883 ], [ -8.142825, 38.945964 ], [ -8.142857, 38.946043 ], [ -8.142872, 38.946227 ], [ -8.142823, 38.946405 ], [ -8.142764, 38.946499 ], [ -8.142484, 38.946795 ], [ -8.141701, 38.947692 ], [ -8.137362, 38.952898 ], [ -8.137138, 38.95314 ], [ -8.136932, 38.953352 ], [ -8.136703, 38.953533 ], [ -8.13635, 38.953763 ], [ -8.135023, 38.954528 ], [ -8.134891, 38.954586 ], [ -8.134695, 38.954698 ], [ -8.134134, 38.955022 ], [ -8.1335, 38.95543 ], [ -8.133191, 38.955681 ], [ -8.132902, 38.95599 ], [ -8.132681, 38.956324 ], [ -8.130818, 38.959451 ], [ -8.130675, 38.959753 ], [ -8.130615, 38.959989 ], [ -8.130614, 38.960216 ], [ -8.130716, 38.960793 ], [ -8.130786, 38.961251 ], [ -8.130758, 38.961629 ], [ -8.130647, 38.961966 ], [ -8.130209, 38.962962 ], [ -8.130163, 38.963203 ], [ -8.130214, 38.963449 ], [ -8.13036, 38.963663 ], [ -8.130585, 38.963823 ], [ -8.130861, 38.9639 ], [ -8.131895, 38.964178 ], [ -8.132326, 38.964293 ], [ -8.132495, 38.964335 ], [ -8.132665, 38.964378 ], [ -8.132806, 38.96442 ], [ -8.133351, 38.96456 ], [ -8.133803, 38.96472 ], [ -8.134045, 38.96492 ], [ -8.134177, 38.965208 ], [ -8.134133, 38.965456 ], [ -8.134045, 38.965672 ], [ -8.133395, 38.966771 ], [ -8.133342, 38.966956 ], [ -8.133326, 38.967098 ], [ -8.133093, 38.970796 ], [ -8.133156, 38.971234 ], [ -8.133282, 38.971627 ], [ -8.134276, 38.973347 ], [ -8.13492, 38.974695 ], [ -8.135677, 38.976593 ], [ -8.135757, 38.976883 ], [ -8.135778, 38.977062 ], [ -8.135746, 38.977346 ], [ -8.135224, 38.978843 ], [ -8.135097, 38.979399 ], [ -8.135075, 38.979969 ], [ -8.135117, 38.980533 ], [ -8.135289, 38.980967 ], [ -8.13589, 38.9817 ], [ -8.136276, 38.982034 ], [ -8.136534, 38.982568 ], [ -8.137864, 38.987872 ], [ -8.137778, 38.988172 ], [ -8.137478, 38.988739 ], [ -8.135117, 38.991708 ], [ -8.134774, 38.992208 ], [ -8.134688, 38.992542 ], [ -8.134774, 38.992942 ], [ -8.135672, 38.995247 ], [ -8.136019, 38.996411 ], [ -8.136062, 38.996844 ], [ -8.136019, 38.997245 ], [ -8.135933, 38.997745 ], [ -8.133015, 39.009551 ], [ -8.13299, 39.010915 ], [ -8.132929, 39.012052 ], [ -8.132972, 39.013919 ], [ -8.133701, 39.015186 ], [ -8.135117, 39.017187 ], [ -8.136105, 39.018354 ], [ -8.137478, 39.019754 ], [ -8.137778, 39.020754 ], [ -8.138422, 39.022088 ], [ -8.139942, 39.025118 ], [ -8.140131, 39.026065 ], [ -8.140474, 39.026732 ], [ -8.140843, 39.027305 ], [ -8.141848, 39.028519 ], [ -8.143864, 39.030725 ], [ -8.14432, 39.031203 ], [ -8.144699, 39.031545 ], [ -8.145384, 39.032061 ], [ -8.14874, 39.034486 ], [ -8.150328, 39.035753 ], [ -8.152227, 39.037854 ], [ -8.154259, 39.0402 ], [ -8.155237, 39.041173 ], [ -8.157924, 39.042853 ], [ -8.161228, 39.044786 ], [ -8.171415, 39.050969 ], [ -8.171842, 39.051228 ], [ -8.171947, 39.051292 ], [ -8.174508, 39.05284 ], [ -8.174598, 39.052894 ], [ -8.178482, 39.055247 ], [ -8.178628, 39.05537 ], [ -8.17873, 39.055472 ], [ -8.17886, 39.055648 ], [ -8.178927, 39.055854 ], [ -8.178949, 39.055984 ], [ -8.178938, 39.056147 ], [ -8.178868, 39.056364 ], [ -8.178788, 39.056516 ], [ -8.178591, 39.05675 ], [ -8.178288, 39.056937 ], [ -8.175218, 39.058614 ], [ -8.174733, 39.058856 ], [ -8.173873, 39.059358 ], [ -8.173596, 39.059583 ], [ -8.173294, 39.059885 ], [ -8.173155, 39.060078 ], [ -8.173023, 39.060313 ], [ -8.1729, 39.060734 ], [ -8.172849, 39.061063 ], [ -8.172824, 39.061429 ], [ -8.172521, 39.064174 ], [ -8.172496, 39.064313 ], [ -8.172452, 39.06451 ], [ -8.172262, 39.065083 ], [ -8.171109, 39.067512 ], [ -8.171099, 39.06754 ], [ -8.170851, 39.068118 ], [ -8.17033, 39.069199 ], [ -8.170003, 39.069799 ], [ -8.169562, 39.070379 ], [ -8.168593, 39.071512 ], [ -8.168092, 39.072055 ], [ -8.167874, 39.072302 ], [ -8.167725, 39.072472 ], [ -8.166468, 39.073932 ], [ -8.164881, 39.075768 ], [ -8.163248, 39.077685 ], [ -8.163038, 39.078011 ], [ -8.162892, 39.078375 ], [ -8.16284, 39.078545 ], [ -8.162806, 39.078746 ], [ -8.162793, 39.078888 ], [ -8.162816, 39.079258 ], [ -8.16288, 39.079673 ], [ -8.163042, 39.080055 ], [ -8.163743, 39.081307 ], [ -8.164091, 39.08202 ], [ -8.164228, 39.082322 ], [ -8.164342, 39.082886 ], [ -8.164373, 39.083193 ], [ -8.164374, 39.083493 ], [ -8.164275, 39.084351 ], [ -8.163967, 39.086776 ], [ -8.163872, 39.087521 ], [ -8.163802, 39.08807 ], [ -8.163771, 39.088316 ], [ -8.163823, 39.088358 ], [ -8.163962, 39.088384 ], [ -8.164004, 39.088392 ], [ -8.164184, 39.088355 ], [ -8.164321, 39.088465 ], [ -8.164562, 39.088776 ], [ -8.16503, 39.089398 ], [ -8.165575, 39.089997 ], [ -8.166145, 39.090391 ], [ -8.167833, 39.091333 ], [ -8.168297, 39.091626 ], [ -8.168726, 39.09196 ], [ -8.169901, 39.093068 ], [ -8.170414, 39.09342 ], [ -8.170858, 39.093618 ], [ -8.171281, 39.093776 ], [ -8.171681, 39.09387 ], [ -8.172044, 39.093919 ], [ -8.172305, 39.093939 ], [ -8.173175, 39.093993 ], [ -8.173493, 39.094026 ], [ -8.173953, 39.094128 ], [ -8.174161, 39.094199 ], [ -8.17435, 39.094284 ], [ -8.174544, 39.094398 ], [ -8.174747, 39.094536 ], [ -8.175088, 39.094812 ], [ -8.175615, 39.095238 ], [ -8.176192, 39.095707 ], [ -8.176447, 39.095938 ], [ -8.176669, 39.096201 ], [ -8.177268, 39.097107 ], [ -8.177573, 39.097676 ], [ -8.177755, 39.098239 ], [ -8.178141, 39.099805 ], [ -8.178298, 39.100322 ], [ -8.17857, 39.100921 ], [ -8.17988, 39.103285 ], [ -8.180437, 39.10429 ], [ -8.181628, 39.106348 ], [ -8.182215, 39.107401 ], [ -8.182484, 39.107847 ], [ -8.182823, 39.108314 ], [ -8.183501, 39.109042 ], [ -8.183905, 39.109382 ], [ -8.184264, 39.109659 ], [ -8.18469, 39.109958 ], [ -8.185169, 39.110257 ], [ -8.187925, 39.111802 ], [ -8.18836, 39.111977 ], [ -8.188706, 39.11205 ], [ -8.189352, 39.112037 ], [ -8.189849, 39.111905 ], [ -8.190293, 39.111601 ], [ -8.191386, 39.110656 ], [ -8.191946, 39.110191 ], [ -8.19224, 39.109976 ], [ -8.1939, 39.108958 ], [ -8.194126, 39.108827 ], [ -8.194138, 39.10879 ], [ -8.19418, 39.108796 ], [ -8.194544, 39.108588 ], [ -8.197934, 39.106613 ], [ -8.198075, 39.106533 ], [ -8.198217, 39.106444 ], [ -8.198973, 39.106023 ], [ -8.199262, 39.105898 ], [ -8.199757, 39.105718 ], [ -8.200268, 39.105577 ], [ -8.200824, 39.105494 ], [ -8.209307, 39.104769 ], [ -8.209987, 39.104762 ], [ -8.210383, 39.104788 ], [ -8.211081, 39.104892 ], [ -8.211934, 39.105093 ], [ -8.216804, 39.10642 ], [ -8.218297, 39.106838 ], [ -8.218502, 39.106924 ], [ -8.218941, 39.107174 ], [ -8.219166, 39.107323 ], [ -8.219469, 39.107562 ], [ -8.221372, 39.109338 ], [ -8.221673, 39.109601 ], [ -8.222013, 39.109851 ], [ -8.222413, 39.110093 ], [ -8.2228, 39.11031 ], [ -8.223277, 39.110516 ], [ -8.223754, 39.110689 ], [ -8.225033, 39.111103 ], [ -8.225959, 39.111433 ], [ -8.226503, 39.111672 ], [ -8.22697, 39.111921 ], [ -8.229288, 39.113271 ], [ -8.229664, 39.113545 ], [ -8.230015, 39.113847 ], [ -8.230323, 39.114242 ], [ -8.230533, 39.114633 ], [ -8.234356, 39.122845 ], [ -8.23454, 39.123468 ], [ -8.234611, 39.124111 ], [ -8.234619, 39.124375 ], [ -8.234597, 39.124633 ], [ -8.234278, 39.126671 ], [ -8.234297, 39.127161 ], [ -8.234359, 39.127556 ], [ -8.234419, 39.127733 ], [ -8.234804, 39.128491 ], [ -8.235294, 39.129373 ], [ -8.235587, 39.129836 ], [ -8.235711, 39.129982 ], [ -8.236096, 39.130281 ], [ -8.236393, 39.130433 ], [ -8.236692, 39.130558 ], [ -8.239254, 39.131545 ], [ -8.239959, 39.131912 ], [ -8.240257, 39.1321 ], [ -8.241075, 39.132684 ], [ -8.241423, 39.132925 ], [ -8.241929, 39.133294 ], [ -8.242143, 39.133483 ], [ -8.242321, 39.133678 ], [ -8.243805, 39.135662 ], [ -8.244354, 39.136248 ], [ -8.244625, 39.13648 ], [ -8.252965, 39.142717 ], [ -8.253341, 39.143023 ], [ -8.253807, 39.143521 ], [ -8.254161, 39.14404 ], [ -8.255006, 39.145651 ], [ -8.255354, 39.146161 ], [ -8.255608, 39.146465 ], [ -8.255882, 39.146733 ], [ -8.256182, 39.146946 ], [ -8.257629, 39.147788 ], [ -8.259065, 39.14859 ], [ -8.259483, 39.148823 ], [ -8.260038, 39.149285 ], [ -8.260329, 39.149698 ], [ -8.260778, 39.150875 ], [ -8.260851, 39.151224 ], [ -8.260883, 39.151553 ], [ -8.260871, 39.152949 ], [ -8.260863, 39.153302 ], [ -8.260863, 39.154041 ], [ -8.260863, 39.154545 ], [ -8.260848, 39.155327 ], [ -8.260846, 39.155437 ], [ -8.260819, 39.156842 ], [ -8.260794, 39.158143 ], [ -8.260754, 39.160241 ], [ -8.260725, 39.160613 ], [ -8.260683, 39.160831 ], [ -8.260631, 39.161105 ], [ -8.260558, 39.161488 ], [ -8.260325, 39.162585 ], [ -8.260093, 39.163364 ], [ -8.259835, 39.1638 ], [ -8.259712, 39.163985 ], [ -8.259417, 39.164414 ], [ -8.258975, 39.16493 ], [ -8.25803, 39.166101 ], [ -8.25656, 39.167889 ], [ -8.255796, 39.168835 ], [ -8.255528, 39.169131 ], [ -8.255244, 39.169394 ], [ -8.254874, 39.169655 ], [ -8.254679, 39.169764 ], [ -8.254249, 39.169954 ], [ -8.25391, 39.170066 ], [ -8.252961, 39.170288 ], [ -8.250554, 39.170815 ], [ -8.249702, 39.171066 ], [ -8.249192, 39.171258 ], [ -8.247836, 39.171861 ], [ -8.244445, 39.173384 ], [ -8.243543, 39.173717 ], [ -8.242135, 39.17407 ], [ -8.240831, 39.174368 ], [ -8.240326, 39.174529 ], [ -8.239806, 39.174767 ], [ -8.239428, 39.175027 ], [ -8.239102, 39.175251 ], [ -8.238244, 39.176026 ], [ -8.237701, 39.176652 ], [ -8.237364, 39.177128 ], [ -8.236892, 39.17789 ], [ -8.236286, 39.179097 ], [ -8.235688, 39.17998 ], [ -8.234559, 39.181299 ], [ -8.23443, 39.18145 ], [ -8.234376, 39.181512 ], [ -8.234194, 39.18173 ], [ -8.233733, 39.182283 ], [ -8.233715, 39.182305 ], [ -8.233623, 39.182413 ], [ -8.233647, 39.182435 ], [ -8.233689, 39.182442 ], [ -8.233856, 39.182384 ], [ -8.234337, 39.182175 ], [ -8.234518, 39.182113 ], [ -8.235003, 39.182006 ], [ -8.235349, 39.181962 ], [ -8.23592, 39.181962 ], [ -8.238578, 39.182026 ], [ -8.239139, 39.182044 ] ] ] } },
{ "type": "Feature", "properties": { "Name": "Route_2", "Total_KM": 214.66 }, "geometry": { "type": "MultiLineString", "coordinates": [ [ [ -8.86455, 38.514376 ], [ -8.864521, 38.514427 ], [ -8.86532, 38.514704 ], [ -8.865859, 38.514875 ], [ -8.86599, 38.514895 ], [ -8.865897, 38.514846 ], [ -8.864565, 38.514348 ], [ -8.862467, 38.513617 ], [ -8.861954, 38.513479 ], [ -8.861386, 38.513301 ], [ -8.860779, 38.513146 ], [ -8.859369, 38.512926 ], [ -8.859159, 38.512878 ], [ -8.859143, 38.512973 ], [ -8.859189, 38.513022 ], [ -8.859945, 38.513199 ], [ -8.864432, 38.514635 ], [ -8.864518, 38.514662 ], [ -8.866744, 38.515456 ], [ -8.867488, 38.51575 ], [ -8.868233, 38.516085 ], [ -8.869879, 38.516786 ], [ -8.871074, 38.517234 ], [ -8.872707, 38.517766 ], [ -8.873635, 38.518115 ], [ -8.875857, 38.51903 ], [ -8.876519, 38.519322 ], [ -8.877182, 38.519594 ], [ -8.877221, 38.519698 ], [ -8.877211, 38.519752 ], [ -8.877176, 38.519799 ], [ -8.876905, 38.519899 ], [ -8.876638, 38.51993 ], [ -8.876222, 38.519992 ], [ -8.875788, 38.520121 ], [ -8.875459, 38.520205 ], [ -8.87527, 38.520278 ], [ -8.875139, 38.52036 ], [ -8.875042, 38.520451 ], [ -8.87499, 38.520568 ], [ -8.874963, 38.520691 ], [ -8.87496, 38.521071 ], [ -8.874995, 38.521286 ], [ -8.874993, 38.521615 ], [ -8.874982, 38.522635 ], [ -8.874984, 38.523289 ], [ -8.874965, 38.524355 ], [ -8.874964, 38.524942 ], [ -8.874933, 38.525026 ], [ -8.87483, 38.525138 ], [ -8.874771, 38.525213 ], [ -8.874756, 38.525274 ], [ -8.874765, 38.525335 ], [ -8.874796, 38.525392 ], [ -8.874849, 38.525441 ], [ -8.874918, 38.525475 ], [ -8.875052, 38.525618 ], [ -8.875139, 38.526188 ], [ -8.875157, 38.526381 ], [ -8.875204, 38.52688 ], [ -8.875233, 38.527559 ], [ -8.875235, 38.52759 ], [ -8.875289, 38.528628 ], [ -8.875294, 38.528717 ], [ -8.875331, 38.529429 ], [ -8.87534, 38.529802 ], [ -8.875216, 38.529822 ], [ -8.875108, 38.529874 ], [ -8.875029, 38.529952 ], [ -8.874986, 38.530096 ], [ -8.875041, 38.530239 ], [ -8.875181, 38.53034 ], [ -8.875282, 38.53039 ], [ -8.875372, 38.530538 ], [ -8.875411, 38.531644 ], [ -8.875328, 38.531804 ], [ -8.875257, 38.531879 ], [ -8.8752, 38.531915 ], [ -8.875145, 38.531979 ], [ -8.875131, 38.53209 ], [ -8.875195, 38.53219 ], [ -8.875235, 38.532218 ], [ -8.875346, 38.532329 ], [ -8.875382, 38.532441 ], [ -8.875401, 38.533463 ], [ -8.875356, 38.533966 ], [ -8.875229, 38.53455 ], [ -8.875106, 38.534927 ], [ -8.874851, 38.535476 ], [ -8.874736, 38.535592 ], [ -8.874547, 38.535673 ], [ -8.874515, 38.535683 ], [ -8.874411, 38.535739 ], [ -8.874317, 38.535844 ], [ -8.874286, 38.535971 ], [ -8.874309, 38.536069 ], [ -8.874326, 38.5361 ], [ -8.874367, 38.53631 ], [ -8.874346, 38.536411 ], [ -8.873881, 38.53729 ], [ -8.872929, 38.539093 ], [ -8.872708, 38.539562 ], [ -8.872483, 38.540052 ], [ -8.872152, 38.541036 ], [ -8.871946, 38.541996 ], [ -8.871868, 38.542956 ], [ -8.871833, 38.54557 ], [ -8.87175, 38.546807 ], [ -8.871643, 38.547946 ], [ -8.871438, 38.549398 ], [ -8.871249, 38.550465 ], [ -8.870913, 38.55207 ], [ -8.870533, 38.553523 ], [ -8.870038, 38.555139 ], [ -8.869293, 38.55714 ], [ -8.868622, 38.558747 ], [ -8.868179, 38.5599 ], [ -8.867953, 38.56056 ], [ -8.867624, 38.561569 ], [ -8.867276, 38.562824 ], [ -8.86689, 38.56465 ], [ -8.866522, 38.566401 ], [ -8.866437, 38.566698 ], [ -8.866341, 38.567398 ], [ -8.866369, 38.567751 ], [ -8.86631, 38.569575 ], [ -8.8662, 38.569901 ], [ -8.86622, 38.57048 ], [ -8.86626, 38.570923 ], [ -8.866347, 38.571529 ], [ -8.866635, 38.573176 ], [ -8.866705, 38.573707 ], [ -8.866718, 38.574223 ], [ -8.866592, 38.57493 ], [ -8.866419, 38.575467 ], [ -8.866259, 38.57576 ], [ -8.866028, 38.575958 ], [ -8.865795, 38.576269 ], [ -8.865547, 38.576549 ], [ -8.863977, 38.577775 ], [ -8.863764, 38.577884 ], [ -8.863169, 38.578346 ], [ -8.862687, 38.578781 ], [ -8.861671, 38.580006 ], [ -8.86139, 38.580404 ], [ -8.861067, 38.580975 ], [ -8.860828, 38.581251 ], [ -8.860532, 38.581469 ], [ -8.859907, 38.581762 ], [ -8.857919, 38.582374 ], [ -8.855977, 38.582976 ], [ -8.855, 38.583243 ], [ -8.853029, 38.583713 ], [ -8.85128, 38.58407 ], [ -8.848382, 38.584536 ], [ -8.847242, 38.584746 ], [ -8.845919, 38.585023 ], [ -8.844234, 38.585417 ], [ -8.841802, 38.586098 ], [ -8.84057, 38.58642 ], [ -8.839856, 38.586575 ], [ -8.839121, 38.586715 ], [ -8.838199, 38.586863 ], [ -8.837596, 38.586932 ], [ -8.837151, 38.586986 ], [ -8.835919, 38.587073 ], [ -8.83421, 38.5871 ], [ -8.832519, 38.587011 ], [ -8.830924, 38.58683 ], [ -8.829986, 38.586672 ], [ -8.829045, 38.586486 ], [ -8.826635, 38.585848 ], [ -8.826065, 38.585693 ], [ -8.824391, 38.585269 ], [ -8.823891, 38.585157 ], [ -8.822696, 38.584931 ], [ -8.820871, 38.584676 ], [ -8.819521, 38.584548 ], [ -8.818041, 38.584478 ], [ -8.817652, 38.584478 ], [ -8.81471, 38.584504 ], [ -8.811513, 38.584495 ], [ -8.808868, 38.584344 ], [ -8.806797, 38.584102 ], [ -8.804029, 38.5837 ], [ -8.800601, 38.583044 ], [ -8.798568, 38.58282 ], [ -8.796595, 38.582774 ], [ -8.794763, 38.582944 ], [ -8.793859, 38.583105 ], [ -8.792125, 38.583525 ], [ -8.790094, 38.584252 ], [ -8.788136, 38.585025 ], [ -8.787264, 38.585319 ], [ -8.786569, 38.585519 ], [ -8.784425, 38.586038 ], [ -8.783271, 38.586167 ], [ -8.781763, 38.586315 ], [ -8.779965, 38.586353 ], [ -8.776862, 38.586312 ], [ -8.775052, 38.586349 ], [ -8.774164, 38.586412 ], [ -8.772805, 38.586606 ], [ -8.771369, 38.586912 ], [ -8.770693, 38.587097 ], [ -8.769459, 38.587512 ], [ -8.768815, 38.587764 ], [ -8.768138, 38.588056 ], [ -8.766696, 38.58873 ], [ -8.765508, 38.589225 ], [ -8.764292, 38.589716 ], [ -8.762915, 38.590214 ], [ -8.760142, 38.591056 ], [ -8.758033, 38.591642 ], [ -8.755787, 38.592199 ], [ -8.754012, 38.592705 ], [ -8.75268, 38.59312 ], [ -8.75047, 38.593903 ], [ -8.74812, 38.594964 ], [ -8.7463, 38.595934 ], [ -8.740592, 38.599402 ], [ -8.738623, 38.600243 ], [ -8.737379, 38.60067 ], [ -8.736086, 38.600956 ], [ -8.735175, 38.601112 ], [ -8.734345, 38.601225 ], [ -8.733554, 38.601287 ], [ -8.732566, 38.601326 ], [ -8.730912, 38.601303 ], [ -8.729207, 38.601084 ], [ -8.728011, 38.600828 ], [ -8.726741, 38.600459 ], [ -8.725565, 38.600035 ], [ -8.723168, 38.599119 ], [ -8.720502, 38.598124 ], [ -8.718695, 38.597591 ], [ -8.715934, 38.596932 ], [ -8.71385, 38.59655 ], [ -8.712524, 38.596364 ], [ -8.711252, 38.59624 ], [ -8.708686, 38.596114 ], [ -8.706944, 38.596069 ], [ -8.70389, 38.596202 ], [ -8.701739, 38.596427 ], [ -8.6991, 38.596845 ], [ -8.696659, 38.597382 ], [ -8.694857, 38.597875 ], [ -8.69189, 38.598759 ], [ -8.690695, 38.599095 ], [ -8.689793, 38.599339 ], [ -8.688571, 38.599628 ], [ -8.687653, 38.599826 ], [ -8.685812, 38.600155 ], [ -8.68392, 38.600409 ], [ -8.681609, 38.60061 ], [ -8.680188, 38.600705 ], [ -8.67829, 38.600833 ], [ -8.677576, 38.600876 ], [ -8.676319, 38.60095 ], [ -8.674214, 38.601094 ], [ -8.673781, 38.601122 ], [ -8.671035, 38.601288 ], [ -8.659678, 38.602021 ], [ -8.656738, 38.602213 ], [ -8.655498, 38.602294 ], [ -8.653087, 38.602473 ], [ -8.651197, 38.602331 ], [ -8.650477, 38.602306 ], [ -8.64979, 38.602324 ], [ -8.649171, 38.602401 ], [ -8.648633, 38.602509 ], [ -8.648128, 38.602675 ], [ -8.647684, 38.602841 ], [ -8.647036, 38.603169 ], [ -8.645625, 38.604082 ], [ -8.645016, 38.604462 ], [ -8.644361, 38.604889 ], [ -8.643908, 38.605155 ], [ -8.643278, 38.605469 ], [ -8.642895, 38.605564 ], [ -8.642562, 38.605608 ], [ -8.642217, 38.605595 ], [ -8.641869, 38.605506 ], [ -8.641724, 38.605469 ], [ -8.641316, 38.605201 ], [ -8.641091, 38.604824 ], [ -8.641048, 38.604254 ], [ -8.64122, 38.603742 ], [ -8.641595, 38.603323 ], [ -8.641756, 38.603173 ], [ -8.64196, 38.603063 ], [ -8.64218, 38.602984 ], [ -8.642432, 38.602954 ], [ -8.642708, 38.602969 ], [ -8.642966, 38.603032 ], [ -8.643142, 38.603097 ], [ -8.643484, 38.603296 ], [ -8.645779, 38.605661 ], [ -8.646707, 38.606709 ], [ -8.647169, 38.607386 ], [ -8.647407, 38.607837 ], [ -8.648561, 38.609821 ], [ -8.649661, 38.611779 ], [ -8.650571, 38.61335 ], [ -8.653371, 38.618351 ], [ -8.663902, 38.637145 ], [ -8.664841, 38.639484 ], [ -8.665244, 38.640617 ], [ -8.665653, 38.642576 ], [ -8.665754, 38.643195 ], [ -8.665881, 38.64444 ], [ -8.66591, 38.644943 ], [ -8.665928, 38.645677 ], [ -8.665916, 38.646214 ], [ -8.665916, 38.64665 ], [ -8.665812, 38.647905 ], [ -8.665754, 38.648405 ], [ -8.665542, 38.649644 ], [ -8.665246, 38.650879 ], [ -8.665032, 38.651619 ], [ -8.664779, 38.652341 ], [ -8.664555, 38.652944 ], [ -8.66416, 38.653891 ], [ -8.663885, 38.654479 ], [ -8.663528, 38.655173 ], [ -8.66315, 38.655856 ], [ -8.66273, 38.656539 ], [ -8.662298, 38.657202 ], [ -8.661765, 38.657966 ], [ -8.661185, 38.658711 ], [ -8.660308, 38.659753 ], [ -8.659641, 38.660461 ], [ -8.658954, 38.661148 ], [ -8.658338, 38.661723 ], [ -8.657809, 38.662183 ], [ -8.656707, 38.663084 ], [ -8.656136, 38.663514 ], [ -8.655435, 38.664022 ], [ -8.652112, 38.666345 ], [ -8.650615, 38.667471 ], [ -8.648714, 38.669032 ], [ -8.647254, 38.670305 ], [ -8.645659, 38.6721 ], [ -8.643442, 38.675087 ], [ -8.642059, 38.677259 ], [ -8.641674, 38.677962 ], [ -8.64107, 38.679166 ], [ -8.640629, 38.680204 ], [ -8.639972, 38.68189 ], [ -8.639816, 38.682459 ], [ -8.639406, 38.683849 ], [ -8.639039, 38.685509 ], [ -8.638685, 38.687612 ], [ -8.638528, 38.688954 ], [ -8.638513, 38.690344 ], [ -8.638531, 38.691938 ], [ -8.638717, 38.693708 ], [ -8.638966, 38.695293 ], [ -8.639233, 38.696506 ], [ -8.639747, 38.69832 ], [ -8.640407, 38.700098 ], [ -8.641065, 38.701628 ], [ -8.642424, 38.704227 ], [ -8.643766, 38.706324 ], [ -8.644716, 38.707528 ], [ -8.646839, 38.709969 ], [ -8.649349, 38.712355 ], [ -8.651991, 38.714436 ], [ -8.654914, 38.716321 ], [ -8.660711, 38.719433 ], [ -8.662299, 38.72044 ], [ -8.665056, 38.722276 ], [ -8.668706, 38.725124 ], [ -8.670109, 38.726303 ], [ -8.671446, 38.727573 ], [ -8.672012, 38.728158 ], [ -8.674221, 38.730532 ], [ -8.676186, 38.733009 ], [ -8.678109, 38.735707 ], [ -8.68027, 38.739557 ], [ -8.681739, 38.743114 ], [ -8.682805, 38.746332 ], [ -8.683379, 38.748976 ], [ -8.683871, 38.752004 ], [ -8.684022, 38.754123 ], [ -8.684113, 38.756625 ], [ -8.68389, 38.759285 ], [ -8.683628, 38.761377 ], [ -8.683067, 38.764686 ], [ -8.682893, 38.766455 ], [ -8.68284, 38.767416 ], [ -8.682757, 38.768933 ], [ -8.682826, 38.771046 ], [ -8.682892, 38.772029 ], [ -8.683075, 38.773742 ], [ -8.683196, 38.774588 ], [ -8.683387, 38.775704 ], [ -8.683741, 38.777371 ], [ -8.684188, 38.779072 ], [ -8.684481, 38.780038 ], [ -8.684877, 38.781217 ], [ -8.685228, 38.782165 ], [ -8.685603, 38.783099 ], [ -8.686111, 38.784264 ], [ -8.686544, 38.785189 ], [ -8.687001, 38.786095 ], [ -8.687491, 38.78701 ], [ -8.688018, 38.787933 ], [ -8.688644, 38.788963 ], [ -8.689216, 38.789855 ], [ -8.690589, 38.791813 ], [ -8.691248, 38.792675 ], [ -8.707216, 38.812872 ], [ -8.709357, 38.815639 ], [ -8.710921, 38.817761 ], [ -8.712299, 38.819704 ], [ -8.713268, 38.821119 ], [ -8.7152, 38.82406 ], [ -8.717184, 38.827261 ], [ -8.718104, 38.828692 ], [ -8.718556, 38.82935 ], [ -8.719025, 38.829993 ], [ -8.719578, 38.830712 ], [ -8.720135, 38.831401 ], [ -8.720915, 38.832286 ], [ -8.722652, 38.834123 ], [ -8.723955, 38.835307 ], [ -8.726296, 38.837157 ], [ -8.727018, 38.837651 ], [ -8.727842, 38.838174 ], [ -8.728402, 38.83855 ], [ -8.729354, 38.839175 ], [ -8.731576, 38.84042 ], [ -8.732076, 38.840661 ], [ -8.733086, 38.84115 ], [ -8.734643, 38.841847 ], [ -8.736776, 38.842688 ], [ -8.739383, 38.84356 ], [ -8.750909, 38.84717 ], [ -8.752132, 38.847572 ], [ -8.753192, 38.847943 ], [ -8.754824, 38.848567 ], [ -8.756254, 38.849173 ], [ -8.757251, 38.849631 ], [ -8.758226, 38.850107 ], [ -8.759047, 38.850536 ], [ -8.760123, 38.85113 ], [ -8.761572, 38.851984 ], [ -8.778095, 38.862186 ], [ -8.783382, 38.865466 ], [ -8.784879, 38.866459 ], [ -8.785613, 38.866981 ], [ -8.786316, 38.867511 ], [ -8.78712, 38.868165 ], [ -8.787887, 38.868845 ], [ -8.788403, 38.869339 ], [ -8.788993, 38.869941 ], [ -8.789574, 38.870585 ], [ -8.790026, 38.871124 ], [ -8.790695, 38.871997 ], [ -8.791317, 38.87291 ], [ -8.791749, 38.873619 ], [ -8.792143, 38.874332 ], [ -8.792559, 38.875177 ], [ -8.792921, 38.876021 ], [ -8.793469, 38.877585 ], [ -8.793848, 38.87905 ], [ -8.794046, 38.880395 ], [ -8.794164, 38.881731 ], [ -8.794108, 38.883342 ], [ -8.793864, 38.884991 ], [ -8.793707, 38.885785 ], [ -8.793481, 38.886665 ], [ -8.79321, 38.88753 ], [ -8.792936, 38.888263 ], [ -8.792832, 38.888523 ], [ -8.792389, 38.889476 ], [ -8.79202, 38.890198 ], [ -8.791615, 38.890908 ], [ -8.790859, 38.89204 ], [ -8.790292, 38.892842 ], [ -8.789475, 38.893943 ], [ -8.788848, 38.894758 ], [ -8.788371, 38.895344 ], [ -8.786698, 38.897398 ], [ -8.78386, 38.900958 ], [ -8.781383, 38.903872 ], [ -8.779128, 38.90616 ], [ -8.777378, 38.907726 ], [ -8.775974, 38.908871 ], [ -8.774487, 38.910043 ], [ -8.77397, 38.910421 ], [ -8.772527, 38.911422 ], [ -8.771422, 38.912157 ], [ -8.768997, 38.91365 ], [ -8.767879, 38.914262 ], [ -8.767367, 38.914542 ], [ -8.763056, 38.91677 ], [ -8.760317, 38.91839 ], [ -8.758529, 38.919543 ], [ -8.757515, 38.920251 ], [ -8.755173, 38.922007 ], [ -8.752933, 38.923851 ], [ -8.751109, 38.925567 ], [ -8.748879, 38.927883 ], [ -8.747553, 38.929414 ], [ -8.746586, 38.93063 ], [ -8.745587, 38.93199 ], [ -8.744803, 38.93314 ], [ -8.744001, 38.93441 ], [ -8.743386, 38.935455 ], [ -8.74293, 38.936281 ], [ -8.742376, 38.937352 ], [ -8.741906, 38.938321 ], [ -8.740595, 38.941535 ], [ -8.739681, 38.944489 ], [ -8.739084, 38.947049 ], [ -8.738682, 38.949487 ], [ -8.738404, 38.951541 ], [ -8.738198, 38.95278 ], [ -8.737977, 38.953981 ], [ -8.73752, 38.956022 ], [ -8.73704, 38.957875 ], [ -8.73648, 38.959719 ], [ -8.735849, 38.961549 ], [ -8.735186, 38.963319 ], [ -8.734441, 38.965116 ], [ -8.733654, 38.966887 ], [ -8.733256, 38.967734 ], [ -8.732602, 38.969023 ], [ -8.731853, 38.9704 ], [ -8.731119, 38.971749 ], [ -8.730376, 38.97295 ], [ -8.728799, 38.975353 ], [ -8.726414, 38.978575 ], [ -8.724813, 38.980563 ], [ -8.722026, 38.983762 ], [ -8.720481, 38.985271 ], [ -8.719148, 38.98668 ], [ -8.717333, 38.988832 ], [ -8.715669, 38.991067 ], [ -8.714951, 38.992137 ], [ -8.714414, 38.992983 ], [ -8.71357, 38.994411 ], [ -8.713098, 38.995246 ], [ -8.711947, 38.997185 ], [ -8.710878, 38.9989 ], [ -8.710521, 38.999463 ], [ -8.709199, 39.00143 ], [ -8.70736, 39.004009 ], [ -8.706074, 39.005669 ], [ -8.703349, 39.009065 ], [ -8.702312, 39.010276 ], [ -8.699712, 39.013182 ], [ -8.697277, 39.015692 ], [ -8.693141, 39.019662 ], [ -8.687831, 39.024479 ], [ -8.686164, 39.025931 ], [ -8.684686, 39.027356 ], [ -8.683274, 39.028813 ], [ -8.682011, 39.03021 ], [ -8.680508, 39.032059 ], [ -8.679036, 39.033962 ], [ -8.678122, 39.035248 ], [ -8.677765, 39.03578 ], [ -8.676735, 39.037371 ], [ -8.675661, 39.039224 ], [ -8.674677, 39.041092 ], [ -8.673546, 39.043441 ], [ -8.672337, 39.046076 ], [ -8.672143, 39.046478 ], [ -8.670516, 39.049884 ], [ -8.669658, 39.051572 ], [ -8.669332, 39.052314 ], [ -8.668073, 39.05497 ], [ -8.667712, 39.055677 ], [ -8.667228, 39.056746 ], [ -8.666691, 39.058202 ], [ -8.666428, 39.059066 ], [ -8.666295, 39.059584 ], [ -8.666152, 39.060249 ], [ -8.666076, 39.060913 ], [ -8.665995, 39.062045 ], [ -8.665975, 39.063363 ], [ -8.666048, 39.064596 ], [ -8.666223, 39.065828 ], [ -8.666695, 39.067819 ], [ -8.66746, 39.069728 ], [ -8.6678, 39.07032 ], [ -8.669009, 39.072321 ], [ -8.670257, 39.074083 ], [ -8.670952, 39.07499 ], [ -8.671955, 39.076413 ], [ -8.672915, 39.078166 ], [ -8.67332, 39.079139 ], [ -8.673619, 39.080099 ], [ -8.673907, 39.08129 ], [ -8.674076, 39.082821 ], [ -8.674073, 39.084351 ], [ -8.673907, 39.085856 ], [ -8.67344, 39.087497 ], [ -8.673103, 39.088422 ], [ -8.672693, 39.089331 ], [ -8.672386, 39.089923 ], [ -8.672, 39.090584 ], [ -8.671645, 39.091128 ], [ -8.67125, 39.091677 ], [ -8.670913, 39.092113 ], [ -8.670563, 39.092532 ], [ -8.66973, 39.093436 ], [ -8.669215, 39.093937 ], [ -8.6686, 39.094484 ], [ -8.668036, 39.094945 ], [ -8.667339, 39.095463 ], [ -8.666872, 39.095786 ], [ -8.666385, 39.096103 ], [ -8.66537, 39.096707 ], [ -8.664439, 39.097212 ], [ -8.663382, 39.097753 ], [ -8.656466, 39.101236 ], [ -8.649706, 39.104608 ], [ -8.642955, 39.108008 ], [ -8.632824, 39.113096 ], [ -8.631876, 39.113589 ], [ -8.630967, 39.114092 ], [ -8.629939, 39.11471 ], [ -8.629073, 39.115284 ], [ -8.628338, 39.115808 ], [ -8.627553, 39.116423 ], [ -8.626167, 39.117644 ], [ -8.625567, 39.118245 ], [ -8.624539, 39.119386 ], [ -8.623527, 39.120693 ], [ -8.622997, 39.121487 ], [ -8.622597, 39.122145 ], [ -8.622272, 39.122733 ], [ -8.621695, 39.123926 ], [ -8.621308, 39.124881 ], [ -8.620989, 39.125841 ], [ -8.620783, 39.126582 ], [ -8.62064, 39.127206 ], [ -8.62052, 39.127831 ], [ -8.62041, 39.128581 ], [ -8.620322, 39.129587 ], [ -8.620295, 39.130592 ], [ -8.6204, 39.131883 ], [ -8.620572, 39.133376 ], [ -8.621301, 39.137353 ], [ -8.62265, 39.144304 ], [ -8.625406, 39.158647 ], [ -8.625506, 39.159279 ], [ -8.625933, 39.162741 ], [ -8.626134, 39.166038 ], [ -8.626191, 39.166972 ], [ -8.626169, 39.169044 ], [ -8.626415, 39.170255 ], [ -8.62646, 39.170681 ], [ -8.62667, 39.172651 ], [ -8.626846, 39.17501 ], [ -8.627034, 39.175875 ], [ -8.627173, 39.176359 ], [ -8.627289, 39.176696 ], [ -8.627862, 39.177851 ], [ -8.628597, 39.178841 ], [ -8.629064, 39.179356 ], [ -8.629725, 39.17999 ], [ -8.630134, 39.180358 ], [ -8.630912, 39.180884 ], [ -8.631575, 39.181277 ], [ -8.641854, 39.186901 ], [ -8.642432, 39.187204 ], [ -8.645579, 39.188716 ], [ -8.646656, 39.189257 ], [ -8.64694, 39.189452 ], [ -8.647108, 39.189635 ], [ -8.647243, 39.189875 ], [ -8.647354, 39.190188 ], [ -8.647446, 39.19043 ], [ -8.647607, 39.190687 ], [ -8.64764, 39.190782 ], [ -8.647643, 39.190856 ], [ -8.647674, 39.190925 ], [ -8.647651, 39.191053 ], [ -8.647587, 39.191184 ], [ -8.6472, 39.191673 ], [ -8.646852, 39.192145 ], [ -8.646625, 39.192368 ], [ -8.641513, 39.197807 ], [ -8.64064, 39.19869 ], [ -8.640334, 39.198948 ], [ -8.639704, 39.199479 ], [ -8.639185, 39.199918 ], [ -8.638803, 39.20024 ], [ -8.638594, 39.200446 ], [ -8.638063, 39.201 ], [ -8.6374, 39.201801 ], [ -8.637044, 39.202307 ], [ -8.636839, 39.202603 ], [ -8.636485, 39.203061 ], [ -8.635915, 39.203714 ], [ -8.635694, 39.203928 ], [ -8.635605, 39.203987 ], [ -8.635375, 39.204067 ], [ -8.635322, 39.20409 ], [ -8.635253, 39.204179 ], [ -8.635258, 39.204215 ], [ -8.635267, 39.204378 ], [ -8.635216, 39.204541 ], [ -8.63435, 39.205582 ], [ -8.63343, 39.206808 ], [ -8.633356, 39.206909 ], [ -8.633139, 39.207121 ], [ -8.632792, 39.207369 ], [ -8.632607, 39.207507 ], [ -8.632383, 39.207647 ], [ -8.632232, 39.207732 ], [ -8.631799, 39.207939 ], [ -8.631415, 39.208216 ], [ -8.630524, 39.208999 ], [ -8.630242, 39.209206 ], [ -8.62949, 39.209666 ], [ -8.629009, 39.209946 ], [ -8.628476, 39.210251 ], [ -8.628136, 39.210433 ], [ -8.62789, 39.210514 ], [ -8.626823, 39.21076 ], [ -8.626499, 39.210897 ], [ -8.626273, 39.211073 ], [ -8.626228, 39.211121 ], [ -8.625446, 39.211958 ], [ -8.624024, 39.213442 ], [ -8.623095, 39.214399 ], [ -8.622883, 39.214532 ], [ -8.622786, 39.214536 ], [ -8.622716, 39.214572 ], [ -8.622677, 39.21463 ], [ -8.622679, 39.214701 ], [ -8.622626, 39.214819 ], [ -8.622497, 39.215019 ], [ -8.622379, 39.215089 ], [ -8.61838, 39.217654 ], [ -8.617958, 39.217931 ], [ -8.616643, 39.218898 ], [ -8.616113, 39.219243 ], [ -8.615721, 39.219443 ], [ -8.614293, 39.219999 ], [ -8.613042, 39.220466 ], [ -8.612677, 39.220631 ], [ -8.6123, 39.220834 ], [ -8.612032, 39.221031 ], [ -8.609575, 39.223338 ], [ -8.608554, 39.224266 ], [ -8.608009, 39.224927 ], [ -8.607888, 39.225079 ], [ -8.607742, 39.225298 ], [ -8.607261, 39.225981 ], [ -8.606485, 39.227175 ], [ -8.605505, 39.229067 ], [ -8.60496, 39.23007 ], [ -8.600808, 39.238024 ], [ -8.600332, 39.238928 ], [ -8.600073, 39.239381 ], [ -8.599858, 39.239629 ], [ -8.59941, 39.24008 ], [ -8.599186, 39.240285 ], [ -8.598842, 39.240543 ], [ -8.595498, 39.242523 ], [ -8.595152, 39.242853 ], [ -8.593183, 39.244945 ], [ -8.592507, 39.245577 ], [ -8.592035, 39.245909 ], [ -8.591345, 39.246293 ], [ -8.59086, 39.246654 ], [ -8.590541, 39.247133 ], [ -8.590287, 39.247861 ], [ -8.590239, 39.247984 ], [ -8.590076, 39.248208 ], [ -8.590013, 39.248242 ], [ -8.589958, 39.248319 ], [ -8.589964, 39.248408 ], [ -8.589977, 39.248432 ], [ -8.590022, 39.248538 ], [ -8.590044, 39.248759 ], [ -8.589574, 39.250784 ], [ -8.589493, 39.251127 ], [ -8.589322, 39.251885 ], [ -8.589163, 39.252493 ], [ -8.589024, 39.252853 ], [ -8.588146, 39.254968 ], [ -8.587909, 39.255415 ], [ -8.58766, 39.255855 ], [ -8.587128, 39.256577 ], [ -8.586756, 39.257069 ], [ -8.586545, 39.257366 ], [ -8.586248, 39.257769 ], [ -8.586195, 39.257842 ], [ -8.585801, 39.258368 ], [ -8.584964, 39.259262 ], [ -8.584776, 39.259517 ], [ -8.58452, 39.259849 ], [ -8.584218, 39.260179 ], [ -8.583986, 39.260417 ], [ -8.583727, 39.260695 ], [ -8.583549, 39.260886 ], [ -8.583369, 39.261079 ], [ -8.582876, 39.261609 ], [ -8.582538, 39.261973 ], [ -8.582273, 39.262259 ], [ -8.582023, 39.262513 ], [ -8.581573, 39.26289 ], [ -8.580767, 39.263518 ], [ -8.579676, 39.264356 ], [ -8.578741, 39.265121 ], [ -8.577363, 39.266272 ], [ -8.576658, 39.266838 ], [ -8.573812, 39.269161 ], [ -8.573524, 39.269361 ], [ -8.573238, 39.269467 ], [ -8.569178, 39.270577 ], [ -8.568553, 39.27079 ], [ -8.566835, 39.271449 ], [ -8.566471, 39.271607 ], [ -8.565387, 39.272139 ], [ -8.564048, 39.272795 ], [ -8.563314, 39.273161 ], [ -8.562821, 39.273395 ], [ -8.562398, 39.273546 ], [ -8.562186, 39.273593 ], [ -8.561685, 39.273635 ], [ -8.56156, 39.273637 ], [ -8.561269, 39.273607 ], [ -8.560409, 39.27346 ], [ -8.560101, 39.273298 ], [ -8.560021, 39.2732 ], [ -8.559956, 39.273167 ], [ -8.559803, 39.273153 ], [ -8.55967, 39.273206 ], [ -8.559378, 39.273266 ], [ -8.55868, 39.273169 ], [ -8.558239, 39.273152 ], [ -8.557911, 39.273169 ], [ -8.557627, 39.273209 ], [ -8.55733, 39.27328 ], [ -8.554973, 39.274372 ], [ -8.553251, 39.275134 ], [ -8.552624, 39.275352 ], [ -8.550296, 39.27566 ], [ -8.547903, 39.275734 ], [ -8.547222, 39.275828 ], [ -8.546605, 39.276025 ], [ -8.546111, 39.276224 ], [ -8.545478, 39.276573 ], [ -8.544701, 39.277118 ], [ -8.544605, 39.277185 ], [ -8.543461, 39.277985 ], [ -8.542635, 39.278475 ], [ -8.531788, 39.28396 ], [ -8.528823, 39.285407 ], [ -8.52844, 39.285636 ], [ -8.525005, 39.288347 ], [ -8.524927, 39.288409 ], [ -8.524625, 39.288647 ], [ -8.524276, 39.28889 ], [ -8.523699, 39.289321 ], [ -8.521756, 39.290904 ], [ -8.521418, 39.291238 ], [ -8.520261, 39.29239 ], [ -8.520192, 39.292448 ], [ -8.519914, 39.292693 ], [ -8.519109, 39.293215 ], [ -8.518872, 39.293369 ], [ -8.518121, 39.293895 ], [ -8.517592, 39.294176 ], [ -8.516486, 39.294572 ], [ -8.51586, 39.29473 ], [ -8.513859, 39.295077 ], [ -8.513197, 39.29522 ], [ -8.510559, 39.295953 ], [ -8.510089, 39.296112 ], [ -8.509243, 39.296458 ], [ -8.502582, 39.29932 ], [ -8.502354, 39.299508 ], [ -8.502124, 39.299799 ], [ -8.500964, 39.301835 ], [ -8.50085, 39.301999 ], [ -8.500659, 39.302217 ], [ -8.49858, 39.304109 ], [ -8.498439, 39.304269 ], [ -8.498328, 39.30451 ], [ -8.498092, 39.305426 ], [ -8.497997, 39.305669 ], [ -8.497848, 39.305908 ], [ -8.49166, 39.3132 ], [ -8.490149, 39.314956 ], [ -8.490035, 39.315116 ], [ -8.489928, 39.315305 ], [ -8.489273, 39.318513 ], [ -8.489191, 39.318754 ], [ -8.489022, 39.319003 ], [ -8.488808, 39.319163 ], [ -8.488557, 39.319297 ], [ -8.481752, 39.32212 ], [ -8.481486, 39.322256 ], [ -8.480628, 39.322803 ], [ -8.480185, 39.323027 ], [ -8.479757, 39.323187 ], [ -8.479263, 39.323291 ], [ -8.477179, 39.323481 ], [ -8.476938, 39.323481 ], [ -8.47637, 39.323526 ], [ -8.476253, 39.323555 ], [ -8.475969, 39.323678 ], [ -8.475843, 39.323756 ], [ -8.475649, 39.323972 ], [ -8.475603, 39.324065 ], [ -8.475387, 39.324567 ], [ -8.475352, 39.324714 ], [ -8.473641, 39.328528 ], [ -8.473543, 39.328783 ], [ -8.473193, 39.329539 ], [ -8.473079, 39.329716 ], [ -8.473038, 39.329844 ], [ -8.472947, 39.329992 ], [ -8.472899, 39.330032 ], [ -8.472784, 39.330082 ], [ -8.472549, 39.330058 ], [ -8.471985, 39.329783 ], [ -8.471787, 39.329669 ], [ -8.471486, 39.329455 ], [ -8.4713, 39.329277 ], [ -8.471162, 39.329125 ], [ -8.470947, 39.328787 ], [ -8.470463, 39.327689 ], [ -8.470355, 39.327589 ], [ -8.470237, 39.327528 ], [ -8.470071, 39.327484 ], [ -8.467385, 39.32696 ], [ -8.467204, 39.32694 ], [ -8.466911, 39.326958 ], [ -8.465806, 39.327203 ], [ -8.465525, 39.32725 ], [ -8.465383, 39.327258 ], [ -8.465272, 39.327253 ], [ -8.465108, 39.32722 ], [ -8.464535, 39.327005 ], [ -8.463401, 39.326582 ], [ -8.462963, 39.326466 ], [ -8.461716, 39.326297 ], [ -8.460197, 39.325904 ], [ -8.459196, 39.325741 ], [ -8.458305, 39.325623 ], [ -8.458136, 39.325588 ], [ -8.458004, 39.32553 ], [ -8.457903, 39.325458 ], [ -8.457546, 39.325074 ], [ -8.457377, 39.324968 ], [ -8.457258, 39.324922 ], [ -8.455785, 39.324476 ], [ -8.45561, 39.324472 ], [ -8.455228, 39.324529 ], [ -8.45512, 39.324534 ], [ -8.455006, 39.324517 ], [ -8.454886, 39.324476 ], [ -8.454353, 39.324145 ], [ -8.454264, 39.324107 ], [ -8.454102, 39.324054 ], [ -8.453674, 39.32397 ], [ -8.453533, 39.32393 ], [ -8.453376, 39.323868 ], [ -8.452509, 39.323448 ], [ -8.452308, 39.32337 ], [ -8.452215, 39.323349 ], [ -8.452014, 39.323332 ], [ -8.451751, 39.323368 ], [ -8.450625, 39.3238 ], [ -8.45022, 39.323928 ], [ -8.449103, 39.324128 ], [ -8.448882, 39.324155 ], [ -8.448664, 39.324163 ], [ -8.448351, 39.324112 ], [ -8.448087, 39.324011 ], [ -8.447298, 39.323526 ], [ -8.447055, 39.323399 ], [ -8.446819, 39.323296 ], [ -8.446429, 39.323161 ], [ -8.446294, 39.32314 ], [ -8.446038, 39.323138 ], [ -8.445136, 39.323244 ], [ -8.444951, 39.323259 ], [ -8.444768, 39.323255 ], [ -8.444427, 39.323191 ], [ -8.443813, 39.32297 ], [ -8.443361, 39.322815 ], [ -8.443121, 39.322753 ], [ -8.442969, 39.322731 ], [ -8.442763, 39.322721 ], [ -8.439855, 39.322754 ], [ -8.439374, 39.322728 ], [ -8.439054, 39.322659 ], [ -8.438916, 39.32261 ], [ -8.437555, 39.32198 ], [ -8.437212, 39.321762 ], [ -8.435843, 39.320789 ], [ -8.435724, 39.320723 ], [ -8.435522, 39.320645 ], [ -8.435324, 39.320621 ], [ -8.435217, 39.320627 ], [ -8.435031, 39.320657 ], [ -8.434448, 39.320796 ], [ -8.434141, 39.320847 ], [ -8.433996, 39.320855 ], [ -8.430418, 39.320596 ], [ -8.430248, 39.320565 ], [ -8.430078, 39.320514 ], [ -8.429929, 39.320358 ], [ -8.429897, 39.32028 ], [ -8.429885, 39.32016 ], [ -8.429861, 39.319637 ], [ -8.430188, 39.3176 ], [ -8.430215, 39.317418 ], [ -8.43024, 39.31718 ], [ -8.430115, 39.316862 ], [ -8.429479, 39.315711 ], [ -8.429331, 39.315545 ], [ -8.429184, 39.315483 ], [ -8.42855, 39.315336 ], [ -8.428057, 39.315218 ], [ -8.427546, 39.315028 ], [ -8.427411, 39.314991 ], [ -8.426941, 39.314901 ], [ -8.426787, 39.314865 ], [ -8.426351, 39.314771 ], [ -8.42602, 39.314678 ], [ -8.424785, 39.314056 ], [ -8.424541, 39.313916 ], [ -8.4244, 39.313859 ], [ -8.42336, 39.31364 ], [ -8.423251, 39.313616 ], [ -8.423239, 39.313612 ], [ -8.423092, 39.313546 ], [ -8.422995, 39.31348 ], [ -8.422631, 39.313123 ], [ -8.422566, 39.313029 ], [ -8.42253, 39.312884 ], [ -8.422545, 39.312625 ], [ -8.422515, 39.312459 ], [ -8.42239, 39.312286 ], [ -8.422158, 39.312096 ], [ -8.422108, 39.312035 ], [ -8.421972, 39.311779 ], [ -8.421959, 39.311696 ], [ -8.42201, 39.31154 ], [ -8.42228, 39.311097 ], [ -8.42232, 39.310944 ], [ -8.422322, 39.310849 ], [ -8.42199, 39.308426 ], [ -8.421955, 39.308322 ], [ -8.421496, 39.307492 ], [ -8.421313, 39.307263 ], [ -8.421092, 39.307069 ], [ -8.420998, 39.306925 ], [ -8.420552, 39.305281 ], [ -8.420474, 39.305058 ], [ -8.419981, 39.303986 ], [ -8.41988, 39.303834 ], [ -8.419824, 39.303773 ], [ -8.41932, 39.303348 ], [ -8.419096, 39.303224 ], [ -8.418748, 39.303092 ], [ -8.418596, 39.303013 ], [ -8.416725, 39.301798 ], [ -8.416424, 39.301558 ], [ -8.416264, 39.301457 ], [ -8.415986, 39.301358 ], [ -8.415613, 39.301274 ], [ -8.415515, 39.301239 ], [ -8.415143, 39.30105 ], [ -8.414015, 39.300631 ], [ -8.413556, 39.30048 ], [ -8.412721, 39.300308 ], [ -8.412343, 39.300189 ], [ -8.412193, 39.300162 ], [ -8.411835, 39.300139 ], [ -8.41163, 39.300083 ], [ -8.411543, 39.300038 ], [ -8.411219, 39.299811 ], [ -8.410757, 39.299622 ], [ -8.410248, 39.299153 ], [ -8.409495, 39.298537 ], [ -8.409235, 39.298355 ], [ -8.408971, 39.298206 ], [ -8.408517, 39.297999 ], [ -8.408023, 39.297846 ], [ -8.407795, 39.297805 ], [ -8.40756, 39.297812 ], [ -8.405224, 39.29804 ], [ -8.404898, 39.298057 ], [ -8.404431, 39.298033 ], [ -8.403833, 39.297977 ], [ -8.403541, 39.297911 ], [ -8.40342, 39.297856 ], [ -8.403285, 39.297774 ], [ -8.402878, 39.29741 ], [ -8.402772, 39.297335 ], [ -8.40262, 39.297276 ], [ -8.402417, 39.297231 ], [ -8.401269, 39.297037 ], [ -8.40011, 39.296736 ], [ -8.399865, 39.296658 ], [ -8.399721, 39.296595 ], [ -8.39949, 39.296446 ], [ -8.399256, 39.296234 ], [ -8.399109, 39.296058 ], [ -8.398782, 39.295599 ], [ -8.398646, 39.295462 ], [ -8.398354, 39.295244 ], [ -8.397722, 39.2949 ], [ -8.397462, 39.294723 ], [ -8.397235, 39.294478 ], [ -8.397074, 39.29425 ], [ -8.396966, 39.294136 ], [ -8.394932, 39.292489 ], [ -8.394654, 39.292237 ], [ -8.394547, 39.292084 ], [ -8.394511, 39.291998 ], [ -8.394446, 39.291635 ], [ -8.394343, 39.291433 ], [ -8.393934, 39.290828 ], [ -8.393843, 39.290609 ], [ -8.393701, 39.290159 ], [ -8.393288, 39.289268 ], [ -8.393227, 39.289167 ], [ -8.393068, 39.288999 ], [ -8.392684, 39.288757 ], [ -8.392599, 39.288683 ], [ -8.391621, 39.287624 ], [ -8.3913, 39.287419 ], [ -8.391183, 39.287253 ], [ -8.391135, 39.287133 ], [ -8.390952, 39.286868 ], [ -8.390829, 39.286584 ], [ -8.390758, 39.286483 ], [ -8.390284, 39.286039 ], [ -8.38989, 39.285783 ], [ -8.389597, 39.285393 ], [ -8.389481, 39.285267 ], [ -8.389318, 39.285154 ], [ -8.389066, 39.285039 ], [ -8.388936, 39.284998 ], [ -8.38882, 39.284984 ], [ -8.388687, 39.284989 ], [ -8.38852, 39.285037 ], [ -8.38811, 39.285237 ], [ -8.387942, 39.285374 ], [ -8.38781, 39.285519 ], [ -8.387698, 39.285595 ], [ -8.387254, 39.285763 ], [ -8.386787, 39.286019 ], [ -8.386667, 39.286066 ], [ -8.386433, 39.286131 ], [ -8.385443, 39.286348 ], [ -8.385264, 39.286369 ], [ -8.38511, 39.286352 ], [ -8.385028, 39.286326 ], [ -8.384895, 39.286238 ], [ -8.384786, 39.286114 ], [ -8.384225, 39.285318 ], [ -8.384023, 39.285078 ], [ -8.383903, 39.284979 ], [ -8.381413, 39.283345 ], [ -8.381326, 39.283247 ], [ -8.381245, 39.283145 ], [ -8.381119, 39.282854 ], [ -8.380658, 39.281295 ], [ -8.380524, 39.281082 ], [ -8.380447, 39.281003 ], [ -8.380287, 39.280898 ], [ -8.380094, 39.280841 ], [ -8.379909, 39.280818 ], [ -8.375404, 39.280765 ], [ -8.374907, 39.280772 ], [ -8.374686, 39.280799 ], [ -8.371974, 39.281305 ], [ -8.37044, 39.281577 ], [ -8.370251, 39.281588 ], [ -8.370091, 39.281579 ], [ -8.369728, 39.281525 ], [ -8.369367, 39.2814 ], [ -8.366969, 39.280323 ], [ -8.366699, 39.280171 ], [ -8.366397, 39.279947 ], [ -8.366161, 39.279722 ], [ -8.36509, 39.278381 ], [ -8.363122, 39.275855 ], [ -8.362862, 39.275638 ], [ -8.362651, 39.275525 ], [ -8.361422, 39.274974 ], [ -8.361274, 39.274878 ], [ -8.360918, 39.274557 ], [ -8.359995, 39.272969 ], [ -8.35922, 39.271899 ], [ -8.358849, 39.271329 ], [ -8.35875, 39.271228 ], [ -8.358615, 39.271124 ], [ -8.358463, 39.271057 ], [ -8.358189, 39.271 ], [ -8.356297, 39.270745 ], [ -8.3559, 39.270659 ], [ -8.355754, 39.270568 ], [ -8.355685, 39.270496 ], [ -8.355471, 39.270181 ], [ -8.355308, 39.270014 ], [ -8.355215, 39.269949 ], [ -8.354986, 39.269826 ], [ -8.354816, 39.269765 ], [ -8.354717, 39.269749 ], [ -8.354576, 39.26977 ], [ -8.354401, 39.269864 ], [ -8.353822, 39.270303 ], [ -8.353684, 39.270415 ], [ -8.353641, 39.27045 ], [ -8.353505, 39.270563 ], [ -8.353488, 39.270578 ], [ -8.353212, 39.270768 ], [ -8.353059, 39.270849 ], [ -8.35283, 39.270923 ], [ -8.352594, 39.270937 ], [ -8.352399, 39.270925 ], [ -8.352001, 39.270858 ], [ -8.351141, 39.270631 ], [ -8.350695, 39.270517 ], [ -8.350595, 39.270491 ], [ -8.35049, 39.270461 ], [ -8.350359, 39.270376 ], [ -8.350319, 39.270314 ], [ -8.350279, 39.270193 ], [ -8.35027, 39.270023 ], [ -8.35026, 39.268243 ], [ -8.350257, 39.266929 ], [ -8.350204, 39.266737 ], [ -8.350142, 39.266612 ], [ -8.345017, 39.259193 ], [ -8.344756, 39.258597 ], [ -8.34464, 39.258323 ], [ -8.34459, 39.258156 ], [ -8.344565, 39.257881 ], [ -8.344579, 39.257671 ], [ -8.344868, 39.25625 ], [ -8.344896, 39.255986 ], [ -8.344865, 39.2544 ], [ -8.34483, 39.254214 ], [ -8.344761, 39.25405 ], [ -8.344635, 39.253898 ], [ -8.34441, 39.253709 ], [ -8.34428, 39.253644 ], [ -8.344096, 39.253576 ], [ -8.343825, 39.253542 ], [ -8.343441, 39.253523 ], [ -8.341915, 39.253517 ], [ -8.341313, 39.25354 ], [ -8.340554, 39.253635 ], [ -8.339916, 39.253754 ], [ -8.338279, 39.25411 ], [ -8.336741, 39.254436 ], [ -8.336138, 39.254548 ], [ -8.332593, 39.254923 ], [ -8.329935, 39.255169 ], [ -8.329455, 39.255203 ], [ -8.328666, 39.255214 ], [ -8.326557, 39.255016 ], [ -8.326087, 39.254985 ], [ -8.324341, 39.254976 ], [ -8.323992, 39.254947 ], [ -8.323666, 39.254889 ], [ -8.323365, 39.254809 ], [ -8.323108, 39.254721 ], [ -8.322863, 39.254616 ], [ -8.322657, 39.254505 ], [ -8.322407, 39.254307 ], [ -8.322211, 39.254043 ], [ -8.32157, 39.252899 ], [ -8.321508, 39.252791 ], [ -8.321259, 39.252352 ], [ -8.321112, 39.252166 ], [ -8.320464, 39.251545 ], [ -8.31908, 39.250256 ], [ -8.318823, 39.250043 ], [ -8.318591, 39.249891 ], [ -8.318371, 39.249783 ], [ -8.318091, 39.249671 ], [ -8.316393, 39.249153 ], [ -8.316089, 39.24904 ], [ -8.315724, 39.248841 ], [ -8.315421, 39.248642 ], [ -8.314251, 39.247827 ], [ -8.314096, 39.247743 ], [ -8.313964, 39.247696 ], [ -8.313844, 39.247668 ], [ -8.313692, 39.247656 ], [ -8.313535, 39.247665 ], [ -8.311369, 39.248162 ], [ -8.311041, 39.248226 ], [ -8.310797, 39.248251 ], [ -8.310527, 39.248239 ], [ -8.310255, 39.248207 ], [ -8.309906, 39.248136 ], [ -8.309382, 39.247948 ], [ -8.309047, 39.247804 ], [ -8.30207, 39.244722 ], [ -8.301461, 39.244489 ], [ -8.3012, 39.244412 ], [ -8.30096, 39.24436 ], [ -8.300686, 39.244323 ], [ -8.300365, 39.244299 ], [ -8.298297, 39.244234 ], [ -8.297838, 39.244236 ], [ -8.29756, 39.244264 ], [ -8.297127, 39.244346 ], [ -8.296804, 39.244451 ], [ -8.296641, 39.244525 ], [ -8.296281, 39.244757 ], [ -8.29294, 39.247155 ], [ -8.292529, 39.247384 ], [ -8.292216, 39.247525 ], [ -8.291764, 39.247673 ], [ -8.288446, 39.248424 ], [ -8.287947, 39.248596 ], [ -8.287529, 39.248792 ], [ -8.287405, 39.248866 ], [ -8.280268, 39.254595 ], [ -8.280075, 39.254697 ], [ -8.279905, 39.254763 ], [ -8.279688, 39.254829 ], [ -8.279523, 39.254847 ], [ -8.279131, 39.254851 ], [ -8.278892, 39.254817 ], [ -8.278629, 39.254739 ], [ -8.278472, 39.254666 ], [ -8.278293, 39.254558 ], [ -8.278045, 39.254351 ], [ -8.277939, 39.25423 ], [ -8.277819, 39.253981 ], [ -8.277352, 39.250889 ], [ -8.277254, 39.250471 ], [ -8.277151, 39.250247 ], [ -8.276905, 39.249864 ], [ -8.276733, 39.249653 ], [ -8.276101, 39.248972 ], [ -8.275934, 39.248758 ], [ -8.275837, 39.248597 ], [ -8.27562, 39.248143 ], [ -8.275467, 39.247874 ], [ -8.275365, 39.247729 ], [ -8.275238, 39.247607 ], [ -8.275017, 39.247443 ], [ -8.274783, 39.247297 ], [ -8.274241, 39.247029 ], [ -8.273995, 39.24689 ], [ -8.273823, 39.246781 ], [ -8.273557, 39.246568 ], [ -8.273421, 39.246435 ], [ -8.273281, 39.24624 ], [ -8.273104, 39.245933 ], [ -8.272854, 39.2454 ], [ -8.272677, 39.245194 ], [ -8.272577, 39.245114 ], [ -8.272427, 39.245026 ], [ -8.271472, 39.244531 ], [ -8.271263, 39.244394 ], [ -8.269707, 39.243225 ], [ -8.269358, 39.24294 ], [ -8.269167, 39.242671 ], [ -8.268113, 39.240522 ], [ -8.26765, 39.239865 ], [ -8.266563, 39.238483 ], [ -8.266286, 39.238073 ], [ -8.266165, 39.237864 ], [ -8.266059, 39.23763 ], [ -8.265353, 39.235543 ], [ -8.265226, 39.235315 ], [ -8.265104, 39.235142 ], [ -8.264834, 39.234857 ], [ -8.262595, 39.232968 ], [ -8.262195, 39.232608 ], [ -8.262032, 39.232422 ], [ -8.261779, 39.23207 ], [ -8.261656, 39.23184 ], [ -8.260799, 39.229777 ], [ -8.260331, 39.22854 ], [ -8.260217, 39.228036 ], [ -8.260171, 39.227543 ], [ -8.260229, 39.225823 ], [ -8.260243, 39.225428 ], [ -8.260252, 39.224994 ], [ -8.260224, 39.224701 ], [ -8.260147, 39.224497 ], [ -8.259999, 39.224267 ], [ -8.259869, 39.22411 ], [ -8.258646, 39.222822 ], [ -8.258413, 39.222508 ], [ -8.258103, 39.221994 ], [ -8.257969, 39.221847 ], [ -8.257834, 39.22174 ], [ -8.257671, 39.221649 ], [ -8.2574, 39.221549 ], [ -8.257206, 39.221444 ], [ -8.257122, 39.22138 ], [ -8.257035, 39.221281 ], [ -8.256965, 39.221139 ], [ -8.256947, 39.221066 ], [ -8.25696, 39.220867 ], [ -8.257062, 39.220687 ], [ -8.257153, 39.220601 ], [ -8.257304, 39.220516 ], [ -8.258208, 39.22022 ], [ -8.258814, 39.219897 ], [ -8.259127, 39.219749 ], [ -8.259408, 39.219678 ], [ -8.260626, 39.219568 ], [ -8.2608, 39.219537 ], [ -8.261028, 39.219474 ], [ -8.261408, 39.219327 ], [ -8.262107, 39.218983 ], [ -8.262248, 39.2189 ], [ -8.262344, 39.218821 ], [ -8.262439, 39.218728 ], [ -8.262522, 39.21861 ], [ -8.263915, 39.21636 ], [ -8.264451, 39.215393 ], [ -8.264527, 39.215108 ], [ -8.264527, 39.214959 ], [ -8.264478, 39.21475 ], [ -8.26444, 39.214652 ], [ -8.264311, 39.214445 ], [ -8.264118, 39.21424 ], [ -8.264021, 39.214166 ], [ -8.263799, 39.214045 ], [ -8.263591, 39.213973 ], [ -8.263444, 39.213948 ], [ -8.263214, 39.213941 ], [ -8.262201, 39.214051 ], [ -8.26204, 39.214052 ], [ -8.261754, 39.214009 ], [ -8.261536, 39.213932 ], [ -8.261375, 39.213853 ], [ -8.260302, 39.213188 ], [ -8.260079, 39.213069 ], [ -8.259883, 39.212987 ], [ -8.259655, 39.212922 ], [ -8.259466, 39.212887 ], [ -8.257855, 39.212733 ], [ -8.257641, 39.212697 ], [ -8.257197, 39.212592 ], [ -8.25644, 39.212364 ], [ -8.256239, 39.212323 ], [ -8.256024, 39.212299 ], [ -8.255838, 39.212307 ], [ -8.255622, 39.212348 ], [ -8.255423, 39.212416 ], [ -8.255136, 39.212579 ], [ -8.254883, 39.212749 ], [ -8.254417, 39.213105 ], [ -8.254027, 39.213306 ], [ -8.252534, 39.213704 ], [ -8.252342, 39.21373 ], [ -8.252177, 39.213734 ], [ -8.252036, 39.21372 ], [ -8.251727, 39.21366 ], [ -8.249775, 39.213071 ], [ -8.24947, 39.212938 ], [ -8.24888, 39.212631 ], [ -8.24853, 39.212497 ], [ -8.248381, 39.212469 ], [ -8.248067, 39.212464 ], [ -8.24791, 39.212483 ], [ -8.247726, 39.212523 ], [ -8.246983, 39.212766 ], [ -8.246814, 39.2128 ], [ -8.246499, 39.212823 ], [ -8.246242, 39.212784 ], [ -8.245251, 39.212456 ], [ -8.24499, 39.212333 ], [ -8.24487, 39.212256 ], [ -8.244663, 39.212087 ], [ -8.243851, 39.211176 ], [ -8.243626, 39.21099 ], [ -8.243498, 39.210918 ], [ -8.243221, 39.210826 ], [ -8.240625, 39.210289 ], [ -8.240473, 39.210241 ], [ -8.240183, 39.210109 ], [ -8.239422, 39.2096 ], [ -8.239096, 39.209455 ], [ -8.238235, 39.209138 ], [ -8.238115, 39.209078 ], [ -8.238005, 39.20901 ], [ -8.237811, 39.208839 ], [ -8.237679, 39.208643 ], [ -8.237292, 39.207591 ], [ -8.236999, 39.207096 ], [ -8.235579, 39.205627 ], [ -8.234118, 39.204157 ], [ -8.229365, 39.199432 ], [ -8.227196, 39.197254 ], [ -8.227055, 39.197091 ], [ -8.226192, 39.19587 ], [ -8.224529, 39.19332 ], [ -8.224458, 39.193136 ], [ -8.224452, 39.193059 ], [ -8.224506, 39.192886 ], [ -8.224582, 39.192782 ], [ -8.225458, 39.19213 ], [ -8.225776, 39.191852 ], [ -8.225933, 39.191693 ], [ -8.226213, 39.191363 ], [ -8.228988, 39.187897 ], [ -8.231166, 39.185303 ], [ -8.233362, 39.182722 ], [ -8.233613, 39.182536 ], [ -8.233856, 39.182384 ], [ -8.234337, 39.182175 ], [ -8.234518, 39.182113 ], [ -8.235003, 39.182006 ], [ -8.235349, 39.181962 ], [ -8.23592, 39.181962 ], [ -8.238578, 39.182026 ], [ -8.239139, 39.182044 ] ] ] } }
]
}
