{
"type": "FeatureCollection",
"name": "tunrs",
"crs": { "type": "name", "properties": { "name": "urn:ogc:def:crs:OGC:1.3:CRS84" } },
"features": [
{ "type": "Feature", "properties": { "Lat": 38.514427, "Lon": -8.864521, "Type": "Turn / Roundabout", "Val": 89, "Max_Height": "N/A", "Google_Map": "https://www.google.com/maps?q=38.514427,-8.864521" }, "geometry": { "type": "Point", "coordinates": [ -8.864521, 38.514427 ] } },
{ "type": "Feature", "properties": { "Lat": 38.514875, "Lon": -8.865859, "Type": "Turn / Roundabout", "Val": 113, "Max_Height": "N/A", "Google_Map": "https://www.google.com/maps?q=38.514875,-8.865859" }, "geometry": { "type": "Point", "coordinates": [ -8.865859, 38.514875 ] } },
{ "type": "Feature", "properties": { "Lat": 38.512926, "Lon": -8.859369, "Type": "Turn / Roundabout", "Val": 19, "Max_Height": "N/A", "Google_Map": "https://www.google.com/maps?q=38.512926,-8.859369" }, "geometry": { "type": "Point", "coordinates": [ -8.859369, 38.512926 ] } },
{ "type": "Feature", "properties": { "Lat": 38.519594, "Lon": -8.877182, "Type": "Turn / Roundabout", "Val": 134, "Max_Height": "N/A", "Google_Map": "https://www.google.com/maps?q=38.519594,-8.877182" }, "geometry": { "type": "Point", "coordinates": [ -8.877182, 38.519594 ] } },
{ "type": "Feature", "properties": { "Lat": 38.52036, "Lon": -8.875139, "Type": "Turn / Roundabout", "Val": 126, "Max_Height": "N/A", "Google_Map": "https://www.google.com/maps?q=38.52036,-8.875139" }, "geometry": { "type": "Point", "coordinates": [ -8.875139, 38.52036 ] } },
{ "type": "Feature", "properties": { "Lat": 38.525213, "Lon": -8.874771, "Type": "Turn / Roundabout", "Val": 130, "Max_Height": "N/A", "Google_Map": "https://www.google.com/maps?q=38.525213,-8.874771" }, "geometry": { "type": "Point", "coordinates": [ -8.874771, 38.525213 ] } },
{ "type": "Feature", "properties": { "Lat": 38.529802, "Lon": -8.87534, "Type": "Turn / Roundabout", "Val": 110, "Max_Height": "N/A", "Google_Map": "https://www.google.com/maps?q=38.529802,-8.87534" }, "geometry": { "type": "Point", "coordinates": [ -8.87534, 38.529802 ] } },
{ "type": "Feature", "properties": { "Lat": 38.531979, "Lon": -8.875145, "Type": "Turn / Roundabout", "Val": 130, "Max_Height": "N/A", "Google_Map": "https://www.google.com/maps?q=38.531979,-8.875145" }, "geometry": { "type": "Point", "coordinates": [ -8.875145, 38.531979 ] } },
{ "type": "Feature", "properties": { "Lat": 38.535739, "Lon": -8.874411, "Type": "Turn / Roundabout", "Val": 130, "Max_Height": "N/A", "Google_Map": "https://www.google.com/maps?q=38.535739,-8.874411" }, "geometry": { "type": "Point", "coordinates": [ -8.874411, 38.535739 ] } },
{ "type": "Feature", "properties": { "Lat": 38.650162, "Lon": -8.219925, "Type": "Turn / Roundabout", "Val": 134, "Max_Height": "N/A", "Google_Map": "https://www.google.com/maps?q=38.650162,-8.219925" }, "geometry": { "type": "Point", "coordinates": [ -8.219925, 38.650162 ] } },
{ "type": "Feature", "properties": { "Lat": 38.648799, "Lon": -8.214241, "Type": "Turn / Roundabout", "Val": 99, "Max_Height": "N/A", "Google_Map": "https://www.google.com/maps?q=38.648799,-8.214241" }, "geometry": { "type": "Point", "coordinates": [ -8.214241, 38.648799 ] } },
{ "type": "Feature", "properties": { "Lat": 38.653929, "Lon": -8.208826, "Type": "Turn / Roundabout", "Val": 130, "Max_Height": "N/A", "Google_Map": "https://www.google.com/maps?q=38.653929,-8.208826" }, "geometry": { "type": "Point", "coordinates": [ -8.208826, 38.653929 ] } },
{ "type": "Feature", "properties": { "Lat": 38.759104, "Lon": -8.19591, "Type": "Turn / Roundabout", "Val": 132, "Max_Height": "N/A", "Google_Map": "https://www.google.com/maps?q=38.759104,-8.19591" }, "geometry": { "type": "Point", "coordinates": [ -8.19591, 38.759104 ] } },
{ "type": "Feature", "properties": { "Lat": 38.856146, "Lon": -8.158592, "Type": "Turn / Roundabout", "Val": 128, "Max_Height": "N/A", "Google_Map": "https://www.google.com/maps?q=38.856146,-8.158592" }, "geometry": { "type": "Point", "coordinates": [ -8.158592, 38.856146 ] } },
{ "type": "Feature", "properties": { "Lat": 38.871065, "Lon": -8.151615, "Type": "Turn / Roundabout", "Val": 129, "Max_Height": "N/A", "Google_Map": "https://www.google.com/maps?q=38.871065,-8.151615" }, "geometry": { "type": "Point", "coordinates": [ -8.151615, 38.871065 ] } },
{ "type": "Feature", "properties": { "Lat": 38.879443, "Lon": -8.17379, "Type": "Turn / Roundabout", "Val": 133, "Max_Height": "N/A", "Google_Map": "https://www.google.com/maps?q=38.879443,-8.17379" }, "geometry": { "type": "Point", "coordinates": [ -8.17379, 38.879443 ] } },
{ "type": "Feature", "properties": { "Lat": 38.93381, "Lon": -8.168586, "Type": "Turn / Roundabout", "Val": 134, "Max_Height": "N/A", "Google_Map": "https://www.google.com/maps?q=38.93381,-8.168586" }, "geometry": { "type": "Point", "coordinates": [ -8.168586, 38.93381 ] } },
{ "type": "Feature", "properties": { "Lat": 38.942178, "Lon": -8.162342, "Type": "Turn / Roundabout", "Val": 118, "Max_Height": "N/A", "Google_Map": "https://www.google.com/maps?q=38.942178,-8.162342" }, "geometry": { "type": "Point", "coordinates": [ -8.162342, 38.942178 ] } },
{ "type": "Feature", "properties": { "Lat": 38.943413, "Lon": -8.156868, "Type": "Turn / Roundabout", "Val": 127, "Max_Height": "N/A", "Google_Map": "https://www.google.com/maps?q=38.943413,-8.156868" }, "geometry": { "type": "Point", "coordinates": [ -8.156868, 38.943413 ] } },
{ "type": "Feature", "properties": { "Lat": 38.945717, "Lon": -8.14727, "Type": "Turn / Roundabout", "Val": 131, "Max_Height": "N/A", "Google_Map": "https://www.google.com/maps?q=38.945717,-8.14727" }, "geometry": { "type": "Point", "coordinates": [ -8.14727, 38.945717 ] } },
{ "type": "Feature", "properties": { "Lat": 38.945741, "Lon": -8.14317, "Type": "Turn / Roundabout", "Val": 134, "Max_Height": "N/A", "Google_Map": "https://www.google.com/maps?q=38.945741,-8.14317" }, "geometry": { "type": "Point", "coordinates": [ -8.14317, 38.945741 ] } },
{ "type": "Feature", "properties": { "Lat": 38.96492, "Lon": -8.134045, "Type": "Turn / Roundabout", "Val": 130, "Max_Height": "N/A", "Google_Map": "https://www.google.com/maps?q=38.96492,-8.134045" }, "geometry": { "type": "Point", "coordinates": [ -8.134045, 38.96492 ] } },
{ "type": "Feature", "properties": { "Lat": 39.088316, "Lon": -8.163771, "Type": "Turn / Roundabout", "Val": 109, "Max_Height": "N/A", "Google_Map": "https://www.google.com/maps?q=39.088316,-8.163771" }, "geometry": { "type": "Point", "coordinates": [ -8.163771, 39.088316 ] } },
{ "type": "Feature", "properties": { "Lat": 39.182283, "Lon": -8.233733, "Type": "Turn / Roundabout", "Val": 44, "Max_Height": "N/A", "Google_Map": "https://www.google.com/maps?q=39.182283,-8.233733" }, "geometry": { "type": "Point", "coordinates": [ -8.233733, 39.182283 ] } },
{ "type": "Feature", "properties": { "Lat": 38.514427, "Lon": -8.864521, "Type": "Turn / Roundabout", "Val": 89, "Max_Height": "N/A", "Google_Map": "https://www.google.com/maps?q=38.514427,-8.864521" }, "geometry": { "type": "Point", "coordinates": [ -8.864521, 38.514427 ] } },
{ "type": "Feature", "properties": { "Lat": 38.514875, "Lon": -8.865859, "Type": "Turn / Roundabout", "Val": 113, "Max_Height": "N/A", "Google_Map": "https://www.google.com/maps?q=38.514875,-8.865859" }, "geometry": { "type": "Point", "coordinates": [ -8.865859, 38.514875 ] } },
{ "type": "Feature", "properties": { "Lat": 38.512926, "Lon": -8.859369, "Type": "Turn / Roundabout", "Val": 19, "Max_Height": "N/A", "Google_Map": "https://www.google.com/maps?q=38.512926,-8.859369" }, "geometry": { "type": "Point", "coordinates": [ -8.859369, 38.512926 ] } },
{ "type": "Feature", "properties": { "Lat": 38.519594, "Lon": -8.877182, "Type": "Turn / Roundabout", "Val": 134, "Max_Height": "N/A", "Google_Map": "https://www.google.com/maps?q=38.519594,-8.877182" }, "geometry": { "type": "Point", "coordinates": [ -8.877182, 38.519594 ] } },
{ "type": "Feature", "properties": { "Lat": 38.52036, "Lon": -8.875139, "Type": "Turn / Roundabout", "Val": 126, "Max_Height": "N/A", "Google_Map": "https://www.google.com/maps?q=38.52036,-8.875139" }, "geometry": { "type": "Point", "coordinates": [ -8.875139, 38.52036 ] } },
{ "type": "Feature", "properties": { "Lat": 38.525213, "Lon": -8.874771, "Type": "Turn / Roundabout", "Val": 130, "Max_Height": "N/A", "Google_Map": "https://www.google.com/maps?q=38.525213,-8.874771" }, "geometry": { "type": "Point", "coordinates": [ -8.874771, 38.525213 ] } },
{ "type": "Feature", "properties": { "Lat": 38.529802, "Lon": -8.87534, "Type": "Turn / Roundabout", "Val": 110, "Max_Height": "N/A", "Google_Map": "https://www.google.com/maps?q=38.529802,-8.87534" }, "geometry": { "type": "Point", "coordinates": [ -8.87534, 38.529802 ] } },
{ "type": "Feature", "properties": { "Lat": 38.531979, "Lon": -8.875145, "Type": "Turn / Roundabout", "Val": 130, "Max_Height": "N/A", "Google_Map": "https://www.google.com/maps?q=38.531979,-8.875145" }, "geometry": { "type": "Point", "coordinates": [ -8.875145, 38.531979 ] } },
{ "type": "Feature", "properties": { "Lat": 38.535739, "Lon": -8.874411, "Type": "Turn / Roundabout", "Val": 130, "Max_Height": "N/A", "Google_Map": "https://www.google.com/maps?q=38.535739,-8.874411" }, "geometry": { "type": "Point", "coordinates": [ -8.874411, 38.535739 ] } },
{ "type": "Feature", "properties": { "Lat": 39.190925, "Lon": -8.647674, "Type": "Turn / Roundabout", "Val": 134, "Max_Height": "N/A", "Google_Map": "https://www.google.com/maps?q=39.190925,-8.647674" }, "geometry": { "type": "Point", "coordinates": [ -8.647674, 39.190925 ] } },
{ "type": "Feature", "properties": { "Lat": 39.204067, "Lon": -8.635375, "Type": "Turn / Roundabout", "Val": 134, "Max_Height": "N/A", "Google_Map": "https://www.google.com/maps?q=39.204067,-8.635375" }, "geometry": { "type": "Point", "coordinates": [ -8.635375, 39.204067 ] } },
{ "type": "Feature", "properties": { "Lat": 39.214572, "Lon": -8.622716, "Type": "Turn / Roundabout", "Val": 119, "Max_Height": "N/A", "Google_Map": "https://www.google.com/maps?q=39.214572,-8.622716" }, "geometry": { "type": "Point", "coordinates": [ -8.622716, 39.214572 ] } },
{ "type": "Feature", "properties": { "Lat": 39.248319, "Lon": -8.589958, "Type": "Turn / Roundabout", "Val": 133, "Max_Height": "N/A", "Google_Map": "https://www.google.com/maps?q=39.248319,-8.589958" }, "geometry": { "type": "Point", "coordinates": [ -8.589958, 39.248319 ] } },
{ "type": "Feature", "properties": { "Lat": 39.273167, "Lon": -8.559956, "Type": "Turn / Roundabout", "Val": 130, "Max_Height": "N/A", "Google_Map": "https://www.google.com/maps?q=39.273167,-8.559956" }, "geometry": { "type": "Point", "coordinates": [ -8.559956, 39.273167 ] } },
{ "type": "Feature", "properties": { "Lat": 39.329992, "Lon": -8.472947, "Type": "Turn / Roundabout", "Val": 122, "Max_Height": "N/A", "Google_Map": "https://www.google.com/maps?q=39.329992,-8.472947" }, "geometry": { "type": "Point", "coordinates": [ -8.472947, 39.329992 ] } },
{ "type": "Feature", "properties": { "Lat": 39.327689, "Lon": -8.470463, "Type": "Turn / Roundabout", "Val": 125, "Max_Height": "N/A", "Google_Map": "https://www.google.com/maps?q=39.327689,-8.470463" }, "geometry": { "type": "Point", "coordinates": [ -8.470463, 39.327689 ] } },
{ "type": "Feature", "properties": { "Lat": 39.323349, "Lon": -8.452215, "Type": "Turn / Roundabout", "Val": 129, "Max_Height": "N/A", "Google_Map": "https://www.google.com/maps?q=39.323349,-8.452215" }, "geometry": { "type": "Point", "coordinates": [ -8.452215, 39.323349 ] } },
{ "type": "Feature", "properties": { "Lat": 39.320645, "Lon": -8.435522, "Type": "Turn / Roundabout", "Val": 129, "Max_Height": "N/A", "Google_Map": "https://www.google.com/maps?q=39.320645,-8.435522" }, "geometry": { "type": "Point", "coordinates": [ -8.435522, 39.320645 ] } },
{ "type": "Feature", "properties": { "Lat": 39.320565, "Lon": -8.430248, "Type": "Turn / Roundabout", "Val": 130, "Max_Height": "N/A", "Google_Map": "https://www.google.com/maps?q=39.320565,-8.430248" }, "geometry": { "type": "Point", "coordinates": [ -8.430248, 39.320565 ] } },
{ "type": "Feature", "properties": { "Lat": 39.315545, "Lon": -8.429331, "Type": "Turn / Roundabout", "Val": 133, "Max_Height": "N/A", "Google_Map": "https://www.google.com/maps?q=39.315545,-8.429331" }, "geometry": { "type": "Point", "coordinates": [ -8.429331, 39.315545 ] } },
{ "type": "Feature", "properties": { "Lat": 39.311779, "Lon": -8.421972, "Type": "Turn / Roundabout", "Val": 128, "Max_Height": "N/A", "Google_Map": "https://www.google.com/maps?q=39.311779,-8.421972" }, "geometry": { "type": "Point", "coordinates": [ -8.421972, 39.311779 ] } },
{ "type": "Feature", "properties": { "Lat": 39.284998, "Lon": -8.388936, "Type": "Turn / Roundabout", "Val": 126, "Max_Height": "N/A", "Google_Map": "https://www.google.com/maps?q=39.284998,-8.388936" }, "geometry": { "type": "Point", "coordinates": [ -8.388936, 39.284998 ] } },
{ "type": "Feature", "properties": { "Lat": 39.286369, "Lon": -8.385264, "Type": "Turn / Roundabout", "Val": 130, "Max_Height": "N/A", "Google_Map": "https://www.google.com/maps?q=39.286369,-8.385264" }, "geometry": { "type": "Point", "coordinates": [ -8.385264, 39.286369 ] } },
{ "type": "Feature", "properties": { "Lat": 39.281003, "Lon": -8.380447, "Type": "Turn / Roundabout", "Val": 129, "Max_Height": "N/A", "Google_Map": "https://www.google.com/maps?q=39.281003,-8.380447" }, "geometry": { "type": "Point", "coordinates": [ -8.380447, 39.281003 ] } },
{ "type": "Feature", "properties": { "Lat": 39.271124, "Lon": -8.358615, "Type": "Turn / Roundabout", "Val": 133, "Max_Height": "N/A", "Google_Map": "https://www.google.com/maps?q=39.271124,-8.358615" }, "geometry": { "type": "Point", "coordinates": [ -8.358615, 39.271124 ] } },
{ "type": "Feature", "properties": { "Lat": 39.269826, "Lon": -8.354986, "Type": "Turn / Roundabout", "Val": 131, "Max_Height": "N/A", "Google_Map": "https://www.google.com/maps?q=39.269826,-8.354986" }, "geometry": { "type": "Point", "coordinates": [ -8.354986, 39.269826 ] } },
{ "type": "Feature", "properties": { "Lat": 39.270461, "Lon": -8.35049, "Type": "Turn / Roundabout", "Val": 129, "Max_Height": "N/A", "Google_Map": "https://www.google.com/maps?q=39.270461,-8.35049" }, "geometry": { "type": "Point", "coordinates": [ -8.35049, 39.270461 ] } },
{ "type": "Feature", "properties": { "Lat": 39.247696, "Lon": -8.313964, "Type": "Turn / Roundabout", "Val": 126, "Max_Height": "N/A", "Google_Map": "https://www.google.com/maps?q=39.247696,-8.313964" }, "geometry": { "type": "Point", "coordinates": [ -8.313964, 39.247696 ] } },
{ "type": "Feature", "properties": { "Lat": 39.221281, "Lon": -8.257035, "Type": "Turn / Roundabout", "Val": 134, "Max_Height": "N/A", "Google_Map": "https://www.google.com/maps?q=39.221281,-8.257035" }, "geometry": { "type": "Point", "coordinates": [ -8.257035, 39.221281 ] } },
{ "type": "Feature", "properties": { "Lat": 39.220601, "Lon": -8.257153, "Type": "Turn / Roundabout", "Val": 133, "Max_Height": "N/A", "Google_Map": "https://www.google.com/maps?q=39.220601,-8.257153" }, "geometry": { "type": "Point", "coordinates": [ -8.257153, 39.220601 ] } },
{ "type": "Feature", "properties": { "Lat": 39.193136, "Lon": -8.224458, "Type": "Turn / Roundabout", "Val": 116, "Max_Height": "N/A", "Google_Map": "https://www.google.com/maps?q=39.193136,-8.224458" }, "geometry": { "type": "Point", "coordinates": [ -8.224458, 39.193136 ] } }
]
}
