{
"type": "FeatureCollection",
"name": "underppass",
"crs": { "type": "name", "properties": { "name": "urn:ogc:def:crs:OGC:1.3:CRS84" } },
"features": [
{ "type": "Feature", "properties": { "Route": "Route_Opt_2", "Lat": 38.583508710757016, "Lon": -8.85386158341284, "Angle": 22, "Max_Height": "Unknown", "Google_Map": "https://www.google.com/maps?q=38.583508710757016,-8.85386158341284", "Type": "Underpass" }, "geometry": { "type": "Point", "coordinates": [ -8.85386158341284, 38.583508710757016 ] } },
{ "type": "Feature", "properties": { "Route": "Route_Opt_2", "Lat": 38.645883306130813, "Lon": -8.4322016839810612, "Angle": 86, "Max_Height": "Unknown", "Google_Map": "https://www.google.com/maps?q=38.64588330613081,-8.432201683981061", "Type": "Underpass" }, "geometry": { "type": "Point", "coordinates": [ -8.432201683981061, 38.645883306130813 ] } },
{ "type": "Feature", "properties": { "Route": "Route_Opt_2", "Lat": 38.647959774309918, "Lon": -8.2570346950123668, "Angle": 41, "Max_Height": "Unknown", "Google_Map": "https://www.google.com/maps?q=38.64795977430992,-8.257034695012365", "Type": "Underpass" }, "geometry": { "type": "Point", "coordinates": [ -8.257034695012365, 38.647959774309918 ] } },
{ "type": "Feature", "properties": { "Route": "Route_Opt_2", "Lat": 38.601876263060603, "Lon": -8.6626030008360626, "Angle": 34, "Max_Height": "Unknown", "Google_Map": "https://www.google.com/maps?q=38.6018762630606,-8.66260300083606", "Type": "Underpass" }, "geometry": { "type": "Point", "coordinates": [ -8.662603000836061, 38.601876263060603 ] } },
{ "type": "Feature", "properties": { "Route": "Route_Opt_2", "Lat": 38.5964677, "Lon": -8.70196405, "Angle": 58, "Max_Height": "Unknown", "Google_Map": "https://www.google.com/maps?q=38.596467700000005,-8.70196405", "Type": "Underpass" }, "geometry": { "type": "Point", "coordinates": [ -8.70196405, 38.5964677 ] } },
{ "type": "Feature", "properties": { "Route": "Route_Opt_2", "Lat": 38.646528017355038, "Lon": -8.3957559622476463, "Angle": 49, "Max_Height": "Unknown", "Google_Map": "https://www.google.com/maps?q=38.64652801735504,-8.395755962247646", "Type": "Underpass" }, "geometry": { "type": "Point", "coordinates": [ -8.395755962247646, 38.646528017355038 ] } },
{ "type": "Feature", "properties": { "Route": "Route_Opt_2", "Lat": 38.587074061359743, "Lon": -8.8357469947975087, "Angle": 52, "Max_Height": "Unknown", "Google_Map": "https://www.google.com/maps?q=38.58707406135974,-8.835746994797507", "Type": "Underpass" }, "geometry": { "type": "Point", "coordinates": [ -8.835746994797507, 38.587074061359743 ] } },
{ "type": "Feature", "properties": { "Route": "Route_Opt_2", "Lat": 38.586518601701094, "Lon": -8.7734172385990608, "Angle": 89, "Max_Height": "Unknown", "Google_Map": "https://www.google.com/maps?q=38.586518601701094,-8.773417238599059", "Type": "Underpass" }, "geometry": { "type": "Point", "coordinates": [ -8.773417238599059, 38.586518601701094 ] } },
{ "type": "Feature", "properties": { "Route": "Route_Opt_2", "Lat": 38.552596870851353, "Lon": -8.8708041050942334, "Angle": 66, "Max_Height": "Unknown", "Google_Map": "https://www.google.com/maps?q=38.55259687085135,-8.870804105094233", "Type": "Underpass" }, "geometry": { "type": "Point", "coordinates": [ -8.870804105094233, 38.552596870851353 ] } },
{ "type": "Feature", "properties": { "Route": "Route_Opt_2", "Lat": 38.521171279844559, "Lon": -8.8749763246258606, "Angle": 88, "Max_Height": "Unknown", "Google_Map": "https://www.google.com/maps?q=38.52117127984456,-8.874976324625859", "Type": "Underpass" }, "geometry": { "type": "Point", "coordinates": [ -8.874976324625859, 38.521171279844559 ] } },
{ "type": "Feature", "properties": { "Route": "Route_Opt_2", "Lat": 38.56391354250988, "Lon": -8.8670678287404598, "Angle": 87, "Max_Height": "Unknown", "Google_Map": "https://www.google.com/maps?q=38.56391354250988,-8.86706782874046", "Type": "Underpass" }, "geometry": { "type": "Point", "coordinates": [ -8.86706782874046, 38.56391354250988 ] } },
{ "type": "Feature", "properties": { "Route": "Route_Opt_2", "Lat": 38.600275535082403, "Lon": -8.6849141565137717, "Angle": 89, "Max_Height": "Unknown", "Google_Map": "https://www.google.com/maps?q=38.6002755350824,-8.684914156513772", "Type": "Underpass" }, "geometry": { "type": "Point", "coordinates": [ -8.684914156513772, 38.600275535082403 ] } },
{ "type": "Feature", "properties": { "Route": "Route_Opt_2", "Lat": 38.598765171160792, "Lon": -8.6920139309511466, "Angle": 77, "Max_Height": "Unknown", "Google_Map": "https://www.google.com/maps?q=38.59876517116079,-8.692013930951145", "Type": "Underpass" }, "geometry": { "type": "Point", "coordinates": [ -8.692013930951145, 38.598765171160792 ] } },
{ "type": "Feature", "properties": { "Route": "Route_Opt_2", "Lat": 38.597677158698765, "Lon": -8.695674765125986, "Angle": 85, "Max_Height": "Unknown", "Google_Map": "https://www.google.com/maps?q=38.597677158698765,-8.695674765125986", "Type": "Underpass" }, "geometry": { "type": "Point", "coordinates": [ -8.695674765125986, 38.597677158698765 ] } },
{ "type": "Feature", "properties": { "Route": "Route_Opt_2", "Lat": 38.586132532373597, "Lon": -8.7839899108834771, "Angle": 87, "Max_Height": "Unknown", "Google_Map": "https://www.google.com/maps?q=38.5861325323736,-8.783989910883477", "Type": "Underpass" }, "geometry": { "type": "Point", "coordinates": [ -8.783989910883477, 38.586132532373597 ] } },
{ "type": "Feature", "properties": { "Route": "Route_Opt_2", "Lat": 38.584780139846004, "Lon": -8.8470810226387684, "Angle": 56, "Max_Height": "Unknown", "Google_Map": "https://www.google.com/maps?q=38.584780139846,-8.847081022638767", "Type": "Underpass" }, "geometry": { "type": "Point", "coordinates": [ -8.847081022638767, 38.584780139846004 ] } },
{ "type": "Feature", "properties": { "Route": "Route_Opt_2", "Lat": 38.584341088372696, "Lon": -8.8085562584755763, "Angle": 69, "Max_Height": "Unknown", "Google_Map": "https://www.google.com/maps?q=38.584341088372696,-8.808556258475576", "Type": "Underpass" }, "geometry": { "type": "Point", "coordinates": [ -8.808556258475576, 38.584341088372696 ] } },
{ "type": "Feature", "properties": { "Route": "Route_Opt_2", "Lat": 38.583217676454041, "Lon": -8.8551778064232671, "Angle": 77, "Max_Height": "Unknown", "Google_Map": "https://www.google.com/maps?q=38.58321767645404,-8.855177806423267", "Type": "Underpass" }, "geometry": { "type": "Point", "coordinates": [ -8.855177806423267, 38.583217676454041 ] } },
{ "type": "Feature", "properties": { "Route": "Route_Opt_2", "Lat": 38.573796667428823, "Lon": -8.8667321966795178, "Angle": 87, "Max_Height": "Unknown", "Google_Map": "https://www.google.com/maps?q=38.57379666742882,-8.866732196679518", "Type": "Underpass" }, "geometry": { "type": "Point", "coordinates": [ -8.866732196679518, 38.573796667428823 ] } },
{ "type": "Feature", "properties": { "Route": "Route_Opt_2", "Lat": 38.585760296462659, "Lon": -8.8430453699326588, "Angle": 70, "Max_Height": "Unknown", "Google_Map": "https://www.google.com/maps?q=38.58576029646266,-8.843045369932657", "Type": "Underpass" }, "geometry": { "type": "Point", "coordinates": [ -8.843045369932657, 38.585760296462659 ] } },
{ "type": "Feature", "properties": { "Route": "Route_Opt_2", "Lat": 38.582916522063094, "Lon": -8.7994440239030034, "Angle": 70, "Max_Height": "Unknown", "Google_Map": "https://www.google.com/maps?q=38.582916522063094,-8.799444023903003", "Type": "Underpass" }, "geometry": { "type": "Point", "coordinates": [ -8.799444023903003, 38.582916522063094 ] } },
{ "type": "Feature", "properties": { "Route": "Route_Opt_2", "Lat": 38.583758880036811, "Lon": -8.7914775158678342, "Angle": 71, "Max_Height": "Unknown", "Google_Map": "https://www.google.com/maps?q=38.58375888003681,-8.791477515867834", "Type": "Underpass" }, "geometry": { "type": "Point", "coordinates": [ -8.791477515867834, 38.583758880036811 ] } },
{ "type": "Feature", "properties": { "Route": "Route_Opt_2", "Lat": 38.588453506442796, "Lon": -8.7672875485303798, "Angle": 74, "Max_Height": "Unknown", "Google_Map": "https://www.google.com/maps?q=38.588453506442804,-8.76728754853038", "Type": "Underpass" }, "geometry": { "type": "Point", "coordinates": [ -8.76728754853038, 38.588453506442804 ] } },
{ "type": "Feature", "properties": { "Route": "Route_Opt_2", "Lat": 38.612708794969251, "Lon": -8.61850054943271, "Angle": 82, "Max_Height": "Unknown", "Google_Map": "https://www.google.com/maps?q=38.61270879496925,-8.61850054943271", "Type": "Underpass" }, "geometry": { "type": "Point", "coordinates": [ -8.61850054943271, 38.612708794969251 ] } },
{ "type": "Feature", "properties": { "Route": "Route_Opt_2", "Lat": 38.614080416104272, "Lon": -8.6117939880135204, "Angle": 40, "Max_Height": "Unknown", "Google_Map": "https://www.google.com/maps?q=38.61408041610427,-8.61179398801352", "Type": "Underpass" }, "geometry": { "type": "Point", "coordinates": [ -8.61179398801352, 38.614080416104272 ] } },
{ "type": "Feature", "properties": { "Route": "Route_Opt_2", "Lat": 38.514106541607362, "Lon": -8.8646141487942227, "Angle": 88, "Max_Height": "Unknown", "Google_Map": "https://www.google.com/maps?q=38.51410654160736,-8.864614148794221", "Type": "Underpass" }, "geometry": { "type": "Point", "coordinates": [ -8.864614148794221, 38.514106541607362 ] } },
{ "type": "Feature", "properties": { "Route": "Route_Opt_2", "Lat": 38.664816347212003, "Lon": -8.2356115451856446, "Angle": 76, "Max_Height": "Unknown", "Google_Map": "https://www.google.com/maps?q=38.664816347211996,-8.235611545185643", "Type": "Underpass" }, "geometry": { "type": "Point", "coordinates": [ -8.235611545185643, 38.664816347211996 ] } },
{ "type": "Feature", "properties": { "Route": "Route_Opt_2", "Lat": 38.5149945, "Lon": -8.86626285, "Angle": 89, "Max_Height": "Unknown", "Google_Map": "https://www.google.com/maps?q=38.5149945,-8.86626285", "Type": "Underpass" }, "geometry": { "type": "Point", "coordinates": [ -8.86626285, 38.5149945 ] } },
{ "type": "Feature", "properties": { "Route": "Route_Opt_2", "Lat": 38.634011903562978, "Lon": -8.5221938000455726, "Angle": 34, "Max_Height": "Unknown", "Google_Map": "https://www.google.com/maps?q=38.63401190356298,-8.52219380004557", "Type": "Underpass" }, "geometry": { "type": "Point", "coordinates": [ -8.522193800045571, 38.634011903562978 ] } },
{ "type": "Feature", "properties": { "Route": "Route_Opt_2", "Lat": 38.637186815930562, "Lon": -8.5064964758140427, "Angle": 83, "Max_Height": "Unknown", "Google_Map": "https://www.google.com/maps?q=38.63718681593056,-8.506496475814041", "Type": "Underpass" }, "geometry": { "type": "Point", "coordinates": [ -8.506496475814041, 38.637186815930562 ] } },
{ "type": "Feature", "properties": { "Route": "Route_Opt_2", "Lat": 38.63935132433835, "Lon": -8.4917351884058565, "Angle": 88, "Max_Height": "Unknown", "Google_Map": "https://www.google.com/maps?q=38.63935132433835,-8.491735188405855", "Type": "Underpass" }, "geometry": { "type": "Point", "coordinates": [ -8.491735188405855, 38.63935132433835 ] } },
{ "type": "Feature", "properties": { "Route": "Route_Opt_2", "Lat": 38.616072124358851, "Lon": -8.6022372942701608, "Angle": 82, "Max_Height": "Unknown", "Google_Map": "https://www.google.com/maps?q=38.61607212435885,-8.602237294270159", "Type": "Underpass" }, "geometry": { "type": "Point", "coordinates": [ -8.602237294270159, 38.616072124358851 ] } },
{ "type": "Feature", "properties": { "Route": "Route_Opt_2", "Lat": 38.635542605344995, "Lon": -8.5130796363751688, "Angle": 81, "Max_Height": "Unknown", "Google_Map": "https://www.google.com/maps?q=38.635542605344995,-8.513079636375167", "Type": "Underpass" }, "geometry": { "type": "Point", "coordinates": [ -8.513079636375167, 38.635542605344995 ] } },
{ "type": "Feature", "properties": { "Route": "Route_Opt_2", "Lat": 38.593207519141565, "Lon": -8.7524329791789661, "Angle": 89, "Max_Height": "Unknown", "Google_Map": "https://www.google.com/maps?q=38.59320751914157,-8.752432979178966", "Type": "Underpass" }, "geometry": { "type": "Point", "coordinates": [ -8.752432979178966, 38.593207519141572 ] } },
{ "type": "Feature", "properties": { "Route": "Route_Opt_2", "Lat": 38.590540524534745, "Lon": -8.7619383393331063, "Angle": 82, "Max_Height": "Unknown", "Google_Map": "https://www.google.com/maps?q=38.590540524534745,-8.761938339333105", "Type": "Underpass" }, "geometry": { "type": "Point", "coordinates": [ -8.761938339333105, 38.590540524534745 ] } },
{ "type": "Feature", "properties": { "Route": "Route_Opt_2", "Lat": 38.595685842600702, "Lon": -8.7467868308458598, "Angle": 82, "Max_Height": "Unknown", "Google_Map": "https://www.google.com/maps?q=38.5956858426007,-8.74678683084586", "Type": "Underpass" }, "geometry": { "type": "Point", "coordinates": [ -8.74678683084586, 38.595685842600702 ] } },
{ "type": "Feature", "properties": { "Route": "Route_Opt_2", "Lat": 38.596972067725993, "Lon": -8.7161056950488156, "Angle": 62, "Max_Height": "Unknown", "Google_Map": "https://www.google.com/maps?q=38.59697206772599,-8.716105695048816", "Type": "Underpass" }, "geometry": { "type": "Point", "coordinates": [ -8.716105695048816, 38.596972067725993 ] } },
{ "type": "Feature", "properties": { "Route": "Route_Opt_2", "Lat": 38.650610603850673, "Lon": -8.2526080109952407, "Angle": 56, "Max_Height": "Unknown", "Google_Map": "https://www.google.com/maps?q=38.65061060385067,-8.252608010995239", "Type": "Underpass" }, "geometry": { "type": "Point", "coordinates": [ -8.252608010995239, 38.650610603850673 ] } },
{ "type": "Feature", "properties": { "Route": "Route_Opt_2", "Lat": 38.602845975267257, "Lon": -8.6473676118083649, "Angle": 54, "Max_Height": "Unknown", "Google_Map": "https://www.google.com/maps?q=38.60284597526726,-8.647367611808363", "Type": "Underpass" }, "geometry": { "type": "Point", "coordinates": [ -8.647367611808363, 38.602845975267257 ] } },
{ "type": "Feature", "properties": { "Route": "Route_Opt_2", "Lat": 38.639071667480501, "Lon": -8.2802667396585896, "Angle": 77, "Max_Height": "Unknown", "Google_Map": "https://www.google.com/maps?q=38.63907166748051,-8.28026673965859", "Type": "Underpass" }, "geometry": { "type": "Point", "coordinates": [ -8.28026673965859, 38.639071667480508 ] } },
{ "type": "Feature", "properties": { "Route": "Route_Opt_2", "Lat": 38.556298804538287, "Lon": -8.8696182946974211, "Angle": 55, "Max_Height": "Unknown", "Google_Map": "https://www.google.com/maps?q=38.55629880453829,-8.869618294697421", "Type": "Underpass" }, "geometry": { "type": "Point", "coordinates": [ -8.869618294697421, 38.556298804538287 ] } },
{ "type": "Feature", "properties": { "Route": "Route_Opt_1", "Lat": 38.583508710757016, "Lon": -8.85386158341284, "Angle": 22, "Max_Height": "Unknown", "Google_Map": "https://www.google.com/maps?q=38.583508710757016,-8.85386158341284", "Type": "Underpass" }, "geometry": { "type": "Point", "coordinates": [ -8.85386158341284, 38.583508710757016 ] } },
{ "type": "Feature", "properties": { "Route": "Route_Opt_1", "Lat": 39.09848317751667, "Lon": -8.6619321269867164, "Angle": 60, "Max_Height": "Unknown", "Google_Map": "https://www.google.com/maps?q=39.09848317751667,-8.661932126986716", "Type": "Underpass" }, "geometry": { "type": "Point", "coordinates": [ -8.661932126986716, 39.09848317751667 ] } },
{ "type": "Feature", "properties": { "Route": "Route_Opt_1", "Lat": 39.115691552925959, "Lon": -8.6285383051367646, "Angle": 25, "Max_Height": "Unknown", "Google_Map": "https://www.google.com/maps?q=39.11569155292596,-8.628538305136763", "Type": "Underpass" }, "geometry": { "type": "Point", "coordinates": [ -8.628538305136763, 39.115691552925959 ] } },
{ "type": "Feature", "properties": { "Route": "Route_Opt_1", "Lat": 38.601876263060603, "Lon": -8.6626030008360626, "Angle": 34, "Max_Height": "Unknown", "Google_Map": "https://www.google.com/maps?q=38.6018762630606,-8.66260300083606", "Type": "Underpass" }, "geometry": { "type": "Point", "coordinates": [ -8.662603000836061, 38.601876263060603 ] } },
{ "type": "Feature", "properties": { "Route": "Route_Opt_1", "Lat": 38.620483438184678, "Lon": -8.6545658870130282, "Angle": 58, "Max_Height": "Unknown", "Google_Map": "https://www.google.com/maps?q=38.62048343818468,-8.654565887013028", "Type": "Underpass" }, "geometry": { "type": "Point", "coordinates": [ -8.654565887013028, 38.620483438184678 ] } },
{ "type": "Feature", "properties": { "Route": "Route_Opt_1", "Lat": 38.5964677, "Lon": -8.70196405, "Angle": 58, "Max_Height": "Unknown", "Google_Map": "https://www.google.com/maps?q=38.596467700000005,-8.70196405", "Type": "Underpass" }, "geometry": { "type": "Point", "coordinates": [ -8.70196405, 38.5964677 ] } },
{ "type": "Feature", "properties": { "Route": "Route_Opt_1", "Lat": 38.687868506881792, "Lon": -8.6386549913707604, "Angle": 83, "Max_Height": "Unknown", "Google_Map": "https://www.google.com/maps?q=38.68786850688179,-8.638654991370759", "Type": "Underpass" }, "geometry": { "type": "Point", "coordinates": [ -8.638654991370759, 38.687868506881792 ] } },
{ "type": "Feature", "properties": { "Route": "Route_Opt_1", "Lat": 38.902602396073853, "Lon": -8.7824511069132321, "Angle": 32, "Max_Height": "Unknown", "Google_Map": "https://www.google.com/maps?q=38.90260239607386,-8.782451106913232", "Type": "Underpass" }, "geometry": { "type": "Point", "coordinates": [ -8.782451106913232, 38.90260239607386 ] } },
{ "type": "Feature", "properties": { "Route": "Route_Opt_1", "Lat": 38.906739588647305, "Lon": -8.7784498434549665, "Angle": 26, "Max_Height": "Unknown", "Google_Map": "https://www.google.com/maps?q=38.906739588647305,-8.778449843454966", "Type": "Underpass" }, "geometry": { "type": "Point", "coordinates": [ -8.778449843454966, 38.906739588647305 ] } },
{ "type": "Feature", "properties": { "Route": "Route_Opt_1", "Lat": 38.946112710529071, "Lon": -8.7393023456305237, "Angle": 89, "Max_Height": "Unknown", "Google_Map": "https://www.google.com/maps?q=38.94611271052907,-8.739302345630524", "Type": "Underpass" }, "geometry": { "type": "Point", "coordinates": [ -8.739302345630524, 38.946112710529071 ] } },
{ "type": "Feature", "properties": { "Route": "Route_Opt_1", "Lat": 38.68526488127479, "Lon": -8.6390929708265993, "Angle": 86, "Max_Height": "Unknown", "Google_Map": "https://www.google.com/maps?q=38.68526488127479,-8.6390929708266", "Type": "Underpass" }, "geometry": { "type": "Point", "coordinates": [ -8.639092970826599, 38.68526488127479 ] } },
{ "type": "Feature", "properties": { "Route": "Route_Opt_1", "Lat": 39.176848352635027, "Lon": -8.6273645827358205, "Angle": 63, "Max_Height": "Unknown", "Google_Map": "https://www.google.com/maps?q=39.17684835263503,-8.627364582735819", "Type": "Underpass" }, "geometry": { "type": "Point", "coordinates": [ -8.627364582735819, 39.176848352635027 ] } },
{ "type": "Feature", "properties": { "Route": "Route_Opt_1", "Lat": 38.712423139056625, "Lon": -8.6494411711952921, "Angle": 75, "Max_Height": "Unknown", "Google_Map": "https://www.google.com/maps?q=38.712423139056625,-8.649441171195292", "Type": "Underpass" }, "geometry": { "type": "Point", "coordinates": [ -8.649441171195292, 38.712423139056625 ] } },
{ "type": "Feature", "properties": { "Route": "Route_Opt_1", "Lat": 38.706830914943353, "Lon": -8.6441684290225158, "Angle": 88, "Max_Height": "Unknown", "Google_Map": "https://www.google.com/maps?q=38.70683091494335,-8.644168429022516", "Type": "Underpass" }, "geometry": { "type": "Point", "coordinates": [ -8.644168429022516, 38.706830914943353 ] } },
{ "type": "Feature", "properties": { "Route": "Route_Opt_1", "Lat": 39.026119482779663, "Lon": -8.6859974819024863, "Angle": 89, "Max_Height": "Unknown", "Google_Map": "https://www.google.com/maps?q=39.02611948277966,-8.685997481902485", "Type": "Underpass" }, "geometry": { "type": "Point", "coordinates": [ -8.685997481902485, 39.026119482779663 ] } },
{ "type": "Feature", "properties": { "Route": "Route_Opt_1", "Lat": 38.717735095812017, "Lon": -8.6575481624107393, "Angle": 78, "Max_Height": "Unknown", "Google_Map": "https://www.google.com/maps?q=38.71773509581202,-8.65754816241074", "Type": "Underpass" }, "geometry": { "type": "Point", "coordinates": [ -8.657548162410739, 38.717735095812017 ] } },
{ "type": "Feature", "properties": { "Route": "Route_Opt_1", "Lat": 38.744214190123024, "Lon": -8.6821139555636648, "Angle": 85, "Max_Height": "Unknown", "Google_Map": "https://www.google.com/maps?q=38.744214190123024,-8.682113955563663", "Type": "Underpass" }, "geometry": { "type": "Point", "coordinates": [ -8.682113955563663, 38.744214190123024 ] } },
{ "type": "Feature", "properties": { "Route": "Route_Opt_1", "Lat": 39.171988163751102, "Lon": -8.6266506787203419, "Angle": 86, "Max_Height": "Unknown", "Google_Map": "https://www.google.com/maps?q=39.1719881637511,-8.626650678720342", "Type": "Underpass" }, "geometry": { "type": "Point", "coordinates": [ -8.626650678720342, 39.171988163751102 ] } },
{ "type": "Feature", "properties": { "Route": "Route_Opt_1", "Lat": 38.992240945055713, "Lon": -8.7148881962976752, "Angle": 73, "Max_Height": "Unknown", "Google_Map": "https://www.google.com/maps?q=38.99224094505571,-8.714888196297675", "Type": "Underpass" }, "geometry": { "type": "Point", "coordinates": [ -8.714888196297675, 38.992240945055713 ] } },
{ "type": "Feature", "properties": { "Route": "Route_Opt_1", "Lat": 38.587074061359743, "Lon": -8.8357469947975087, "Angle": 52, "Max_Height": "Unknown", "Google_Map": "https://www.google.com/maps?q=38.58707406135974,-8.835746994797507", "Type": "Underpass" }, "geometry": { "type": "Point", "coordinates": [ -8.835746994797507, 38.587074061359743 ] } },
{ "type": "Feature", "properties": { "Route": "Route_Opt_1", "Lat": 38.586518601701094, "Lon": -8.7734172385990608, "Angle": 89, "Max_Height": "Unknown", "Google_Map": "https://www.google.com/maps?q=38.586518601701094,-8.773417238599059", "Type": "Underpass" }, "geometry": { "type": "Point", "coordinates": [ -8.773417238599059, 38.586518601701094 ] } },
{ "type": "Feature", "properties": { "Route": "Route_Opt_1", "Lat": 38.552596870851353, "Lon": -8.8708041050942334, "Angle": 66, "Max_Height": "Unknown", "Google_Map": "https://www.google.com/maps?q=38.55259687085135,-8.870804105094233", "Type": "Underpass" }, "geometry": { "type": "Point", "coordinates": [ -8.870804105094233, 38.552596870851353 ] } },
{ "type": "Feature", "properties": { "Route": "Route_Opt_1", "Lat": 38.521171279844559, "Lon": -8.8749763246258606, "Angle": 88, "Max_Height": "Unknown", "Google_Map": "https://www.google.com/maps?q=38.52117127984456,-8.874976324625859", "Type": "Underpass" }, "geometry": { "type": "Point", "coordinates": [ -8.874976324625859, 38.521171279844559 ] } },
{ "type": "Feature", "properties": { "Route": "Route_Opt_1", "Lat": 38.56391354250988, "Lon": -8.8670678287404598, "Angle": 87, "Max_Height": "Unknown", "Google_Map": "https://www.google.com/maps?q=38.56391354250988,-8.86706782874046", "Type": "Underpass" }, "geometry": { "type": "Point", "coordinates": [ -8.86706782874046, 38.56391354250988 ] } },
{ "type": "Feature", "properties": { "Route": "Route_Opt_1", "Lat": 38.600275535082403, "Lon": -8.6849141565137717, "Angle": 89, "Max_Height": "Unknown", "Google_Map": "https://www.google.com/maps?q=38.6002755350824,-8.684914156513772", "Type": "Underpass" }, "geometry": { "type": "Point", "coordinates": [ -8.684914156513772, 38.600275535082403 ] } },
{ "type": "Feature", "properties": { "Route": "Route_Opt_1", "Lat": 38.631801094621125, "Lon": -8.6609122294074457, "Angle": 79, "Max_Height": "Unknown", "Google_Map": "https://www.google.com/maps?q=38.631801094621125,-8.660912229407446", "Type": "Underpass" }, "geometry": { "type": "Point", "coordinates": [ -8.660912229407446, 38.631801094621125 ] } },
{ "type": "Feature", "properties": { "Route": "Route_Opt_1", "Lat": 38.598765171160792, "Lon": -8.6920139309511466, "Angle": 77, "Max_Height": "Unknown", "Google_Map": "https://www.google.com/maps?q=38.59876517116079,-8.692013930951145", "Type": "Underpass" }, "geometry": { "type": "Point", "coordinates": [ -8.692013930951145, 38.598765171160792 ] } },
{ "type": "Feature", "properties": { "Route": "Route_Opt_1", "Lat": 38.665032994474807, "Lon": -8.6539887948171472, "Angle": 74, "Max_Height": "Unknown", "Google_Map": "https://www.google.com/maps?q=38.66503299447481,-8.653988794817147", "Type": "Underpass" }, "geometry": { "type": "Point", "coordinates": [ -8.653988794817147, 38.665032994474807 ] } },
{ "type": "Feature", "properties": { "Route": "Route_Opt_1", "Lat": 38.658026245629046, "Lon": -8.6617322921626219, "Angle": 77, "Max_Height": "Unknown", "Google_Map": "https://www.google.com/maps?q=38.658026245629046,-8.661732292162622", "Type": "Underpass" }, "geometry": { "type": "Point", "coordinates": [ -8.661732292162622, 38.658026245629046 ] } },
{ "type": "Feature", "properties": { "Route": "Route_Opt_1", "Lat": 38.597677158698765, "Lon": -8.695674765125986, "Angle": 85, "Max_Height": "Unknown", "Google_Map": "https://www.google.com/maps?q=38.597677158698765,-8.695674765125986", "Type": "Underpass" }, "geometry": { "type": "Point", "coordinates": [ -8.695674765125986, 38.597677158698765 ] } },
{ "type": "Feature", "properties": { "Route": "Route_Opt_1", "Lat": 38.586132532373597, "Lon": -8.7839899108834771, "Angle": 87, "Max_Height": "Unknown", "Google_Map": "https://www.google.com/maps?q=38.5861325323736,-8.783989910883477", "Type": "Underpass" }, "geometry": { "type": "Point", "coordinates": [ -8.783989910883477, 38.586132532373597 ] } },
{ "type": "Feature", "properties": { "Route": "Route_Opt_1", "Lat": 38.584780139846004, "Lon": -8.8470810226387684, "Angle": 56, "Max_Height": "Unknown", "Google_Map": "https://www.google.com/maps?q=38.584780139846,-8.847081022638767", "Type": "Underpass" }, "geometry": { "type": "Point", "coordinates": [ -8.847081022638767, 38.584780139846004 ] } },
{ "type": "Feature", "properties": { "Route": "Route_Opt_1", "Lat": 38.584341088372696, "Lon": -8.8085562584755763, "Angle": 69, "Max_Height": "Unknown", "Google_Map": "https://www.google.com/maps?q=38.584341088372696,-8.808556258475576", "Type": "Underpass" }, "geometry": { "type": "Point", "coordinates": [ -8.808556258475576, 38.584341088372696 ] } },
{ "type": "Feature", "properties": { "Route": "Route_Opt_1", "Lat": 38.583217676454041, "Lon": -8.8551778064232671, "Angle": 77, "Max_Height": "Unknown", "Google_Map": "https://www.google.com/maps?q=38.58321767645404,-8.855177806423267", "Type": "Underpass" }, "geometry": { "type": "Point", "coordinates": [ -8.855177806423267, 38.583217676454041 ] } },
{ "type": "Feature", "properties": { "Route": "Route_Opt_1", "Lat": 38.573796667428823, "Lon": -8.8667321966795178, "Angle": 87, "Max_Height": "Unknown", "Google_Map": "https://www.google.com/maps?q=38.57379666742882,-8.866732196679518", "Type": "Underpass" }, "geometry": { "type": "Point", "coordinates": [ -8.866732196679518, 38.573796667428823 ] } },
{ "type": "Feature", "properties": { "Route": "Route_Opt_1", "Lat": 38.585760296462659, "Lon": -8.8430453699326588, "Angle": 70, "Max_Height": "Unknown", "Google_Map": "https://www.google.com/maps?q=38.58576029646266,-8.843045369932657", "Type": "Underpass" }, "geometry": { "type": "Point", "coordinates": [ -8.843045369932657, 38.585760296462659 ] } },
{ "type": "Feature", "properties": { "Route": "Route_Opt_1", "Lat": 38.582916522063094, "Lon": -8.7994440239030034, "Angle": 70, "Max_Height": "Unknown", "Google_Map": "https://www.google.com/maps?q=38.582916522063094,-8.799444023903003", "Type": "Underpass" }, "geometry": { "type": "Point", "coordinates": [ -8.799444023903003, 38.582916522063094 ] } },
{ "type": "Feature", "properties": { "Route": "Route_Opt_1", "Lat": 38.583758880036811, "Lon": -8.7914775158678342, "Angle": 71, "Max_Height": "Unknown", "Google_Map": "https://www.google.com/maps?q=38.58375888003681,-8.791477515867834", "Type": "Underpass" }, "geometry": { "type": "Point", "coordinates": [ -8.791477515867834, 38.583758880036811 ] } },
{ "type": "Feature", "properties": { "Route": "Route_Opt_1", "Lat": 38.588453506442796, "Lon": -8.7672875485303798, "Angle": 74, "Max_Height": "Unknown", "Google_Map": "https://www.google.com/maps?q=38.588453506442804,-8.76728754853038", "Type": "Underpass" }, "geometry": { "type": "Point", "coordinates": [ -8.76728754853038, 38.588453506442804 ] } },
{ "type": "Feature", "properties": { "Route": "Route_Opt_1", "Lat": 38.677162827685962, "Lon": -8.6421216585210665, "Angle": 77, "Max_Height": "Unknown", "Google_Map": "https://www.google.com/maps?q=38.67716282768596,-8.642121658521065", "Type": "Underpass" }, "geometry": { "type": "Point", "coordinates": [ -8.642121658521065, 38.677162827685962 ] } },
{ "type": "Feature", "properties": { "Route": "Route_Opt_1", "Lat": 38.787439022240662, "Lon": -8.6877359563605925, "Angle": 79, "Max_Height": "Unknown", "Google_Map": "https://www.google.com/maps?q=38.78743902224066,-8.68773595636059", "Type": "Underpass" }, "geometry": { "type": "Point", "coordinates": [ -8.687735956360591, 38.787439022240662 ] } },
{ "type": "Feature", "properties": { "Route": "Route_Opt_1", "Lat": 38.814130177987579, "Lon": -8.7082180333705406, "Angle": 77, "Max_Height": "Unknown", "Google_Map": "https://www.google.com/maps?q=38.81413017798758,-8.708218033370539", "Type": "Underpass" }, "geometry": { "type": "Point", "coordinates": [ -8.708218033370539, 38.814130177987579 ] } },
{ "type": "Feature", "properties": { "Route": "Route_Opt_1", "Lat": 38.775370823332423, "Lon": -8.6833299778284001, "Angle": 86, "Max_Height": "Unknown", "Google_Map": "https://www.google.com/maps?q=38.77537082333242,-8.6833299778284", "Type": "Underpass" }, "geometry": { "type": "Point", "coordinates": [ -8.6833299778284, 38.775370823332423 ] } },
{ "type": "Feature", "properties": { "Route": "Route_Opt_1", "Lat": 38.797494751122379, "Lon": -8.6950585553261455, "Angle": 77, "Max_Height": "Unknown", "Google_Map": "https://www.google.com/maps?q=38.79749475112238,-8.695058555326145", "Type": "Underpass" }, "geometry": { "type": "Point", "coordinates": [ -8.695058555326145, 38.797494751122379 ] } },
{ "type": "Feature", "properties": { "Route": "Route_Opt_1", "Lat": 38.514106541607362, "Lon": -8.8646141487942227, "Angle": 88, "Max_Height": "Unknown", "Google_Map": "https://www.google.com/maps?q=38.51410654160736,-8.864614148794221", "Type": "Underpass" }, "geometry": { "type": "Point", "coordinates": [ -8.864614148794221, 38.514106541607362 ] } },
{ "type": "Feature", "properties": { "Route": "Route_Opt_1", "Lat": 38.988551562046624, "Lon": -8.7175696446320714, "Angle": 61, "Max_Height": "Unknown", "Google_Map": "https://www.google.com/maps?q=38.988551562046624,-8.717569644632071", "Type": "Underpass" }, "geometry": { "type": "Point", "coordinates": [ -8.717569644632071, 38.988551562046624 ] } },
{ "type": "Feature", "properties": { "Route": "Route_Opt_1", "Lat": 38.721291453506126, "Lon": -8.6635847729642421, "Angle": 52, "Max_Height": "Unknown", "Google_Map": "https://www.google.com/maps?q=38.721291453506126,-8.663584772964242", "Type": "Underpass" }, "geometry": { "type": "Point", "coordinates": [ -8.663584772964242, 38.721291453506126 ] } },
{ "type": "Feature", "properties": { "Route": "Route_Opt_1", "Lat": 38.5149945, "Lon": -8.86626285, "Angle": 89, "Max_Height": "Unknown", "Google_Map": "https://www.google.com/maps?q=38.5149945,-8.86626285", "Type": "Underpass" }, "geometry": { "type": "Point", "coordinates": [ -8.86626285, 38.5149945 ] } },
{ "type": "Feature", "properties": { "Route": "Route_Opt_1", "Lat": 38.852046202567159, "Lon": -8.7617373220644019, "Angle": 76, "Max_Height": "Unknown", "Google_Map": "https://www.google.com/maps?q=38.85204620256716,-8.761737322064402", "Type": "Underpass" }, "geometry": { "type": "Point", "coordinates": [ -8.761737322064402, 38.852046202567159 ] } },
{ "type": "Feature", "properties": { "Route": "Route_Opt_1", "Lat": 38.593207519141565, "Lon": -8.7524329791789661, "Angle": 89, "Max_Height": "Unknown", "Google_Map": "https://www.google.com/maps?q=38.59320751914157,-8.752432979178966", "Type": "Underpass" }, "geometry": { "type": "Point", "coordinates": [ -8.752432979178966, 38.593207519141572 ] } },
{ "type": "Feature", "properties": { "Route": "Route_Opt_1", "Lat": 38.590540524534745, "Lon": -8.7619383393331063, "Angle": 82, "Max_Height": "Unknown", "Google_Map": "https://www.google.com/maps?q=38.590540524534745,-8.761938339333105", "Type": "Underpass" }, "geometry": { "type": "Point", "coordinates": [ -8.761938339333105, 38.590540524534745 ] } },
{ "type": "Feature", "properties": { "Route": "Route_Opt_1", "Lat": 38.595685842600702, "Lon": -8.7467868308458598, "Angle": 82, "Max_Height": "Unknown", "Google_Map": "https://www.google.com/maps?q=38.5956858426007,-8.74678683084586", "Type": "Underpass" }, "geometry": { "type": "Point", "coordinates": [ -8.74678683084586, 38.595685842600702 ] } },
{ "type": "Feature", "properties": { "Route": "Route_Opt_1", "Lat": 38.596972067725993, "Lon": -8.7161056950488156, "Angle": 62, "Max_Height": "Unknown", "Google_Map": "https://www.google.com/maps?q=38.59697206772599,-8.716105695048816", "Type": "Underpass" }, "geometry": { "type": "Point", "coordinates": [ -8.716105695048816, 38.596972067725993 ] } },
{ "type": "Feature", "properties": { "Route": "Route_Opt_1", "Lat": 38.602845975267257, "Lon": -8.6473676118083649, "Angle": 54, "Max_Height": "Unknown", "Google_Map": "https://www.google.com/maps?q=38.60284597526726,-8.647367611808363", "Type": "Underpass" }, "geometry": { "type": "Point", "coordinates": [ -8.647367611808363, 38.602845975267257 ] } },
{ "type": "Feature", "properties": { "Route": "Route_Opt_1", "Lat": 38.63871327843647, "Lon": -8.6645315910439713, "Angle": 81, "Max_Height": "Unknown", "Google_Map": "https://www.google.com/maps?q=38.63871327843647,-8.664531591043971", "Type": "Underpass" }, "geometry": { "type": "Point", "coordinates": [ -8.664531591043971, 38.63871327843647 ] } },
{ "type": "Feature", "properties": { "Route": "Route_Opt_1", "Lat": 38.877711067525581, "Lon": -8.7935016140561064, "Angle": 84, "Max_Height": "Unknown", "Google_Map": "https://www.google.com/maps?q=38.87771106752558,-8.793501614056106", "Type": "Underpass" }, "geometry": { "type": "Point", "coordinates": [ -8.793501614056106, 38.877711067525581 ] } },
{ "type": "Feature", "properties": { "Route": "Route_Opt_1", "Lat": 38.868630622514075, "Lon": -8.7876451948063146, "Angle": 81, "Max_Height": "Unknown", "Google_Map": "https://www.google.com/maps?q=38.868630622514075,-8.787645194806313", "Type": "Underpass" }, "geometry": { "type": "Point", "coordinates": [ -8.787645194806313, 38.868630622514075 ] } },
{ "type": "Feature", "properties": { "Route": "Route_Opt_1", "Lat": 38.844615787183173, "Lon": -8.7427560048724615, "Angle": 79, "Max_Height": "Unknown", "Google_Map": "https://www.google.com/maps?q=38.84461578718317,-8.742756004872462", "Type": "Underpass" }, "geometry": { "type": "Point", "coordinates": [ -8.742756004872462, 38.844615787183173 ] } },
{ "type": "Feature", "properties": { "Route": "Route_Opt_1", "Lat": 38.830113227023098, "Lon": -8.7191174694628284, "Angle": 76, "Max_Height": "Unknown", "Google_Map": "https://www.google.com/maps?q=38.8301132270231,-8.719117469462827", "Type": "Underpass" }, "geometry": { "type": "Point", "coordinates": [ -8.719117469462827, 38.830113227023098 ] } },
{ "type": "Feature", "properties": { "Route": "Route_Opt_1", "Lat": 38.733322303120133, "Lon": -8.6764108812268539, "Angle": 78, "Max_Height": "Unknown", "Google_Map": "https://www.google.com/maps?q=38.73332230312013,-8.676410881226854", "Type": "Underpass" }, "geometry": { "type": "Point", "coordinates": [ -8.676410881226854, 38.733322303120133 ] } },
{ "type": "Feature", "properties": { "Route": "Route_Opt_1", "Lat": 39.092460240939999, "Lon": -8.6706381301090794, "Angle": 63, "Max_Height": "Unknown", "Google_Map": "https://www.google.com/maps?q=39.09246024094,-8.67063813010908", "Type": "Underpass" }, "geometry": { "type": "Point", "coordinates": [ -8.670638130109079, 39.092460240939999 ] } },
{ "type": "Feature", "properties": { "Route": "Route_Opt_1", "Lat": 39.125378344209189, "Lon": -8.621144158809912, "Angle": 76, "Max_Height": "Unknown", "Google_Map": "https://www.google.com/maps?q=39.125378344209196,-8.621144158809912", "Type": "Underpass" }, "geometry": { "type": "Point", "coordinates": [ -8.621144158809912, 39.125378344209196 ] } },
{ "type": "Feature", "properties": { "Route": "Route_Opt_1", "Lat": 38.998448523019867, "Lon": -8.711159416263424, "Angle": 79, "Max_Height": "Unknown", "Google_Map": "https://www.google.com/maps?q=38.99844852301986,-8.711159416263424", "Type": "Underpass" }, "geometry": { "type": "Point", "coordinates": [ -8.711159416263424, 38.99844852301986 ] } },
{ "type": "Feature", "properties": { "Route": "Route_Opt_1", "Lat": 38.556298804538287, "Lon": -8.8696182946974211, "Angle": 55, "Max_Height": "Unknown", "Google_Map": "https://www.google.com/maps?q=38.55629880453829,-8.869618294697421", "Type": "Underpass" }, "geometry": { "type": "Point", "coordinates": [ -8.869618294697421, 38.556298804538287 ] } }
]
}
